{
 "type": "FeatureCollection",
 "note": "pseudo-WGS84 via crs.local_to_wgs84 ((0,0)m maps to (0,0)deg); viewing only, not survey",
 "features": [
  {
   "type": "Feature",
   "geometry": {
    "type": "Point",
    "coordinates": [
     -4.107082381624606e-05,
     -0.0004517790619646622
    ]
   },
   "properties": {
    "classname": "info_player_teamspawn",
    "team": "3",
    "targetname": "spawn_blue",
    "hx": -240.0,
    "hy": -2640.0,
    "hz": 208.0
   }
  },
  {
   "type": "Feature",
   "geometry": {
    "type": "Point",
    "coordinates": [
     -3.0118604131913778e-05,
     -0.0004517790619646622
    ]
   },
   "properties": {
    "classname": "info_player_teamspawn",
    "team": "3",
    "targetname": "spawn_blue",
    "hx": -176.0,
    "hy": -2640.0,
    "hz": 208.0
   }
  },
  {
   "type": "Feature",
   "geometry": {
    "type": "Point",
    "coordinates": [
     -3.0118604131971383e-05,
     -0.000465469336569652
    ]
   },
   "properties": {
    "classname": "info_player_teamspawn",
    "team": "3",
    "targetname": "spawn_blue",
    "hx": -176.0,
    "hy": -2720.0,
    "hz": 208.0
   }
  },
  {
   "type": "Feature",
   "geometry": {
    "type": "Point",
    "coordinates": [
     -3.0118604132018702e-05,
     -0.0004764215562536438
    ]
   },
   "properties": {
    "classname": "info_player_teamspawn",
    "team": "3",
    "targetname": "spawn_blue",
    "hx": -176.0,
    "hy": -2784.0,
    "hz": 208.0
   }
  },
  {
   "type": "Feature",
   "geometry": {
    "type": "Point",
    "coordinates": [
     -3.0118604132067125e-05,
     -0.00048737377593763563
    ]
   },
   "properties": {
    "classname": "info_player_teamspawn",
    "team": "3",
    "targetname": "spawn_blue",
    "hx": -176.0,
    "hy": -2848.0,
    "hz": 208.0
   }
  },
  {
   "type": "Feature",
   "geometry": {
    "type": "Point",
    "coordinates": [
     -3.011860413211665e-05,
     -0.0004983259956216274
    ]
   },
   "properties": {
    "classname": "info_player_teamspawn",
    "team": "3",
    "targetname": "spawn_blue",
    "hx": -176.0,
    "hy": -2912.0,
    "hz": 208.0
   }
  },
  {
   "type": "Feature",
   "geometry": {
    "type": "Point",
    "coordinates": [
     -3.011860413216727e-05,
     -0.0005092782153056193
    ]
   },
   "properties": {
    "classname": "info_player_teamspawn",
    "team": "3",
    "targetname": "spawn_blue",
    "hx": -176.0,
    "hy": -2976.0,
    "hz": 208.0
   }
  },
  {
   "type": "Feature",
   "geometry": {
    "type": "Point",
    "coordinates": [
     -4.107082381645517e-05,
     -0.00048737377593763563
    ]
   },
   "properties": {
    "classname": "info_player_teamspawn",
    "team": "3",
    "targetname": "spawn_blue",
    "hx": -240.0,
    "hy": -2848.0,
    "hz": 208.0
   }
  },
  {
   "type": "Feature",
   "geometry": {
    "type": "Point",
    "coordinates": [
     -4.10708238165227e-05,
     -0.0004983259956216274
    ]
   },
   "properties": {
    "classname": "info_player_teamspawn",
    "team": "3",
    "targetname": "spawn_blue",
    "hx": -240.0,
    "hy": -2912.0,
    "hz": 208.0
   }
  },
  {
   "type": "Feature",
   "geometry": {
    "type": "Point",
    "coordinates": [
     -4.107082381659173e-05,
     -0.0005092782153056193
    ]
   },
   "properties": {
    "classname": "info_player_teamspawn",
    "team": "3",
    "targetname": "spawn_blue",
    "hx": -240.0,
    "hy": -2976.0,
    "hz": 208.0
   }
  },
  {
   "type": "Feature",
   "geometry": {
    "type": "Point",
    "coordinates": [
     -4.107082381638914e-05,
     -0.0004764215562536438
    ]
   },
   "properties": {
    "classname": "info_player_teamspawn",
    "team": "3",
    "targetname": "spawn_blue",
    "hx": -240.0,
    "hy": -2784.0,
    "hz": 208.0
   }
  },
  {
   "type": "Feature",
   "geometry": {
    "type": "Point",
    "coordinates": [
     -4.107082381632461e-05,
     -0.000465469336569652
    ]
   },
   "properties": {
    "classname": "info_player_teamspawn",
    "team": "3",
    "targetname": "spawn_blue",
    "hx": -240.0,
    "hy": -2720.0,
    "hz": 208.0
   }
  },
  {
   "type": "Feature",
   "geometry": {
    "type": "Point",
    "coordinates": [
     4.654693365878425e-05,
     0.0005065401603846214
    ]
   },
   "properties": {
    "classname": "info_player_teamspawn",
    "team": "2",
    "targetname": "spawn_red",
    "hx": 272.0,
    "hy": 2960.0,
    "hz": 208.0
   }
  },
  {
   "type": "Feature",
   "geometry": {
    "type": "Point",
    "coordinates": [
     4.654693365870644e-05,
     0.0004955879407006295
    ]
   },
   "properties": {
    "classname": "info_player_teamspawn",
    "team": "2",
    "targetname": "spawn_red",
    "hx": 272.0,
    "hy": 2896.0,
    "hz": 208.0
   }
  },
  {
   "type": "Feature",
   "geometry": {
    "type": "Point",
    "coordinates": [
     4.6546933658630326e-05,
     0.0004846357210166377
    ]
   },
   "properties": {
    "classname": "info_player_teamspawn",
    "team": "2",
    "targetname": "spawn_red",
    "hx": 272.0,
    "hy": 2832.0,
    "hz": 208.0
   }
  },
  {
   "type": "Feature",
   "geometry": {
    "type": "Point",
    "coordinates": [
     4.6546933658555916e-05,
     0.0004736835013326459
    ]
   },
   "properties": {
    "classname": "info_player_teamspawn",
    "team": "2",
    "targetname": "spawn_red",
    "hx": 272.0,
    "hy": 2768.0,
    "hz": 208.0
   }
  },
  {
   "type": "Feature",
   "geometry": {
    "type": "Point",
    "coordinates": [
     4.654693365848321e-05,
     0.0004627312816486541
    ]
   },
   "properties": {
    "classname": "info_player_teamspawn",
    "team": "2",
    "targetname": "spawn_red",
    "hx": 272.0,
    "hy": 2704.0,
    "hz": 208.0
   }
  },
  {
   "type": "Feature",
   "geometry": {
    "type": "Point",
    "coordinates": [
     4.6546933658412205e-05,
     0.0004517790619646622
    ]
   },
   "properties": {
    "classname": "info_player_teamspawn",
    "team": "2",
    "targetname": "spawn_red",
    "hx": 272.0,
    "hy": 2640.0,
    "hz": 208.0
   }
  },
  {
   "type": "Feature",
   "geometry": {
    "type": "Point",
    "coordinates": [
     3.5594713974079916e-05,
     0.0004517790619646622
    ]
   },
   "properties": {
    "classname": "info_player_teamspawn",
    "team": "2",
    "targetname": "spawn_red",
    "hx": 208.0,
    "hy": 2640.0,
    "hz": 208.0
   }
  },
  {
   "type": "Feature",
   "geometry": {
    "type": "Point",
    "coordinates": [
     3.5594713974134214e-05,
     0.0004627312816486541
    ]
   },
   "properties": {
    "classname": "info_player_teamspawn",
    "team": "2",
    "targetname": "spawn_red",
    "hx": 208.0,
    "hy": 2704.0,
    "hz": 208.0
   }
  },
  {
   "type": "Feature",
   "geometry": {
    "type": "Point",
    "coordinates": [
     3.559471397418982e-05,
     0.0004736835013326459
    ]
   },
   "properties": {
    "classname": "info_player_teamspawn",
    "team": "2",
    "targetname": "spawn_red",
    "hx": 208.0,
    "hy": 2768.0,
    "hz": 208.0
   }
  },
  {
   "type": "Feature",
   "geometry": {
    "type": "Point",
    "coordinates": [
     3.559471397424672e-05,
     0.0004846357210166377
    ]
   },
   "properties": {
    "classname": "info_player_teamspawn",
    "team": "2",
    "targetname": "spawn_red",
    "hx": 208.0,
    "hy": 2832.0,
    "hz": 208.0
   }
  },
  {
   "type": "Feature",
   "geometry": {
    "type": "Point",
    "coordinates": [
     3.559471397430492e-05,
     0.0004955879407006295
    ]
   },
   "properties": {
    "classname": "info_player_teamspawn",
    "team": "2",
    "targetname": "spawn_red",
    "hx": 208.0,
    "hy": 2896.0,
    "hz": 208.0
   }
  },
  {
   "type": "Feature",
   "geometry": {
    "type": "Point",
    "coordinates": [
     3.5594713974364424e-05,
     0.0005065401603846214
    ]
   },
   "properties": {
    "classname": "info_player_teamspawn",
    "team": "2",
    "targetname": "spawn_red",
    "hx": 208.0,
    "hy": 2960.0,
    "hz": 208.0
   }
  },
  {
   "type": "Feature",
   "geometry": {
    "type": "Point",
    "coordinates": [
     0.00010130803207736893,
     0.0001697594051018731
    ]
   },
   "properties": {
    "classname": "item_ammopack_medium",
    "team": "",
    "targetname": "",
    "hx": 592.0,
    "hy": 992.0,
    "hz": 288.256
   }
  },
  {
   "type": "Feature",
   "geometry": {
    "type": "Point",
    "coordinates": [
     4.928498857843948e-05,
     0.0002519010527318117
    ]
   },
   "properties": {
    "classname": "item_ammopack_full",
    "team": "",
    "targetname": "",
    "hx": 288.0,
    "hy": 1472.0,
    "hz": 192.261
   }
  },
  {
   "type": "Feature",
   "geometry": {
    "type": "Point",
    "coordinates": [
     -0.00010130803207736893,
     -0.0001697594051018731
    ]
   },
   "properties": {
    "classname": "item_ammopack_medium",
    "team": "",
    "targetname": "",
    "hx": -592.0,
    "hy": -992.0,
    "hz": 288.256
   }
  },
  {
   "type": "Feature",
   "geometry": {
    "type": "Point",
    "coordinates": [
     -4.928498857843948e-05,
     -0.0002519010527318117
    ]
   },
   "properties": {
    "classname": "item_ammopack_full",
    "team": "",
    "targetname": "",
    "hx": -288.0,
    "hy": -1472.0,
    "hz": 192.261
   }
  },
  {
   "type": "Feature",
   "geometry": {
    "type": "Point",
    "coordinates": [
     0.0,
     0.0
    ]
   },
   "properties": {
    "classname": "team_control_point",
    "team": "",
    "targetname": "cap_flag",
    "hx": 0.0,
    "hy": 0.0,
    "hz": 300.0
   }
  },
  {
   "type": "Feature",
   "geometry": {
    "type": "Point",
    "coordinates": [
     0.00016428329525994853,
     -5.339207095946008e-05
    ]
   },
   "properties": {
    "classname": "item_ammopack_medium",
    "team": "",
    "targetname": "",
    "hx": 960.0,
    "hy": -312.0,
    "hz": 292.0
   }
  },
  {
   "type": "Feature",
   "geometry": {
    "type": "Point",
    "coordinates": [
     -0.00016428329525994853,
     5.339207095946008e-05
    ]
   },
   "properties": {
    "classname": "item_ammopack_medium",
    "team": "",
    "targetname": "",
    "hx": -960.0,
    "hy": 312.0,
    "hz": 292.0
   }
  },
  {
   "type": "Feature",
   "geometry": {
    "type": "Point",
    "coordinates": [
     -0.00021904439368254148,
     -0.0002847577117837871
    ]
   },
   "properties": {
    "classname": "item_ammopack_small",
    "team": "",
    "targetname": "",
    "hx": -1280.0,
    "hy": -1664.0,
    "hz": 4.0
   }
  },
  {
   "type": "Feature",
   "geometry": {
    "type": "Point",
    "coordinates": [
     0.00021904439368264654,
     0.00029023382162578307
    ]
   },
   "properties": {
    "classname": "item_ammopack_small",
    "team": "",
    "targetname": "",
    "hx": 1280.0,
    "hy": 1696.0,
    "hz": 4.0
   }
  }
 ]
}
