{
 "type": "FeatureCollection",
 "note": "pseudo-WGS84 via crs.local_to_wgs84 ((0,0)m maps to (0,0)deg); viewing only, not survey",
 "features": [
  {
   "type": "Feature",
   "geometry": {
    "type": "Point",
    "coordinates": [
     0.00010678414191986441,
     -0.00024094883304781988
    ]
   },
   "properties": {
    "classname": "info_player_teamspawn",
    "team": "2",
    "targetname": "",
    "hx": 624.0,
    "hy": -1408.0,
    "hz": -1244.0
   }
  },
  {
   "type": "Feature",
   "geometry": {
    "type": "Point",
    "coordinates": [
     0.00011499830668300141,
     -0.0002491629978108137
    ]
   },
   "properties": {
    "classname": "info_player_teamspawn",
    "team": "2",
    "targetname": "",
    "hx": 672.0,
    "hy": -1456.0,
    "hz": -1244.0
   }
  },
  {
   "type": "Feature",
   "geometry": {
    "type": "Point",
    "coordinates": [
     0.00011773636160412528,
     -0.00026011521749480553
    ]
   },
   "properties": {
    "classname": "info_player_teamspawn",
    "team": "2",
    "targetname": "",
    "hx": 688.0,
    "hy": -1520.0,
    "hz": -1244.0
   }
  },
  {
   "type": "Feature",
   "geometry": {
    "type": "Point",
    "coordinates": [
     6.0237208262475576e-05,
     -0.0002382107781268219
    ]
   },
   "properties": {
    "classname": "info_player_teamspawn",
    "team": "2",
    "targetname": "",
    "hx": 352.0,
    "hy": -1392.0,
    "hz": -1244.0
   }
  },
  {
   "type": "Feature",
   "geometry": {
    "type": "Point",
    "coordinates": [
     7.118942794656204e-05,
     -0.0002382107781268219
    ]
   },
   "properties": {
    "classname": "info_player_teamspawn",
    "team": "2",
    "targetname": "",
    "hx": 416.0,
    "hy": -1392.0,
    "hz": -1244.0
   }
  },
  {
   "type": "Feature",
   "geometry": {
    "type": "Point",
    "coordinates": [
     8.214164763064852e-05,
     -0.0002382107781268219
    ]
   },
   "properties": {
    "classname": "info_player_teamspawn",
    "team": "2",
    "targetname": "",
    "hx": 480.0,
    "hy": -1392.0,
    "hz": -1244.0
   }
  },
  {
   "type": "Feature",
   "geometry": {
    "type": "Point",
    "coordinates": [
     9.309386731473499e-05,
     -0.0002382107781268219
    ]
   },
   "properties": {
    "classname": "info_player_teamspawn",
    "team": "2",
    "targetname": "",
    "hx": 544.0,
    "hy": -1392.0,
    "hz": -1244.0
   }
  },
  {
   "type": "Feature",
   "geometry": {
    "type": "Point",
    "coordinates": [
     0.00010678414192002059,
     -0.00026011521749480553
    ]
   },
   "properties": {
    "classname": "info_player_teamspawn",
    "team": "2",
    "targetname": "",
    "hx": 624.0,
    "hy": -1520.0,
    "hz": -1244.0
   }
  },
  {
   "type": "Feature",
   "geometry": {
    "type": "Point",
    "coordinates": [
     9.856997715685836e-05,
     -0.0002491629978108137
    ]
   },
   "properties": {
    "classname": "info_player_teamspawn",
    "team": "2",
    "targetname": "",
    "hx": 576.0,
    "hy": -1456.0,
    "hz": -1244.0
   }
  },
  {
   "type": "Feature",
   "geometry": {
    "type": "Point",
    "coordinates": [
     5.4761098420488305e-05,
     -0.0002519010527318117
    ]
   },
   "properties": {
    "classname": "info_player_teamspawn",
    "team": "2",
    "targetname": "",
    "hx": 320.0,
    "hy": -1472.0,
    "hz": -1276.0
   }
  },
  {
   "type": "Feature",
   "geometry": {
    "type": "Point",
    "coordinates": [
     6.571331810458597e-05,
     -0.0002519010527318117
    ]
   },
   "properties": {
    "classname": "info_player_teamspawn",
    "team": "2",
    "targetname": "",
    "hx": 384.0,
    "hy": -1472.0,
    "hz": -1276.0
   }
  },
  {
   "type": "Feature",
   "geometry": {
    "type": "Point",
    "coordinates": [
     7.666553778868362e-05,
     -0.0002519010527318117
    ]
   },
   "properties": {
    "classname": "info_player_teamspawn",
    "team": "2",
    "targetname": "",
    "hx": 448.0,
    "hy": -1472.0,
    "hz": -1276.0
   }
  },
  {
   "type": "Feature",
   "geometry": {
    "type": "Point",
    "coordinates": [
     0.0,
     0.0
    ]
   },
   "properties": {
    "classname": "team_control_point",
    "team": "",
    "targetname": "cap_flag",
    "hx": 0.0,
    "hy": 0.0,
    "hz": -912.0
   }
  },
  {
   "type": "Feature",
   "geometry": {
    "type": "Point",
    "coordinates": [
     6.0237208262475576e-05,
     0.0002382107781268219
    ]
   },
   "properties": {
    "classname": "info_player_teamspawn",
    "team": "3",
    "targetname": "",
    "hx": 352.0,
    "hy": 1392.0,
    "hz": -1247.0
   }
  },
  {
   "type": "Feature",
   "geometry": {
    "type": "Point",
    "coordinates": [
     7.118942794656204e-05,
     0.0002382107781268219
    ]
   },
   "properties": {
    "classname": "info_player_teamspawn",
    "team": "3",
    "targetname": "",
    "hx": 416.0,
    "hy": 1392.0,
    "hz": -1247.0
   }
  },
  {
   "type": "Feature",
   "geometry": {
    "type": "Point",
    "coordinates": [
     8.214164763064852e-05,
     0.0002382107781268219
    ]
   },
   "properties": {
    "classname": "info_player_teamspawn",
    "team": "3",
    "targetname": "",
    "hx": 480.0,
    "hy": 1392.0,
    "hz": -1247.0
   }
  },
  {
   "type": "Feature",
   "geometry": {
    "type": "Point",
    "coordinates": [
     9.309386731473499e-05,
     0.0002382107781268219
    ]
   },
   "properties": {
    "classname": "info_player_teamspawn",
    "team": "3",
    "targetname": "",
    "hx": 544.0,
    "hy": 1392.0,
    "hz": -1247.0
   }
  },
  {
   "type": "Feature",
   "geometry": {
    "type": "Point",
    "coordinates": [
     0.00010678414191986441,
     0.00024094883304781988
    ]
   },
   "properties": {
    "classname": "info_player_teamspawn",
    "team": "3",
    "targetname": "",
    "hx": 624.0,
    "hy": 1408.0,
    "hz": -1247.0
   }
  },
  {
   "type": "Feature",
   "geometry": {
    "type": "Point",
    "coordinates": [
     0.00011773636160412528,
     0.00026011521749480553
    ]
   },
   "properties": {
    "classname": "info_player_teamspawn",
    "team": "3",
    "targetname": "",
    "hx": 688.0,
    "hy": 1520.0,
    "hz": -1247.0
   }
  },
  {
   "type": "Feature",
   "geometry": {
    "type": "Point",
    "coordinates": [
     0.00011499830668300141,
     0.0002491629978108137
    ]
   },
   "properties": {
    "classname": "info_player_teamspawn",
    "team": "3",
    "targetname": "",
    "hx": 672.0,
    "hy": 1456.0,
    "hz": -1247.0
   }
  },
  {
   "type": "Feature",
   "geometry": {
    "type": "Point",
    "coordinates": [
     9.856997715685836e-05,
     0.0002491629978108137
    ]
   },
   "properties": {
    "classname": "info_player_teamspawn",
    "team": "3",
    "targetname": "",
    "hx": 576.0,
    "hy": 1456.0,
    "hz": -1247.0
   }
  },
  {
   "type": "Feature",
   "geometry": {
    "type": "Point",
    "coordinates": [
     0.00010678414192002059,
     0.00026011521749480553
    ]
   },
   "properties": {
    "classname": "info_player_teamspawn",
    "team": "3",
    "targetname": "",
    "hx": 624.0,
    "hy": 1520.0,
    "hz": -1247.0
   }
  },
  {
   "type": "Feature",
   "geometry": {
    "type": "Point",
    "coordinates": [
     7.666553778868362e-05,
     0.0002519010527318117
    ]
   },
   "properties": {
    "classname": "info_player_teamspawn",
    "team": "3",
    "targetname": "",
    "hx": 448.0,
    "hy": 1472.0,
    "hz": -1279.0
   }
  },
  {
   "type": "Feature",
   "geometry": {
    "type": "Point",
    "coordinates": [
     6.571331810458597e-05,
     0.0002519010527318117
    ]
   },
   "properties": {
    "classname": "info_player_teamspawn",
    "team": "3",
    "targetname": "",
    "hx": 384.0,
    "hy": 1472.0,
    "hz": -1279.0
   }
  },
  {
   "type": "Feature",
   "geometry": {
    "type": "Point",
    "coordinates": [
     5.4761098420488305e-05,
     0.0002519010527318117
    ]
   },
   "properties": {
    "classname": "info_player_teamspawn",
    "team": "3",
    "targetname": "",
    "hx": 320.0,
    "hy": 1472.0,
    "hz": -1279.0
   }
  },
  {
   "type": "Feature",
   "geometry": {
    "type": "Point",
    "coordinates": [
     -0.0002204134211403352,
     0.0
    ]
   },
   "properties": {
    "classname": "item_healthkit_small",
    "team": "",
    "targetname": "",
    "hx": -1288.0,
    "hy": 0.0,
    "hz": -782.765
   }
  },
  {
   "type": "Feature",
   "geometry": {
    "type": "Point",
    "coordinates": [
     -3.4225686512718315e-05,
     -0.00021630633875883827
    ]
   },
   "properties": {
    "classname": "item_ammopack_medium",
    "team": "",
    "targetname": "",
    "hx": -200.0,
    "hy": -1264.0,
    "hz": -766.789
   }
  },
  {
   "type": "Feature",
   "geometry": {
    "type": "Point",
    "coordinates": [
     -3.285665905220959e-05,
     0.00021630633875883827
    ]
   },
   "properties": {
    "classname": "item_ammopack_medium",
    "team": "",
    "targetname": "",
    "hx": -192.0,
    "hy": 1264.0,
    "hz": -766.789
   }
  },
  {
   "type": "Feature",
   "geometry": {
    "type": "Point",
    "coordinates": [
     -0.00021014571518659288,
     0.0
    ]
   },
   "properties": {
    "classname": "item_ammopack_full",
    "team": "",
    "targetname": "",
    "hx": -1228.0,
    "hy": 0.0,
    "hz": -956.789
   }
  },
  {
   "type": "Feature",
   "geometry": {
    "type": "Point",
    "coordinates": [
     0.00013690274604989764,
     0.0
    ]
   },
   "properties": {
    "classname": "item_ammopack_medium",
    "team": "",
    "targetname": "",
    "hx": 800.0,
    "hy": 0.0,
    "hz": -894.744
   }
  },
  {
   "type": "Feature",
   "geometry": {
    "type": "Point",
    "coordinates": [
     -0.00013142663620790176,
     0.0
    ]
   },
   "properties": {
    "classname": "item_ammopack_medium",
    "team": "",
    "targetname": "",
    "hx": -768.0,
    "hy": 0.0,
    "hz": -1150.74
   }
  },
  {
   "type": "Feature",
   "geometry": {
    "type": "Point",
    "coordinates": [
     9.583192223591593e-05,
     -0.00026011521749480553
    ]
   },
   "properties": {
    "classname": "info_player_teamspawn",
    "team": "2",
    "targetname": "",
    "hx": 560.0,
    "hy": -1520.0,
    "hz": -1244.0
   }
  },
  {
   "type": "Feature",
   "geometry": {
    "type": "Point",
    "coordinates": [
     5.749915334156209e-05,
     -0.0002628532724158035
    ]
   },
   "properties": {
    "classname": "info_player_teamspawn",
    "team": "2",
    "targetname": "",
    "hx": 336.0,
    "hy": -1536.0,
    "hz": -1276.0
   }
  },
  {
   "type": "Feature",
   "geometry": {
    "type": "Point",
    "coordinates": [
     6.845137302566915e-05,
     -0.0002628532724158035
    ]
   },
   "properties": {
    "classname": "info_player_teamspawn",
    "team": "2",
    "targetname": "",
    "hx": 400.0,
    "hy": -1536.0,
    "hz": -1276.0
   }
  },
  {
   "type": "Feature",
   "geometry": {
    "type": "Point",
    "coordinates": [
     7.940359270977621e-05,
     -0.0002628532724158035
    ]
   },
   "properties": {
    "classname": "info_player_teamspawn",
    "team": "2",
    "targetname": "",
    "hx": 464.0,
    "hy": -1536.0,
    "hz": -1276.0
   }
  },
  {
   "type": "Feature",
   "geometry": {
    "type": "Point",
    "coordinates": [
     7.940359270977621e-05,
     0.0002628532724158035
    ]
   },
   "properties": {
    "classname": "info_player_teamspawn",
    "team": "3",
    "targetname": "",
    "hx": 464.0,
    "hy": 1536.0,
    "hz": -1271.0
   }
  },
  {
   "type": "Feature",
   "geometry": {
    "type": "Point",
    "coordinates": [
     6.845137302566915e-05,
     0.0002628532724158035
    ]
   },
   "properties": {
    "classname": "info_player_teamspawn",
    "team": "3",
    "targetname": "",
    "hx": 400.0,
    "hy": 1536.0,
    "hz": -1279.0
   }
  },
  {
   "type": "Feature",
   "geometry": {
    "type": "Point",
    "coordinates": [
     5.749915334156209e-05,
     0.0002628532724158035
    ]
   },
   "properties": {
    "classname": "info_player_teamspawn",
    "team": "3",
    "targetname": "",
    "hx": 336.0,
    "hy": 1536.0,
    "hz": -1279.0
   }
  },
  {
   "type": "Feature",
   "geometry": {
    "type": "Point",
    "coordinates": [
     9.583192223591593e-05,
     0.00026011521749480553
    ]
   },
   "properties": {
    "classname": "info_player_teamspawn",
    "team": "3",
    "targetname": "",
    "hx": 560.0,
    "hy": 1520.0,
    "hz": -1247.0
   }
  }
 ]
}
