{
 "type": "FeatureCollection",
 "note": "pseudo-WGS84 via crs.local_to_wgs84 ((0,0)m maps to (0,0)deg); viewing only, not survey",
 "features": [
  {
   "type": "Feature",
   "geometry": {
    "type": "Point",
    "coordinates": [
     0.00026696035481074335,
     0.0005749915334095702
    ]
   },
   "properties": {
    "classname": "info_player_teamspawn",
    "team": "3",
    "targetname": "blu_spawn_1",
    "hx": 1560.0,
    "hy": 3360.0,
    "hz": -815.995
   }
  },
  {
   "type": "Feature",
   "geometry": {
    "type": "Point",
    "coordinates": [
     0.00024916299782253796,
     0.0005558251489625845
    ]
   },
   "properties": {
    "classname": "info_player_teamspawn",
    "team": "3",
    "targetname": "blu_spawn_1",
    "hx": 1456.0,
    "hy": 3248.0,
    "hz": -815.995
   }
  },
  {
   "type": "Feature",
   "geometry": {
    "type": "Point",
    "coordinates": [
     0.00024505591544119116,
     0.0005640393137255783
    ]
   },
   "properties": {
    "classname": "info_player_teamspawn",
    "team": "3",
    "targetname": "blu_spawn_1",
    "hx": 1432.0,
    "hy": 3296.0,
    "hz": -815.995
   }
  },
  {
   "type": "Feature",
   "geometry": {
    "type": "Point",
    "coordinates": [
     0.0002409488330598377,
     0.0005722534784885722
    ]
   },
   "properties": {
    "classname": "info_player_teamspawn",
    "team": "3",
    "targetname": "blu_spawn_1",
    "hx": 1408.0,
    "hy": 3344.0,
    "hz": -815.995
   }
  },
  {
   "type": "Feature",
   "geometry": {
    "type": "Point",
    "coordinates": [
     0.00022999661337508114,
     0.0005667773686465762
    ]
   },
   "properties": {
    "classname": "info_player_teamspawn",
    "team": "3",
    "targetname": "blu_spawn_1",
    "hx": 1344.0,
    "hy": 3312.0,
    "hz": -815.995
   }
  },
  {
   "type": "Feature",
   "geometry": {
    "type": "Point",
    "coordinates": [
     0.0002341036957564494,
     0.0005585632038835824
    ]
   },
   "properties": {
    "classname": "info_player_teamspawn",
    "team": "3",
    "targetname": "blu_spawn_1",
    "hx": 1368.0,
    "hy": 3264.0,
    "hz": -815.995
   }
  },
  {
   "type": "Feature",
   "geometry": {
    "type": "Point",
    "coordinates": [
     0.00023821077813781103,
     0.0005503490391205885
    ]
   },
   "properties": {
    "classname": "info_player_teamspawn",
    "team": "3",
    "targetname": "blu_spawn_1",
    "hx": 1392.0,
    "hy": 3216.0,
    "hz": -815.995
   }
  },
  {
   "type": "Feature",
   "geometry": {
    "type": "Point",
    "coordinates": [
     0.0002532700802038785,
     0.0005476109841995906
    ]
   },
   "properties": {
    "classname": "info_player_teamspawn",
    "team": "3",
    "targetname": "blu_spawn_1",
    "hx": 1480.0,
    "hy": 3200.0,
    "hz": -815.995
   }
  },
  {
   "type": "Feature",
   "geometry": {
    "type": "Point",
    "coordinates": [
     0.00024231786051916624,
     0.0005421348743575947
    ]
   },
   "properties": {
    "classname": "info_player_teamspawn",
    "team": "3",
    "targetname": "blu_spawn_1",
    "hx": 1416.0,
    "hy": 3168.0,
    "hz": -815.995
   }
  },
  {
   "type": "Feature",
   "geometry": {
    "type": "Point",
    "coordinates": [
     0.0002751745195733704,
     0.0005585632038835824
    ]
   },
   "properties": {
    "classname": "info_player_teamspawn",
    "team": "3",
    "targetname": "blu_spawn_1",
    "hx": 1608.0,
    "hy": 3264.0,
    "hz": -815.995
   }
  },
  {
   "type": "Feature",
   "geometry": {
    "type": "Point",
    "coordinates": [
     0.0002642222998886131,
     0.0005530870940415865
    ]
   },
   "properties": {
    "classname": "info_player_teamspawn",
    "team": "3",
    "targetname": "blu_spawn_1",
    "hx": 1544.0,
    "hy": 3232.0,
    "hz": -815.995
   }
  },
  {
   "type": "Feature",
   "geometry": {
    "type": "Point",
    "coordinates": [
     0.0002628532724294205,
     0.0005832056981725641
    ]
   },
   "properties": {
    "classname": "info_player_teamspawn",
    "team": "3",
    "targetname": "blu_spawn_1",
    "hx": 1536.0,
    "hy": 3408.0,
    "hz": -815.995
   }
  },
  {
   "type": "Feature",
   "geometry": {
    "type": "Point",
    "coordinates": [
     0.0002519010527446174,
     0.0005777295883305681
    ]
   },
   "properties": {
    "classname": "info_player_teamspawn",
    "team": "3",
    "targetname": "blu_spawn_1",
    "hx": 1472.0,
    "hy": 3376.0,
    "hz": -815.995
   }
  },
  {
   "type": "Feature",
   "geometry": {
    "type": "Point",
    "coordinates": [
     0.0002560081351259557,
     0.0005695154235675742
    ]
   },
   "properties": {
    "classname": "info_player_teamspawn",
    "team": "3",
    "targetname": "blu_spawn_1",
    "hx": 1496.0,
    "hy": 3328.0,
    "hz": -815.995
   }
  },
  {
   "type": "Feature",
   "geometry": {
    "type": "Point",
    "coordinates": [
     0.0002710674371920599,
     0.0005667773686465762
    ]
   },
   "properties": {
    "classname": "info_player_teamspawn",
    "team": "3",
    "targetname": "blu_spawn_1",
    "hx": 1584.0,
    "hy": 3312.0,
    "hz": -815.995
   }
  },
  {
   "type": "Feature",
   "geometry": {
    "type": "Point",
    "coordinates": [
     0.0002601152175072875,
     0.0005613012588045804
    ]
   },
   "properties": {
    "classname": "info_player_teamspawn",
    "team": "3",
    "targetname": "blu_spawn_1",
    "hx": 1520.0,
    "hy": 3280.0,
    "hz": -815.995
   }
  },
  {
   "type": "Feature",
   "geometry": {
    "type": "Point",
    "coordinates": [
     0.0008597492453234291,
     0.0009966519912432549
    ]
   },
   "properties": {
    "classname": "info_player_teamspawn",
    "team": "2",
    "targetname": "red_spawn_1",
    "hx": 5024.0,
    "hy": 5824.0,
    "hz": -175.995
   }
  },
  {
   "type": "Feature",
   "geometry": {
    "type": "Point",
    "coordinates": [
     0.0013240001475049608,
     0.0009494787275231114
    ]
   },
   "properties": {
    "classname": "info_player_teamspawn",
    "team": "2",
    "targetname": "red_spawn_2",
    "hx": 7736.88,
    "hy": 5548.34,
    "hz": -495.995
   }
  },
  {
   "type": "Feature",
   "geometry": {
    "type": "Point",
    "coordinates": [
     0.0013294745460670483,
     0.0009589643765400438
    ]
   },
   "properties": {
    "classname": "info_player_teamspawn",
    "team": "2",
    "targetname": "red_spawn_2",
    "hx": 7768.87,
    "hy": 5603.77,
    "hz": -495.995
   }
  },
  {
   "type": "Feature",
   "geometry": {
    "type": "Point",
    "coordinates": [
     0.0013349523671978536,
     0.0009684483142726503
    ]
   },
   "properties": {
    "classname": "info_player_teamspawn",
    "team": "2",
    "targetname": "red_spawn_2",
    "hx": 7800.88,
    "hy": 5659.19,
    "hz": -495.995
   }
  },
  {
   "type": "Feature",
   "geometry": {
    "type": "Point",
    "coordinates": [
     0.0013404267657600752,
     0.0009779339632895827
    ]
   },
   "properties": {
    "classname": "info_player_teamspawn",
    "team": "2",
    "targetname": "red_spawn_2",
    "hx": 7832.87,
    "hy": 5714.62,
    "hz": -495.995
   }
  },
  {
   "type": "Feature",
   "geometry": {
    "type": "Point",
    "coordinates": [
     0.0013475422859854094,
     0.00097382516962376
    ]
   },
   "properties": {
    "classname": "info_player_teamspawn",
    "team": "2",
    "targetname": "red_spawn_2",
    "hx": 7874.45,
    "hy": 5690.61,
    "hz": -495.995
   }
  },
  {
   "type": "Feature",
   "geometry": {
    "type": "Point",
    "coordinates": [
     0.0013420644648545392,
     0.0009643412318911534
    ]
   },
   "properties": {
    "classname": "info_player_teamspawn",
    "team": "2",
    "targetname": "red_spawn_2",
    "hx": 7842.44,
    "hy": 5635.19,
    "hz": -495.995
   }
  },
  {
   "type": "Feature",
   "geometry": {
    "type": "Point",
    "coordinates": [
     0.0013365883550080617,
     0.0009548555828742212
    ]
   },
   "properties": {
    "classname": "info_player_teamspawn",
    "team": "2",
    "targetname": "red_spawn_2",
    "hx": 7810.44,
    "hy": 5579.76,
    "hz": -495.995
   }
  },
  {
   "type": "Feature",
   "geometry": {
    "type": "Point",
    "coordinates": [
     0.0013311122451616516,
     0.0009453716451416146
    ]
   },
   "properties": {
    "classname": "info_player_teamspawn",
    "team": "2",
    "targetname": "red_spawn_2",
    "hx": 7778.44,
    "hy": 5524.34,
    "hz": -495.995
   }
  },
  {
   "type": "Feature",
   "geometry": {
    "type": "Point",
    "coordinates": [
     0.001337413194048058,
     0.000941735165949664
    ]
   },
   "properties": {
    "classname": "info_player_teamspawn",
    "team": "2",
    "targetname": "red_spawn_2",
    "hx": 7815.26,
    "hy": 5503.09,
    "hz": -496.0
   }
  },
  {
   "type": "Feature",
   "geometry": {
    "type": "Point",
    "coordinates": [
     0.0013428893038944661,
     0.0009512208149665964
    ]
   },
   "properties": {
    "classname": "info_player_teamspawn",
    "team": "2",
    "targetname": "red_spawn_2",
    "hx": 7847.26,
    "hy": 5558.52,
    "hz": -496.0
   }
  },
  {
   "type": "Feature",
   "geometry": {
    "type": "Point",
    "coordinates": [
     0.0013483654137409406,
     0.0009607047526992029
    ]
   },
   "properties": {
    "classname": "info_player_teamspawn",
    "team": "2",
    "targetname": "red_spawn_2",
    "hx": 7879.26,
    "hy": 5613.94,
    "hz": -496.0
   }
  },
  {
   "type": "Feature",
   "geometry": {
    "type": "Point",
    "coordinates": [
     0.0013538415235874832,
     0.0009701904017161352
    ]
   },
   "properties": {
    "classname": "info_player_teamspawn",
    "team": "2",
    "targetname": "red_spawn_2",
    "hx": 7911.26,
    "hy": 5669.37,
    "hz": -496.0
   }
  },
  {
   "type": "Feature",
   "geometry": {
    "type": "Point",
    "coordinates": [
     0.0013609553325284718,
     0.0009660816080503126
    ]
   },
   "properties": {
    "classname": "info_player_teamspawn",
    "team": "2",
    "targetname": "red_spawn_2",
    "hx": 7952.83,
    "hy": 5645.36,
    "hz": -496.0
   }
  },
  {
   "type": "Feature",
   "geometry": {
    "type": "Point",
    "coordinates": [
     0.0013554792226819327,
     0.000956597670317706
    ]
   },
   "properties": {
    "classname": "info_player_teamspawn",
    "team": "2",
    "targetname": "red_spawn_2",
    "hx": 7920.83,
    "hy": 5589.94,
    "hz": -496.0
   }
  },
  {
   "type": "Feature",
   "geometry": {
    "type": "Point",
    "coordinates": [
     0.0013500031128354613,
     0.0009471137325850994
    ]
   },
   "properties": {
    "classname": "info_player_teamspawn",
    "team": "2",
    "targetname": "red_spawn_2",
    "hx": 7888.83,
    "hy": 5534.52,
    "hz": -496.0
   }
  },
  {
   "type": "Feature",
   "geometry": {
    "type": "Point",
    "coordinates": [
     0.0013445270029890561,
     0.0009376280835681672
    ]
   },
   "properties": {
    "classname": "info_player_teamspawn",
    "team": "2",
    "targetname": "red_spawn_2",
    "hx": 7856.83,
    "hy": 5479.09,
    "hz": -496.0
   }
  },
  {
   "type": "Feature",
   "geometry": {
    "type": "Point",
    "coordinates": [
     -0.00011020671059378838,
     0.001186262294522363
    ]
   },
   "properties": {
    "classname": "item_ammopack_full",
    "team": "0",
    "targetname": "",
    "hx": -644.0,
    "hy": 6932.0,
    "hz": -312.0
   }
  },
  {
   "type": "Feature",
   "geometry": {
    "type": "Point",
    "coordinates": [
     -0.00010336157329008277,
     0.0011931074318248579
    ]
   },
   "properties": {
    "classname": "item_healthkit_medium",
    "team": "0",
    "targetname": "",
    "hx": -604.0,
    "hy": 6972.0,
    "hz": -312.0
   }
  },
  {
   "type": "Feature",
   "geometry": {
    "type": "Point",
    "coordinates": [
     0.00014648593830592034,
     0.0012074822201600971
    ]
   },
   "properties": {
    "classname": "item_ammopack_medium",
    "team": "0",
    "targetname": "",
    "hx": 856.0,
    "hy": 7056.0,
    "hz": -376.0
   }
  },
  {
   "type": "Feature",
   "geometry": {
    "type": "Point",
    "coordinates": [
     0.0006845137303602835,
     0.0010308776777557293
    ]
   },
   "properties": {
    "classname": "item_ammopack_medium",
    "team": "0",
    "targetname": "",
    "hx": 4000.0,
    "hy": 6024.0,
    "hz": -504.0
   }
  },
  {
   "type": "Feature",
   "geometry": {
    "type": "Point",
    "coordinates": [
     0.0006845137303620563,
     0.0010390918425187232
    ]
   },
   "properties": {
    "classname": "item_healthkit_medium",
    "team": "0",
    "targetname": "",
    "hx": 4000.0,
    "hy": 6072.0,
    "hz": -504.0
   }
  },
  {
   "type": "Feature",
   "geometry": {
    "type": "Point",
    "coordinates": [
     0.0006708234557527896,
     0.0010295086502952304
    ]
   },
   "properties": {
    "classname": "item_ammopack_small",
    "team": "0",
    "targetname": "",
    "hx": 3920.0,
    "hy": 6016.0,
    "hz": -760.0
   }
  },
  {
   "type": "Feature",
   "geometry": {
    "type": "Point",
    "coordinates": [
     0.0006708234557545246,
     0.0010377228150582243
    ]
   },
   "properties": {
    "classname": "item_healthkit_medium",
    "team": "0",
    "targetname": "",
    "hx": 3920.0,
    "hy": 6064.0,
    "hz": -760.0
   }
  },
  {
   "type": "Feature",
   "geometry": {
    "type": "Point",
    "coordinates": [
     0.0007912978723331506,
     0.0011691494512661258
    ]
   },
   "properties": {
    "classname": "item_healthkit_small",
    "team": "0",
    "targetname": "",
    "hx": 4624.0,
    "hy": 6832.0,
    "hz": -184.0
   }
  },
  {
   "type": "Feature",
   "geometry": {
    "type": "Point",
    "coordinates": [
     0.0007871907899523375,
     0.0011746255611081217
    ]
   },
   "properties": {
    "classname": "item_ammopack_small",
    "team": "0",
    "targetname": "",
    "hx": 4600.0,
    "hy": 6864.0,
    "hz": -184.0
   }
  },
  {
   "type": "Feature",
   "geometry": {
    "type": "Point",
    "coordinates": [
     7.666553780141168e-05,
     0.001074002042761447
    ]
   },
   "properties": {
    "classname": "item_healthkit_medium",
    "team": "0",
    "targetname": "",
    "hx": 448.0,
    "hy": 6276.0,
    "hz": -616.0
   }
  },
  {
   "type": "Feature",
   "geometry": {
    "type": "Point",
    "coordinates": [
     0.0006133243024065397,
     0.001050044062202715
    ]
   },
   "properties": {
    "classname": "item_healthkit_small",
    "team": "0",
    "targetname": "",
    "hx": 3584.0,
    "hy": 6136.0,
    "hz": -180.0
   }
  },
  {
   "type": "Feature",
   "geometry": {
    "type": "Point",
    "coordinates": [
     -1.8608505758866023e-05,
     0.0008470788960464392
    ]
   },
   "properties": {
    "classname": "item_ammopack_medium",
    "team": "0",
    "targetname": "",
    "hx": -108.74,
    "hy": 4949.96,
    "hz": -376.0
   }
  },
  {
   "type": "Feature",
   "geometry": {
    "type": "Point",
    "coordinates": [
     -1.3132430141976778e-05,
     0.0008525550058884351
    ]
   },
   "properties": {
    "classname": "item_healthkit_medium",
    "team": "0",
    "targetname": "",
    "hx": -76.7402,
    "hy": 4981.96,
    "hz": -376.0
   }
  },
  {
   "type": "Feature",
   "geometry": {
    "type": "Point",
    "coordinates": [
     0.0002080921740334828,
     0.0010897458585571852
    ]
   },
   "properties": {
    "classname": "info_player_teamspawn",
    "team": "3",
    "targetname": "blu_spawn_3",
    "hx": 1216.0,
    "hy": 6368.0,
    "hz": -112.0
   }
  },
  {
   "type": "Feature",
   "geometry": {
    "type": "Point",
    "coordinates": [
     0.00020809217403273007,
     0.0010787936388731935
    ]
   },
   "properties": {
    "classname": "info_player_teamspawn",
    "team": "3",
    "targetname": "blu_spawn_3",
    "hx": 1216.0,
    "hy": 6304.0,
    "hz": -112.0
   }
  },
  {
   "type": "Feature",
   "geometry": {
    "type": "Point",
    "coordinates": [
     0.00020809217403198492,
     0.0010678414191892017
    ]
   },
   "properties": {
    "classname": "info_player_teamspawn",
    "team": "3",
    "targetname": "blu_spawn_3",
    "hx": 1216.0,
    "hy": 6240.0,
    "hz": -112.0
   }
  },
  {
   "type": "Feature",
   "geometry": {
    "type": "Point",
    "coordinates": [
     0.00020809217403424315,
     0.001100698078241177
    ]
   },
   "properties": {
    "classname": "info_player_teamspawn",
    "team": "3",
    "targetname": "blu_spawn_3",
    "hx": 1216.0,
    "hy": 6432.0,
    "hz": -112.0
   }
  },
  {
   "type": "Feature",
   "geometry": {
    "type": "Point",
    "coordinates": [
     0.00021630633879875276,
     0.001100698078241177
    ]
   },
   "properties": {
    "classname": "info_player_teamspawn",
    "team": "3",
    "targetname": "blu_spawn_3",
    "hx": 1264.0,
    "hy": 6432.0,
    "hz": -112.0
   }
  },
  {
   "type": "Feature",
   "geometry": {
    "type": "Point",
    "coordinates": [
     0.00021630633879796238,
     0.0010897458585571852
    ]
   },
   "properties": {
    "classname": "info_player_teamspawn",
    "team": "3",
    "targetname": "blu_spawn_3",
    "hx": 1264.0,
    "hy": 6368.0,
    "hz": -112.0
   }
  },
  {
   "type": "Feature",
   "geometry": {
    "type": "Point",
    "coordinates": [
     0.00021630633879717994,
     0.0010787936388731935
    ]
   },
   "properties": {
    "classname": "info_player_teamspawn",
    "team": "3",
    "targetname": "blu_spawn_3",
    "hx": 1264.0,
    "hy": 6304.0,
    "hz": -112.0
   }
  },
  {
   "type": "Feature",
   "geometry": {
    "type": "Point",
    "coordinates": [
     0.00021630633879640538,
     0.0010678414191892017
    ]
   },
   "properties": {
    "classname": "info_player_teamspawn",
    "team": "3",
    "targetname": "blu_spawn_3",
    "hx": 1264.0,
    "hy": 6240.0,
    "hz": -112.0
   }
  },
  {
   "type": "Feature",
   "geometry": {
    "type": "Point",
    "coordinates": [
     0.00023273466832777196,
     0.001100698078241177
    ]
   },
   "properties": {
    "classname": "info_player_teamspawn",
    "team": "3",
    "targetname": "blu_spawn_3",
    "hx": 1360.0,
    "hy": 6432.0,
    "hz": -112.0
   }
  },
  {
   "type": "Feature",
   "geometry": {
    "type": "Point",
    "coordinates": [
     0.00023273466832692157,
     0.0010897458585571852
    ]
   },
   "properties": {
    "classname": "info_player_teamspawn",
    "team": "3",
    "targetname": "blu_spawn_3",
    "hx": 1360.0,
    "hy": 6368.0,
    "hz": -112.0
   }
  },
  {
   "type": "Feature",
   "geometry": {
    "type": "Point",
    "coordinates": [
     0.00023273466832607968,
     0.0010787936388731935
    ]
   },
   "properties": {
    "classname": "info_player_teamspawn",
    "team": "3",
    "targetname": "blu_spawn_3",
    "hx": 1360.0,
    "hy": 6304.0,
    "hz": -112.0
   }
  },
  {
   "type": "Feature",
   "geometry": {
    "type": "Point",
    "coordinates": [
     0.00023273466832524628,
     0.0010678414191892017
    ]
   },
   "properties": {
    "classname": "info_player_teamspawn",
    "team": "3",
    "targetname": "blu_spawn_3",
    "hx": 1360.0,
    "hy": 6240.0,
    "hz": -112.0
   }
  },
  {
   "type": "Feature",
   "geometry": {
    "type": "Point",
    "coordinates": [
     0.00022452050356082582,
     0.0010678414191892017
    ]
   },
   "properties": {
    "classname": "info_player_teamspawn",
    "team": "3",
    "targetname": "blu_spawn_3",
    "hx": 1312.0,
    "hy": 6240.0,
    "hz": -112.0
   }
  },
  {
   "type": "Feature",
   "geometry": {
    "type": "Point",
    "coordinates": [
     0.0002245205035616298,
     0.0010787936388731935
    ]
   },
   "properties": {
    "classname": "info_player_teamspawn",
    "team": "3",
    "targetname": "blu_spawn_3",
    "hx": 1312.0,
    "hy": 6304.0,
    "hz": -112.0
   }
  },
  {
   "type": "Feature",
   "geometry": {
    "type": "Point",
    "coordinates": [
     0.00022452050356244196,
     0.0010897458585571852
    ]
   },
   "properties": {
    "classname": "info_player_teamspawn",
    "team": "3",
    "targetname": "blu_spawn_3",
    "hx": 1312.0,
    "hy": 6368.0,
    "hz": -112.0
   }
  },
  {
   "type": "Feature",
   "geometry": {
    "type": "Point",
    "coordinates": [
     0.00022452050356326235,
     0.001100698078241177
    ]
   },
   "properties": {
    "classname": "info_player_teamspawn",
    "team": "3",
    "targetname": "blu_spawn_3",
    "hx": 1312.0,
    "hy": 6432.0,
    "hz": -112.0
   }
  },
  {
   "type": "Feature",
   "geometry": {
    "type": "Point",
    "coordinates": [
     0.00020517443427351507,
     0.0013005760874740277
    ]
   },
   "properties": {
    "classname": "item_healthkit_small",
    "team": "0",
    "targetname": "",
    "hx": 1198.95,
    "hy": 7600.0,
    "hz": -184.0
   }
  },
  {
   "type": "Feature",
   "geometry": {
    "type": "Point",
    "coordinates": [
     0.0011759945888250556,
     0.0011965300004761054
    ]
   },
   "properties": {
    "classname": "item_ammopack_small",
    "team": "0",
    "targetname": "",
    "hx": 6872.0,
    "hy": 6992.0,
    "hz": -446.0
   }
  },
  {
   "type": "Feature",
   "geometry": {
    "type": "Point",
    "coordinates": [
     0.0011390308472650215,
     0.0008652253550353531
    ]
   },
   "properties": {
    "classname": "item_ammopack_medium",
    "team": "0",
    "targetname": "",
    "hx": 6656.0,
    "hy": 5056.0,
    "hz": -632.0
   }
  },
  {
   "type": "Feature",
   "geometry": {
    "type": "Point",
    "coordinates": [
     0.0006133243023960769,
     0.000995282963782756
    ]
   },
   "properties": {
    "classname": "team_control_point",
    "team": "",
    "targetname": "cp_2",
    "hx": 3584.0,
    "hy": 5816.0,
    "hz": -512.434
   }
  },
  {
   "type": "Feature",
   "geometry": {
    "type": "Point",
    "coordinates": [
     4.3808878744624055e-05,
     0.0011390308471351483
    ]
   },
   "properties": {
    "classname": "team_control_point",
    "team": "",
    "targetname": "cp_1",
    "hx": 256.0,
    "hy": 6656.0,
    "hz": -448.434
   }
  },
  {
   "type": "Feature",
   "geometry": {
    "type": "Point",
    "coordinates": [
     0.00014648593830636443,
     0.001215696384923091
    ]
   },
   "properties": {
    "classname": "item_healthkit_medium",
    "team": "0",
    "targetname": "",
    "hx": 856.0,
    "hy": 7104.0,
    "hz": -376.0
   }
  },
  {
   "type": "Feature",
   "geometry": {
    "type": "Point",
    "coordinates": [
     0.0011390308472999816,
     0.0009747475518752713
    ]
   },
   "properties": {
    "classname": "team_control_point",
    "team": "",
    "targetname": "cp_3",
    "hx": 6656.0,
    "hy": 5696.0,
    "hz": -640.0
   }
  },
  {
   "type": "Feature",
   "geometry": {
    "type": "Point",
    "coordinates": [
     0.0011759945888227138,
     0.0011910538906341095
    ]
   },
   "properties": {
    "classname": "item_healthkit_small",
    "team": "0",
    "targetname": "",
    "hx": 6872.0,
    "hy": 6960.0,
    "hz": -446.0
   }
  },
  {
   "type": "Feature",
   "geometry": {
    "type": "Point",
    "coordinates": [
     0.0009815926893210155,
     0.0009788546342567683
    ]
   },
   "properties": {
    "classname": "item_healthkit_medium",
    "team": "0",
    "targetname": "",
    "hx": 5736.0,
    "hy": 5720.0,
    "hz": -704.0
   }
  },
  {
   "type": "Feature",
   "geometry": {
    "type": "Point",
    "coordinates": [
     0.0009815926893186214,
     0.0009706404694937744
    ]
   },
   "properties": {
    "classname": "item_ammopack_medium",
    "team": "0",
    "targetname": "",
    "hx": 5736.0,
    "hy": 5672.0,
    "hz": -704.0
   }
  },
  {
   "type": "Feature",
   "geometry": {
    "type": "Point",
    "coordinates": [
     0.0010431989250524602,
     0.0009788546342567683
    ]
   },
   "properties": {
    "classname": "item_healthkit_medium",
    "team": "0",
    "targetname": "",
    "hx": 6096.0,
    "hy": 5720.0,
    "hz": -448.0
   }
  },
  {
   "type": "Feature",
   "geometry": {
    "type": "Point",
    "coordinates": [
     0.0010431989250499155,
     0.0009706404694937744
    ]
   },
   "properties": {
    "classname": "item_ammopack_full",
    "team": "0",
    "targetname": "",
    "hx": 6096.0,
    "hy": 5672.0,
    "hz": -448.0
   }
  },
  {
   "type": "Feature",
   "geometry": {
    "type": "Point",
    "coordinates": [
     0.001139030847234223,
     0.0007557031581954351
    ]
   },
   "properties": {
    "classname": "item_healthkit_full",
    "team": "0",
    "targetname": "",
    "hx": 6656.0,
    "hy": 4416.0,
    "hz": -792.0
   }
  },
  {
   "type": "Feature",
   "geometry": {
    "type": "Point",
    "coordinates": [
     0.001139030847345331,
     0.001100698078241177
    ]
   },
   "properties": {
    "classname": "item_healthkit_medium",
    "team": "0",
    "targetname": "",
    "hx": 6656.0,
    "hy": 6432.0,
    "hz": -640.0
   }
  },
  {
   "type": "Feature",
   "geometry": {
    "type": "Point",
    "coordinates": [
     0.00023136564086755301,
     0.001107543215543672
    ]
   },
   "properties": {
    "classname": "item_healthkit_small",
    "team": "0",
    "targetname": "",
    "hx": 1352.0,
    "hy": 6472.0,
    "hz": -568.0
   }
  },
  {
   "type": "Feature",
   "geometry": {
    "type": "Point",
    "coordinates": [
     0.00023821077817132679,
     0.001107543215543672
    ]
   },
   "properties": {
    "classname": "item_ammopack_medium",
    "team": "0",
    "targetname": "",
    "hx": 1392.0,
    "hy": 6472.0,
    "hz": -568.0
   }
  },
  {
   "type": "Feature",
   "geometry": {
    "type": "Point",
    "coordinates": [
     8.761775748883443e-05,
     0.0011253405725301588
    ]
   },
   "properties": {
    "classname": "item_ammopack_medium",
    "team": "0",
    "targetname": "",
    "hx": 512.0,
    "hy": 6576.0,
    "hz": -376.0
   }
  },
  {
   "type": "Feature",
   "geometry": {
    "type": "Point",
    "coordinates": [
     0.0005763605609823236,
     0.0011308166823721546
    ]
   },
   "properties": {
    "classname": "item_ammopack_full",
    "team": "0",
    "targetname": "",
    "hx": 3368.0,
    "hy": 6608.0,
    "hz": -448.0
   }
  },
  {
   "type": "Feature",
   "geometry": {
    "type": "Point",
    "coordinates": [
     0.0005763605609806987,
     0.0011226025176091607
    ]
   },
   "properties": {
    "classname": "item_healthkit_small",
    "team": "0",
    "targetname": "",
    "hx": 3368.0,
    "hy": 6560.0,
    "hz": -448.0
   }
  },
  {
   "type": "Feature",
   "geometry": {
    "type": "Point",
    "coordinates": [
     0.0003812741478287156,
     0.0011718875061871238
    ]
   },
   "properties": {
    "classname": "item_healthkit_medium",
    "team": "0",
    "targetname": "",
    "hx": 2228.0,
    "hy": 6848.0,
    "hz": -179.369
   }
  },
  {
   "type": "Feature",
   "geometry": {
    "type": "Point",
    "coordinates": [
     0.00038675025767242495,
     0.0011759945885686208
    ]
   },
   "properties": {
    "classname": "item_ammopack_medium",
    "team": "0",
    "targetname": "",
    "hx": 2260.0,
    "hy": 6872.0,
    "hz": -175.369
   }
  },
  {
   "type": "Feature",
   "geometry": {
    "type": "Point",
    "coordinates": [
     0.0010130803209164674,
     0.0009768010930660197
    ]
   },
   "properties": {
    "classname": "item_ammopack_full",
    "team": "0",
    "targetname": "",
    "hx": 5920.0,
    "hy": 5708.0,
    "hz": -640.0
   }
  },
  {
   "type": "Feature",
   "geometry": {
    "type": "Point",
    "coordinates": [
     0.0010130803209144113,
     0.0009699559557635248
    ]
   },
   "properties": {
    "classname": "item_healthkit_small",
    "team": "0",
    "targetname": "",
    "hx": 5920.0,
    "hy": 5668.0,
    "hz": -640.0
   }
  },
  {
   "type": "Feature",
   "geometry": {
    "type": "Point",
    "coordinates": [
     0.0002106505441169218,
     0.0013005760874740277
    ]
   },
   "properties": {
    "classname": "item_ammopack_small",
    "team": "0",
    "targetname": "",
    "hx": 1230.95,
    "hy": 7600.0,
    "hz": -184.0
   }
  },
  {
   "type": "Feature",
   "geometry": {
    "type": "Point",
    "coordinates": [
     0.0008597492453149944,
     0.0009637953321912795
    ]
   },
   "properties": {
    "classname": "info_player_teamspawn",
    "team": "2",
    "targetname": "red_spawn_1",
    "hx": 5024.0,
    "hy": 5632.0,
    "hz": -175.995
   }
  },
  {
   "type": "Feature",
   "geometry": {
    "type": "Point",
    "coordinates": [
     0.0008707014650005358,
     0.0009637953321912795
    ]
   },
   "properties": {
    "classname": "info_player_teamspawn",
    "team": "2",
    "targetname": "red_spawn_1",
    "hx": 5088.0,
    "hy": 5632.0,
    "hz": -175.995
   }
  },
  {
   "type": "Feature",
   "geometry": {
    "type": "Point",
    "coordinates": [
     0.0008816536846860771,
     0.0009637953321912795
    ]
   },
   "properties": {
    "classname": "info_player_teamspawn",
    "team": "2",
    "targetname": "red_spawn_1",
    "hx": 5152.0,
    "hy": 5632.0,
    "hz": -175.995
   }
  },
  {
   "type": "Feature",
   "geometry": {
    "type": "Point",
    "coordinates": [
     0.0008926059043716184,
     0.0009637953321912795
    ]
   },
   "properties": {
    "classname": "info_player_teamspawn",
    "team": "2",
    "targetname": "red_spawn_1",
    "hx": 5216.0,
    "hy": 5632.0,
    "hz": -175.995
   }
  },
  {
   "type": "Feature",
   "geometry": {
    "type": "Point",
    "coordinates": [
     0.0008926059043745048,
     0.0009747475518752713
    ]
   },
   "properties": {
    "classname": "info_player_teamspawn",
    "team": "2",
    "targetname": "red_spawn_1",
    "hx": 5216.0,
    "hy": 5696.0,
    "hz": -175.995
   }
  },
  {
   "type": "Feature",
   "geometry": {
    "type": "Point",
    "coordinates": [
     0.0008816536846889281,
     0.0009747475518752713
    ]
   },
   "properties": {
    "classname": "info_player_teamspawn",
    "team": "2",
    "targetname": "red_spawn_1",
    "hx": 5152.0,
    "hy": 5696.0,
    "hz": -175.995
   }
  },
  {
   "type": "Feature",
   "geometry": {
    "type": "Point",
    "coordinates": [
     0.0008707014650033513,
     0.0009747475518752713
    ]
   },
   "properties": {
    "classname": "info_player_teamspawn",
    "team": "2",
    "targetname": "red_spawn_1",
    "hx": 5088.0,
    "hy": 5696.0,
    "hz": -175.995
   }
  },
  {
   "type": "Feature",
   "geometry": {
    "type": "Point",
    "coordinates": [
     0.0008597492453177746,
     0.0009747475518752713
    ]
   },
   "properties": {
    "classname": "info_player_teamspawn",
    "team": "2",
    "targetname": "red_spawn_1",
    "hx": 5024.0,
    "hy": 5696.0,
    "hz": -175.995
   }
  },
  {
   "type": "Feature",
   "geometry": {
    "type": "Point",
    "coordinates": [
     0.0008597492453205861,
     0.0009856997715592631
    ]
   },
   "properties": {
    "classname": "info_player_teamspawn",
    "team": "2",
    "targetname": "red_spawn_1",
    "hx": 5024.0,
    "hy": 5760.0,
    "hz": -175.995
   }
  },
  {
   "type": "Feature",
   "geometry": {
    "type": "Point",
    "coordinates": [
     0.0008707014650061987,
     0.0009856997715592631
    ]
   },
   "properties": {
    "classname": "info_player_teamspawn",
    "team": "2",
    "targetname": "red_spawn_1",
    "hx": 5088.0,
    "hy": 5760.0,
    "hz": -175.995
   }
  },
  {
   "type": "Feature",
   "geometry": {
    "type": "Point",
    "coordinates": [
     0.0008816536846918113,
     0.0009856997715592631
    ]
   },
   "properties": {
    "classname": "info_player_teamspawn",
    "team": "2",
    "targetname": "red_spawn_1",
    "hx": 5152.0,
    "hy": 5760.0,
    "hz": -175.995
   }
  },
  {
   "type": "Feature",
   "geometry": {
    "type": "Point",
    "coordinates": [
     0.0008926059043774238,
     0.0009856997715592631
    ]
   },
   "properties": {
    "classname": "info_player_teamspawn",
    "team": "2",
    "targetname": "red_spawn_1",
    "hx": 5216.0,
    "hy": 5760.0,
    "hz": -175.995
   }
  },
  {
   "type": "Feature",
   "geometry": {
    "type": "Point",
    "coordinates": [
     0.0008926059043803755,
     0.0009966519912432549
    ]
   },
   "properties": {
    "classname": "info_player_teamspawn",
    "team": "2",
    "targetname": "red_spawn_1",
    "hx": 5216.0,
    "hy": 5824.0,
    "hz": -175.995
   }
  },
  {
   "type": "Feature",
   "geometry": {
    "type": "Point",
    "coordinates": [
     0.0008816536846947267,
     0.0009966519912432549
    ]
   },
   "properties": {
    "classname": "info_player_teamspawn",
    "team": "2",
    "targetname": "red_spawn_1",
    "hx": 5152.0,
    "hy": 5824.0,
    "hz": -175.995
   }
  },
  {
   "type": "Feature",
   "geometry": {
    "type": "Point",
    "coordinates": [
     0.0008707014650090779,
     0.0009966519912432549
    ]
   },
   "properties": {
    "classname": "info_player_teamspawn",
    "team": "2",
    "targetname": "red_spawn_1",
    "hx": 5088.0,
    "hy": 5824.0,
    "hz": -175.995
   }
  },
  {
   "type": "Feature",
   "geometry": {
    "type": "Point",
    "coordinates": [
     -8.351067511043997e-05,
     0.0012540291538170624
    ]
   },
   "properties": {
    "classname": "info_player_teamspawn",
    "team": "3",
    "targetname": "blu_spawn_2",
    "hx": -488.0,
    "hy": 7328.0,
    "hz": -368.0
   }
  },
  {
   "type": "Feature",
   "geometry": {
    "type": "Point",
    "coordinates": [
     -8.351067511083496e-05,
     0.001266350400961553
    ]
   },
   "properties": {
    "classname": "info_player_teamspawn",
    "team": "3",
    "targetname": "blu_spawn_2",
    "hx": -488.0,
    "hy": 7400.0,
    "hz": -368.0
   }
  },
  {
   "type": "Feature",
   "geometry": {
    "type": "Point",
    "coordinates": [
     -8.0772620189554e-05,
     0.001278671648106044
    ]
   },
   "properties": {
    "classname": "info_player_teamspawn",
    "team": "3",
    "targetname": "blu_spawn_2",
    "hx": -472.0,
    "hy": 7472.0,
    "hz": -368.0
   }
  },
  {
   "type": "Feature",
   "geometry": {
    "type": "Point",
    "coordinates": [
     -6.982040050313395e-05,
     0.0012896238677900357
    ]
   },
   "properties": {
    "classname": "info_player_teamspawn",
    "team": "3",
    "targetname": "blu_spawn_2",
    "hx": -408.0,
    "hy": 7536.0,
    "hz": -368.0
   }
  },
  {
   "type": "Feature",
   "geometry": {
    "type": "Point",
    "coordinates": [
     -5.476109843324778e-05,
     0.0012622433185800563
    ]
   },
   "properties": {
    "classname": "info_player_teamspawn",
    "team": "3",
    "targetname": "blu_spawn_2",
    "hx": -320.0,
    "hy": 7376.0,
    "hz": -368.0
   }
  },
  {
   "type": "Feature",
   "geometry": {
    "type": "Point",
    "coordinates": [
     -6.297560545516652e-05,
     0.0012649813735010542
    ]
   },
   "properties": {
    "classname": "info_player_teamspawn",
    "team": "3",
    "targetname": "blu_spawn_2",
    "hx": -368.002,
    "hy": 7392.0,
    "hz": -368.0
   }
  },
  {
   "type": "Feature",
   "geometry": {
    "type": "Point",
    "coordinates": [
     -4.9284988590131446e-05,
     0.001273195538264048
    ]
   },
   "properties": {
    "classname": "info_player_teamspawn",
    "team": "3",
    "targetname": "blu_spawn_2",
    "hx": -288.0,
    "hy": 7440.0,
    "hz": -368.0
   }
  },
  {
   "type": "Feature",
   "geometry": {
    "type": "Point",
    "coordinates": [
     -4.92849885903417e-05,
     0.0012841477579480399
    ]
   },
   "properties": {
    "classname": "info_player_teamspawn",
    "team": "3",
    "targetname": "blu_spawn_2",
    "hx": -288.0,
    "hy": 7504.0,
    "hz": -368.0
   }
  },
  {
   "type": "Feature",
   "geometry": {
    "type": "Point",
    "coordinates": [
     -6.434429065886359e-05,
     0.0012540291538170624
    ]
   },
   "properties": {
    "classname": "info_player_teamspawn",
    "team": "3",
    "targetname": "blu_spawn_2",
    "hx": -376.0,
    "hy": 7328.0,
    "hz": -368.0
   }
  },
  {
   "type": "Feature",
   "geometry": {
    "type": "Point",
    "coordinates": [
     -7.392816739869282e-05,
     0.0012649813735010542
    ]
   },
   "properties": {
    "classname": "info_player_teamspawn",
    "team": "3",
    "targetname": "blu_spawn_2",
    "hx": -432.004,
    "hy": 7392.0,
    "hz": -368.0
   }
  },
  {
   "type": "Feature",
   "geometry": {
    "type": "Point",
    "coordinates": [
     -5.749881109834926e-05,
     0.0012759335931850461
    ]
   },
   "properties": {
    "classname": "info_player_teamspawn",
    "team": "3",
    "targetname": "blu_spawn_2",
    "hx": -335.998,
    "hy": 7456.0,
    "hz": -368.0
   }
  },
  {
   "type": "Feature",
   "geometry": {
    "type": "Point",
    "coordinates": [
     -5.4761098433860014e-05,
     0.0012909928952505349
    ]
   },
   "properties": {
    "classname": "info_player_teamspawn",
    "team": "3",
    "targetname": "blu_spawn_2",
    "hx": -320.0,
    "hy": 7544.0,
    "hz": -368.0
   }
  },
  {
   "type": "Feature",
   "geometry": {
    "type": "Point",
    "coordinates": [
     -6.0236523763645584e-05,
     0.0012964690050925307
    ]
   },
   "properties": {
    "classname": "info_player_teamspawn",
    "team": "3",
    "targetname": "blu_spawn_2",
    "hx": -351.996,
    "hy": 7576.0,
    "hz": -368.0
   }
  },
  {
   "type": "Feature",
   "geometry": {
    "type": "Point",
    "coordinates": [
     -6.297526319873623e-05,
     0.001282778730487541
    ]
   },
   "properties": {
    "classname": "info_player_teamspawn",
    "team": "3",
    "targetname": "blu_spawn_2",
    "hx": -368.0,
    "hy": 7496.0,
    "hz": -368.0
   }
  },
  {
   "type": "Feature",
   "geometry": {
    "type": "Point",
    "coordinates": [
     -7.118942796356102e-05,
     0.001274564565724547
    ]
   },
   "properties": {
    "classname": "info_player_teamspawn",
    "team": "3",
    "targetname": "blu_spawn_2",
    "hx": -416.0,
    "hy": 7448.0,
    "hz": -368.0
   }
  },
  {
   "type": "Feature",
   "geometry": {
    "type": "Point",
    "coordinates": [
     -7.392696949935398e-05,
     0.0012540291538170624
    ]
   },
   "properties": {
    "classname": "info_player_teamspawn",
    "team": "3",
    "targetname": "blu_spawn_2",
    "hx": -431.997,
    "hy": 7328.0,
    "hz": -368.0
   }
  },
  {
   "type": "Feature",
   "geometry": {
    "type": "Point",
    "coordinates": [
     0.00046649610724845176,
     0.00108358523498494
    ]
   },
   "properties": {
    "classname": "item_ammopack_medium",
    "team": "0",
    "targetname": "",
    "hx": 2726.0,
    "hy": 6332.0,
    "hz": -215.111
   }
  },
  {
   "type": "Feature",
   "geometry": {
    "type": "Point",
    "coordinates": [
     0.0003987121350775797,
     0.0009119947556546495
    ]
   },
   "properties": {
    "classname": "item_healthkit_medium",
    "team": "0",
    "targetname": "",
    "hx": 2329.9,
    "hy": 5329.3,
    "hz": -444.763
   }
  },
  {
   "type": "Feature",
   "geometry": {
    "type": "Point",
    "coordinates": [
     0.0003929108812134053,
     0.0009158793710738153
    ]
   },
   "properties": {
    "classname": "item_ammopack_medium",
    "team": "0",
    "targetname": "",
    "hx": 2296.0,
    "hy": 5352.0,
    "hz": -440.763
   }
  },
  {
   "type": "Feature",
   "geometry": {
    "type": "Point",
    "coordinates": [
     0.00013005760875993527,
     0.0007954049545499054
    ]
   },
   "properties": {
    "classname": "item_healthkit_medium",
    "team": "0",
    "targetname": "",
    "hx": 760.0,
    "hy": 4648.0,
    "hz": -663.301
   }
  }
 ]
}
