{
 "type": "FeatureCollection",
 "note": "pseudo-WGS84 via crs.local_to_wgs84 ((0,0)m maps to (0,0)deg); viewing only, not survey",
 "features": [
  {
   "type": "Feature",
   "geometry": {
    "type": "Point",
    "coordinates": [
     -0.0006297526318883408,
     0.0007830409252972741
    ]
   },
   "properties": {
    "classname": "team_control_point",
    "team": "",
    "targetname": "cp_2A",
    "hx": -3680.0,
    "hy": 4575.75,
    "hz": 388.0
   }
  },
  {
   "type": "Feature",
   "geometry": {
    "type": "Point",
    "coordinates": [
     -0.0009473670028383719,
     0.0010952219683991811
    ]
   },
   "properties": {
    "classname": "team_control_point",
    "team": "",
    "targetname": "cp_1A",
    "hx": -5536.0,
    "hy": 6400.0,
    "hz": 268.0
   }
  },
  {
   "type": "Feature",
   "geometry": {
    "type": "Point",
    "coordinates": [
     -0.0009829617167135566,
     0.0007091562245384698
    ]
   },
   "properties": {
    "classname": "team_control_point",
    "team": "",
    "targetname": "cp_3A",
    "hx": -5744.0,
    "hy": 4144.0,
    "hz": 740.0
   }
  },
  {
   "type": "Feature",
   "geometry": {
    "type": "Point",
    "coordinates": [
     -0.000999744282120726,
     0.0008147082417429409
    ]
   },
   "properties": {
    "classname": "info_player_teamspawn",
    "team": "2",
    "targetname": "",
    "hx": -5842.07,
    "hy": 4760.8,
    "hz": 864.0
   }
  },
  {
   "type": "Feature",
   "geometry": {
    "type": "Point",
    "coordinates": [
     -0.0009648939768177088,
     0.0007798579364516137
    ]
   },
   "properties": {
    "classname": "info_player_teamspawn",
    "team": "2",
    "targetname": "",
    "hx": -5638.42,
    "hy": 4557.15,
    "hz": 864.0
   }
  },
  {
   "type": "Feature",
   "geometry": {
    "type": "Point",
    "coordinates": [
     -0.0009765101748211187,
     0.0007798579364516137
    ]
   },
   "properties": {
    "classname": "info_player_teamspawn",
    "team": "2",
    "targetname": "",
    "hx": -5706.3,
    "hy": 4557.15,
    "hz": 864.0
   }
  },
  {
   "type": "Feature",
   "geometry": {
    "type": "Point",
    "coordinates": [
     -0.0009765101748238335,
     0.0007914741344539476
    ]
   },
   "properties": {
    "classname": "info_player_teamspawn",
    "team": "2",
    "targetname": "",
    "hx": -5706.3,
    "hy": 4625.03,
    "hz": 864.0
   }
  },
  {
   "type": "Feature",
   "geometry": {
    "type": "Point",
    "coordinates": [
     -0.0009648939768203913,
     0.0007914741344539476
    ]
   },
   "properties": {
    "classname": "info_player_teamspawn",
    "team": "2",
    "targetname": "",
    "hx": -5638.42,
    "hy": 4625.03,
    "hz": 864.0
   }
  },
  {
   "type": "Feature",
   "geometry": {
    "type": "Point",
    "coordinates": [
     -0.0009765101748265883,
     0.0008030903324562814
    ]
   },
   "properties": {
    "classname": "info_player_teamspawn",
    "team": "2",
    "targetname": "",
    "hx": -5706.3,
    "hy": 4692.91,
    "hz": 864.0
   }
  },
  {
   "type": "Feature",
   "geometry": {
    "type": "Point",
    "coordinates": [
     -0.0009648939768231139,
     0.0008030920437406071
    ]
   },
   "properties": {
    "classname": "info_player_teamspawn",
    "team": "2",
    "targetname": "",
    "hx": -5638.42,
    "hy": 4692.92,
    "hz": 864.0
   }
  },
  {
   "type": "Feature",
   "geometry": {
    "type": "Point",
    "coordinates": [
     -0.0009765101748293838,
     0.0008147082417429409
    ]
   },
   "properties": {
    "classname": "info_player_teamspawn",
    "team": "2",
    "targetname": "",
    "hx": -5706.3,
    "hy": 4760.8,
    "hz": 864.0
   }
  },
  {
   "type": "Feature",
   "geometry": {
    "type": "Point",
    "coordinates": [
     -0.0009648939768258757,
     0.0008147082417429409
    ]
   },
   "properties": {
    "classname": "info_player_teamspawn",
    "team": "2",
    "targetname": "",
    "hx": -5638.42,
    "hy": 4760.8,
    "hz": 864.0
   }
  },
  {
   "type": "Feature",
   "geometry": {
    "type": "Point",
    "coordinates": [
     -0.0009881280841088542,
     0.0007798579364516137
    ]
   },
   "properties": {
    "classname": "info_player_teamspawn",
    "team": "2",
    "targetname": "",
    "hx": -5774.19,
    "hy": 4557.15,
    "hz": 864.0
   }
  },
  {
   "type": "Feature",
   "geometry": {
    "type": "Point",
    "coordinates": [
     -0.0009881280841116014,
     0.0007914741344539476
    ]
   },
   "properties": {
    "classname": "info_player_teamspawn",
    "team": "2",
    "targetname": "",
    "hx": -5774.19,
    "hy": 4625.03,
    "hz": 864.0
   }
  },
  {
   "type": "Feature",
   "geometry": {
    "type": "Point",
    "coordinates": [
     -0.0009881280841143889,
     0.0008030903324562814
    ]
   },
   "properties": {
    "classname": "info_player_teamspawn",
    "team": "2",
    "targetname": "",
    "hx": -5774.19,
    "hy": 4692.91,
    "hz": 864.0
   }
  },
  {
   "type": "Feature",
   "geometry": {
    "type": "Point",
    "coordinates": [
     -0.0009881280841172178,
     0.0008147082417429409
    ]
   },
   "properties": {
    "classname": "info_player_teamspawn",
    "team": "2",
    "targetname": "",
    "hx": -5774.19,
    "hy": 4760.8,
    "hz": 864.0
   }
  },
  {
   "type": "Feature",
   "geometry": {
    "type": "Point",
    "coordinates": [
     -0.000999744282112264,
     0.0007798579364516137
    ]
   },
   "properties": {
    "classname": "info_player_teamspawn",
    "team": "2",
    "targetname": "",
    "hx": -5842.07,
    "hy": 4557.15,
    "hz": 864.0
   }
  },
  {
   "type": "Feature",
   "geometry": {
    "type": "Point",
    "coordinates": [
     -0.0009997442821150435,
     0.0007914741344539476
    ]
   },
   "properties": {
    "classname": "info_player_teamspawn",
    "team": "2",
    "targetname": "",
    "hx": -5842.07,
    "hy": 4625.03,
    "hz": 864.0
   }
  },
  {
   "type": "Feature",
   "geometry": {
    "type": "Point",
    "coordinates": [
     -0.000999744282117864,
     0.0008030903324562814
    ]
   },
   "properties": {
    "classname": "info_player_teamspawn",
    "team": "2",
    "targetname": "",
    "hx": -5842.07,
    "hy": 4692.91,
    "hz": 864.0
   }
  },
  {
   "type": "Feature",
   "geometry": {
    "type": "Point",
    "coordinates": [
     -0.0015141443716197621,
     0.0011554591766611362
    ]
   },
   "properties": {
    "classname": "info_player_teamspawn",
    "team": "3",
    "targetname": "",
    "hx": -8848.0,
    "hy": 6752.0,
    "hz": 352.0
   }
  },
  {
   "type": "Feature",
   "geometry": {
    "type": "Point",
    "coordinates": [
     -0.0015141443716256266,
     0.0011664113963451282
    ]
   },
   "properties": {
    "classname": "info_player_teamspawn",
    "team": "3",
    "targetname": "",
    "hx": -8848.0,
    "hy": 6816.0,
    "hz": 352.0
   }
  },
  {
   "type": "Feature",
   "geometry": {
    "type": "Point",
    "coordinates": [
     -0.0015141443716375216,
     0.0011883158357131115
    ]
   },
   "properties": {
    "classname": "info_player_teamspawn",
    "team": "3",
    "targetname": "",
    "hx": -8848.0,
    "hy": 6944.0,
    "hz": 352.0
   }
  },
  {
   "type": "Feature",
   "geometry": {
    "type": "Point",
    "coordinates": [
     -0.0015250965913238689,
     0.0011883158357131115
    ]
   },
   "properties": {
    "classname": "info_player_teamspawn",
    "team": "3",
    "targetname": "",
    "hx": -8912.0,
    "hy": 6944.0,
    "hz": 352.0
   }
  },
  {
   "type": "Feature",
   "geometry": {
    "type": "Point",
    "coordinates": [
     -0.0015360488110102164,
     0.0011883158357131115
    ]
   },
   "properties": {
    "classname": "info_player_teamspawn",
    "team": "3",
    "targetname": "",
    "hx": -8976.0,
    "hy": 6944.0,
    "hz": 352.0
   }
  },
  {
   "type": "Feature",
   "geometry": {
    "type": "Point",
    "coordinates": [
     -0.0015470010306965637,
     0.0011883158357131115
    ]
   },
   "properties": {
    "classname": "info_player_teamspawn",
    "team": "3",
    "targetname": "",
    "hx": -9040.0,
    "hy": 6944.0,
    "hz": 352.0
   }
  },
  {
   "type": "Feature",
   "geometry": {
    "type": "Point",
    "coordinates": [
     -0.0015141443716315465,
     0.0011773636160291197
    ]
   },
   "properties": {
    "classname": "info_player_teamspawn",
    "team": "3",
    "targetname": "",
    "hx": -8848.0,
    "hy": 6880.0,
    "hz": 352.0
   }
  },
  {
   "type": "Feature",
   "geometry": {
    "type": "Point",
    "coordinates": [
     -0.0015250965913178507,
     0.0011773636160291197
    ]
   },
   "properties": {
    "classname": "info_player_teamspawn",
    "team": "3",
    "targetname": "",
    "hx": -8912.0,
    "hy": 6880.0,
    "hz": 352.0
   }
  },
  {
   "type": "Feature",
   "geometry": {
    "type": "Point",
    "coordinates": [
     -0.0015250965913118878,
     0.0011664113963451282
    ]
   },
   "properties": {
    "classname": "info_player_teamspawn",
    "team": "3",
    "targetname": "",
    "hx": -8912.0,
    "hy": 6816.0,
    "hz": 352.0
   }
  },
  {
   "type": "Feature",
   "geometry": {
    "type": "Point",
    "coordinates": [
     -0.0015360488109981492,
     0.0011664113963451282
    ]
   },
   "properties": {
    "classname": "info_player_teamspawn",
    "team": "3",
    "targetname": "",
    "hx": -8976.0,
    "hy": 6816.0,
    "hz": 352.0
   }
  },
  {
   "type": "Feature",
   "geometry": {
    "type": "Point",
    "coordinates": [
     -0.001525096591305981,
     0.0011554591766611362
    ]
   },
   "properties": {
    "classname": "info_player_teamspawn",
    "team": "3",
    "targetname": "",
    "hx": -8912.0,
    "hy": 6752.0,
    "hz": 352.0
   }
  },
  {
   "type": "Feature",
   "geometry": {
    "type": "Point",
    "coordinates": [
     -0.0015470010306844104,
     0.0011664113963451282
    ]
   },
   "properties": {
    "classname": "info_player_teamspawn",
    "team": "3",
    "targetname": "",
    "hx": -9040.0,
    "hy": 6816.0,
    "hz": 352.0
   }
  },
  {
   "type": "Feature",
   "geometry": {
    "type": "Point",
    "coordinates": [
     -0.0015360488109922,
     0.0011554591766611362
    ]
   },
   "properties": {
    "classname": "info_player_teamspawn",
    "team": "3",
    "targetname": "",
    "hx": -8976.0,
    "hy": 6752.0,
    "hz": 352.0
   }
  },
  {
   "type": "Feature",
   "geometry": {
    "type": "Point",
    "coordinates": [
     -0.001547001030678419,
     0.0011554591766611362
    ]
   },
   "properties": {
    "classname": "info_player_teamspawn",
    "team": "3",
    "targetname": "",
    "hx": -9040.0,
    "hy": 6752.0,
    "hz": 352.0
   }
  },
  {
   "type": "Feature",
   "geometry": {
    "type": "Point",
    "coordinates": [
     -0.0015360488110041548,
     0.0011773636160291197
    ]
   },
   "properties": {
    "classname": "info_player_teamspawn",
    "team": "3",
    "targetname": "",
    "hx": -8976.0,
    "hy": 6880.0,
    "hz": 352.0
   }
  },
  {
   "type": "Feature",
   "geometry": {
    "type": "Point",
    "coordinates": [
     -0.001547001030690459,
     0.0011773636160291197
    ]
   },
   "properties": {
    "classname": "info_player_teamspawn",
    "team": "3",
    "targetname": "",
    "hx": -9040.0,
    "hy": 6880.0,
    "hz": 352.0
   }
  },
  {
   "type": "Feature",
   "geometry": {
    "type": "Point",
    "coordinates": [
     -0.000818678421548033,
     0.0011664113963451282
    ]
   },
   "properties": {
    "classname": "info_player_teamspawn",
    "team": "2",
    "targetname": "",
    "hx": -4784.0,
    "hy": 6816.0,
    "hz": 592.0
   }
  },
  {
   "type": "Feature",
   "geometry": {
    "type": "Point",
    "coordinates": [
     -0.000843320915842121,
     0.0011664113963451282
    ]
   },
   "properties": {
    "classname": "info_player_teamspawn",
    "team": "2",
    "targetname": "",
    "hx": -4928.0,
    "hy": 6816.0,
    "hz": 592.0
   }
  },
  {
   "type": "Feature",
   "geometry": {
    "type": "Point",
    "coordinates": [
     -0.000835106751077425,
     0.0011664113963451282
    ]
   },
   "properties": {
    "classname": "info_player_teamspawn",
    "team": "2",
    "targetname": "",
    "hx": -4880.0,
    "hy": 6816.0,
    "hz": 592.0
   }
  },
  {
   "type": "Feature",
   "geometry": {
    "type": "Point",
    "coordinates": [
     -0.000826892586312729,
     0.0011664113963451282
    ]
   },
   "properties": {
    "classname": "info_player_teamspawn",
    "team": "2",
    "targetname": "",
    "hx": -4832.0,
    "hy": 6816.0,
    "hz": 592.0
   }
  },
  {
   "type": "Feature",
   "geometry": {
    "type": "Point",
    "coordinates": [
     -0.0008433209158396685,
     0.0011581972315821342
    ]
   },
   "properties": {
    "classname": "info_player_teamspawn",
    "team": "2",
    "targetname": "",
    "hx": -4928.0,
    "hy": 6768.0,
    "hz": 592.0
   }
  },
  {
   "type": "Feature",
   "geometry": {
    "type": "Point",
    "coordinates": [
     -0.0008351067510749964,
     0.0011581972315821342
    ]
   },
   "properties": {
    "classname": "info_player_teamspawn",
    "team": "2",
    "targetname": "",
    "hx": -4880.0,
    "hy": 6768.0,
    "hz": 592.0
   }
  },
  {
   "type": "Feature",
   "geometry": {
    "type": "Point",
    "coordinates": [
     -0.0008268925863103243,
     0.0011581972315821342
    ]
   },
   "properties": {
    "classname": "info_player_teamspawn",
    "team": "2",
    "targetname": "",
    "hx": -4832.0,
    "hy": 6768.0,
    "hz": 592.0
   }
  },
  {
   "type": "Feature",
   "geometry": {
    "type": "Point",
    "coordinates": [
     -0.0008186784215456522,
     0.0011581972315821342
    ]
   },
   "properties": {
    "classname": "info_player_teamspawn",
    "team": "2",
    "targetname": "",
    "hx": -4784.0,
    "hy": 6768.0,
    "hz": 592.0
   }
  },
  {
   "type": "Feature",
   "geometry": {
    "type": "Point",
    "coordinates": [
     -0.000818678421543288,
     0.0011499830668191403
    ]
   },
   "properties": {
    "classname": "info_player_teamspawn",
    "team": "2",
    "targetname": "",
    "hx": -4784.0,
    "hy": 6720.0,
    "hz": 592.0
   }
  },
  {
   "type": "Feature",
   "geometry": {
    "type": "Point",
    "coordinates": [
     -0.0008268925863079364,
     0.0011499830668191403
    ]
   },
   "properties": {
    "classname": "info_player_teamspawn",
    "team": "2",
    "targetname": "",
    "hx": -4832.0,
    "hy": 6720.0,
    "hz": 592.0
   }
  },
  {
   "type": "Feature",
   "geometry": {
    "type": "Point",
    "coordinates": [
     -0.0008351067510725848,
     0.0011499830668191403
    ]
   },
   "properties": {
    "classname": "info_player_teamspawn",
    "team": "2",
    "targetname": "",
    "hx": -4880.0,
    "hy": 6720.0,
    "hz": 592.0
   }
  },
  {
   "type": "Feature",
   "geometry": {
    "type": "Point",
    "coordinates": [
     -0.0008433209158372331,
     0.0011499830668191403
    ]
   },
   "properties": {
    "classname": "info_player_teamspawn",
    "team": "2",
    "targetname": "",
    "hx": -4928.0,
    "hy": 6720.0,
    "hz": 592.0
   }
  },
  {
   "type": "Feature",
   "geometry": {
    "type": "Point",
    "coordinates": [
     -0.0008433209158348152,
     0.0011417689020561464
    ]
   },
   "properties": {
    "classname": "info_player_teamspawn",
    "team": "2",
    "targetname": "",
    "hx": -4928.0,
    "hy": 6672.0,
    "hz": 592.0
   }
  },
  {
   "type": "Feature",
   "geometry": {
    "type": "Point",
    "coordinates": [
     -0.0008351067510701904,
     0.0011417689020561464
    ]
   },
   "properties": {
    "classname": "info_player_teamspawn",
    "team": "2",
    "targetname": "",
    "hx": -4880.0,
    "hy": 6672.0,
    "hz": 592.0
   }
  },
  {
   "type": "Feature",
   "geometry": {
    "type": "Point",
    "coordinates": [
     -0.0008268925863055655,
     0.0011417689020561464
    ]
   },
   "properties": {
    "classname": "info_player_teamspawn",
    "team": "2",
    "targetname": "",
    "hx": -4832.0,
    "hy": 6672.0,
    "hz": 592.0
   }
  },
  {
   "type": "Feature",
   "geometry": {
    "type": "Point",
    "coordinates": [
     -0.0008186784215409407,
     0.0011417689020561464
    ]
   },
   "properties": {
    "classname": "info_player_teamspawn",
    "team": "2",
    "targetname": "",
    "hx": -4784.0,
    "hy": 6672.0,
    "hz": 592.0
   }
  },
  {
   "type": "Feature",
   "geometry": {
    "type": "Point",
    "coordinates": [
     -0.0006160623573727432,
     0.0012567672087380603
    ]
   },
   "properties": {
    "classname": "info_player_teamspawn",
    "team": "3",
    "targetname": "",
    "hx": -3600.0,
    "hy": 7344.0,
    "hz": 272.0
   }
  },
  {
   "type": "Feature",
   "geometry": {
    "type": "Point",
    "coordinates": [
     -0.0006160623573669881,
     0.0012321247144490787
    ]
   },
   "properties": {
    "classname": "info_player_teamspawn",
    "team": "3",
    "targetname": "",
    "hx": -3600.0,
    "hy": 7200.0,
    "hz": 272.0
   }
  },
  {
   "type": "Feature",
   "geometry": {
    "type": "Point",
    "coordinates": [
     -0.000607848192602095,
     0.0012321247144490787
    ]
   },
   "properties": {
    "classname": "info_player_teamspawn",
    "team": "3",
    "targetname": "",
    "hx": -3552.0,
    "hy": 7200.0,
    "hz": 272.0
   }
  },
  {
   "type": "Feature",
   "geometry": {
    "type": "Point",
    "coordinates": [
     -0.0005996340278372018,
     0.0012321247144490787
    ]
   },
   "properties": {
    "classname": "info_player_teamspawn",
    "team": "3",
    "targetname": "",
    "hx": -3504.0,
    "hy": 7200.0,
    "hz": 272.0
   }
  },
  {
   "type": "Feature",
   "geometry": {
    "type": "Point",
    "coordinates": [
     -0.0005914198630723085,
     0.0012321247144490787
    ]
   },
   "properties": {
    "classname": "info_player_teamspawn",
    "team": "3",
    "targetname": "",
    "hx": -3456.0,
    "hy": 7200.0,
    "hz": 272.0
   }
  },
  {
   "type": "Feature",
   "geometry": {
    "type": "Point",
    "coordinates": [
     -0.0005914198630741381,
     0.0012403388792120726
    ]
   },
   "properties": {
    "classname": "info_player_teamspawn",
    "team": "3",
    "targetname": "",
    "hx": -3456.0,
    "hy": 7248.0,
    "hz": 272.0
   }
  },
  {
   "type": "Feature",
   "geometry": {
    "type": "Point",
    "coordinates": [
     -0.0005914198630759796,
     0.0012485530439750665
    ]
   },
   "properties": {
    "classname": "info_player_teamspawn",
    "team": "3",
    "targetname": "",
    "hx": -3456.0,
    "hy": 7296.0,
    "hz": 272.0
   }
  },
  {
   "type": "Feature",
   "geometry": {
    "type": "Point",
    "coordinates": [
     -0.0005914198630778334,
     0.0012567672087380603
    ]
   },
   "properties": {
    "classname": "info_player_teamspawn",
    "team": "3",
    "targetname": "",
    "hx": -3456.0,
    "hy": 7344.0,
    "hz": 272.0
   }
  },
  {
   "type": "Feature",
   "geometry": {
    "type": "Point",
    "coordinates": [
     -0.0005996340278428033,
     0.0012567672087380603
    ]
   },
   "properties": {
    "classname": "info_player_teamspawn",
    "team": "3",
    "targetname": "",
    "hx": -3504.0,
    "hy": 7344.0,
    "hz": 272.0
   }
  },
  {
   "type": "Feature",
   "geometry": {
    "type": "Point",
    "coordinates": [
     -0.0005996340278409238,
     0.0012485530439750665
    ]
   },
   "properties": {
    "classname": "info_player_teamspawn",
    "team": "3",
    "targetname": "",
    "hx": -3504.0,
    "hy": 7296.0,
    "hz": 272.0
   }
  },
  {
   "type": "Feature",
   "geometry": {
    "type": "Point",
    "coordinates": [
     -0.0005996340278390566,
     0.0012403388792120726
    ]
   },
   "properties": {
    "classname": "info_player_teamspawn",
    "team": "3",
    "targetname": "",
    "hx": -3504.0,
    "hy": 7248.0,
    "hz": 272.0
   }
  },
  {
   "type": "Feature",
   "geometry": {
    "type": "Point",
    "coordinates": [
     -0.0006078481926039752,
     0.0012403388792120726
    ]
   },
   "properties": {
    "classname": "info_player_teamspawn",
    "team": "3",
    "targetname": "",
    "hx": -3552.0,
    "hy": 7248.0,
    "hz": 272.0
   }
  },
  {
   "type": "Feature",
   "geometry": {
    "type": "Point",
    "coordinates": [
     -0.000607848192605868,
     0.0012485530439750665
    ]
   },
   "properties": {
    "classname": "info_player_teamspawn",
    "team": "3",
    "targetname": "",
    "hx": -3552.0,
    "hy": 7296.0,
    "hz": 272.0
   }
  },
  {
   "type": "Feature",
   "geometry": {
    "type": "Point",
    "coordinates": [
     -0.0006078481926077732,
     0.0012567672087380603
    ]
   },
   "properties": {
    "classname": "info_player_teamspawn",
    "team": "3",
    "targetname": "",
    "hx": -3552.0,
    "hy": 7344.0,
    "hz": 272.0
   }
  },
  {
   "type": "Feature",
   "geometry": {
    "type": "Point",
    "coordinates": [
     -0.0006160623573688938,
     0.0012403388792120726
    ]
   },
   "properties": {
    "classname": "info_player_teamspawn",
    "team": "3",
    "targetname": "",
    "hx": -3600.0,
    "hy": 7248.0,
    "hz": 272.0
   }
  },
  {
   "type": "Feature",
   "geometry": {
    "type": "Point",
    "coordinates": [
     -0.0006160623573708121,
     0.0012485530439750665
    ]
   },
   "properties": {
    "classname": "info_player_teamspawn",
    "team": "3",
    "targetname": "",
    "hx": -3600.0,
    "hy": 7296.0,
    "hz": 272.0
   }
  },
  {
   "type": "Feature",
   "geometry": {
    "type": "Point",
    "coordinates": [
     -0.0006160623572653965,
     0.0006598712359605067
    ]
   },
   "properties": {
    "classname": "info_player_teamspawn",
    "team": "2",
    "targetname": "",
    "hx": -3600.0,
    "hy": 3856.0,
    "hz": 496.0
   }
  },
  {
   "type": "Feature",
   "geometry": {
    "type": "Point",
    "coordinates": [
     -0.00061606235726642,
     0.0006680854007235005
    ]
   },
   "properties": {
    "classname": "info_player_teamspawn",
    "team": "2",
    "targetname": "",
    "hx": -3600.0,
    "hy": 3904.0,
    "hz": 496.0
   }
  },
  {
   "type": "Feature",
   "geometry": {
    "type": "Point",
    "coordinates": [
     -0.0006160623572674562,
     0.0006762995654864944
    ]
   },
   "properties": {
    "classname": "info_player_teamspawn",
    "team": "2",
    "targetname": "",
    "hx": -3600.0,
    "hy": 3952.0,
    "hz": 496.0
   }
  },
  {
   "type": "Feature",
   "geometry": {
    "type": "Point",
    "coordinates": [
     -0.000616062357268505,
     0.0006845137302494882
    ]
   },
   "properties": {
    "classname": "info_player_teamspawn",
    "team": "2",
    "targetname": "",
    "hx": -3600.0,
    "hy": 4000.0,
    "hz": 496.0
   }
  },
  {
   "type": "Feature",
   "geometry": {
    "type": "Point",
    "coordinates": [
     -0.0006242765220320851,
     0.0006845137302494882
    ]
   },
   "properties": {
    "classname": "info_player_teamspawn",
    "team": "2",
    "targetname": "",
    "hx": -3648.0,
    "hy": 4000.0,
    "hz": 496.0
   }
  },
  {
   "type": "Feature",
   "geometry": {
    "type": "Point",
    "coordinates": [
     -0.0006242765220310222,
     0.0006762995654864944
    ]
   },
   "properties": {
    "classname": "info_player_teamspawn",
    "team": "2",
    "targetname": "",
    "hx": -3648.0,
    "hy": 3952.0,
    "hz": 496.0
   }
  },
  {
   "type": "Feature",
   "geometry": {
    "type": "Point",
    "coordinates": [
     -0.0006242765220299723,
     0.0006680854007235005
    ]
   },
   "properties": {
    "classname": "info_player_teamspawn",
    "team": "2",
    "targetname": "",
    "hx": -3648.0,
    "hy": 3904.0,
    "hz": 496.0
   }
  },
  {
   "type": "Feature",
   "geometry": {
    "type": "Point",
    "coordinates": [
     -0.0006242765220289352,
     0.0006598712359605067
    ]
   },
   "properties": {
    "classname": "info_player_teamspawn",
    "team": "2",
    "targetname": "",
    "hx": -3648.0,
    "hy": 3856.0,
    "hz": 496.0
   }
  },
  {
   "type": "Feature",
   "geometry": {
    "type": "Point",
    "coordinates": [
     -0.0006324906867956652,
     0.0006845137302494882
    ]
   },
   "properties": {
    "classname": "info_player_teamspawn",
    "team": "2",
    "targetname": "",
    "hx": -3696.0,
    "hy": 4000.0,
    "hz": 496.0
   }
  },
  {
   "type": "Feature",
   "geometry": {
    "type": "Point",
    "coordinates": [
     -0.0006324906867945884,
     0.0006762995654864944
    ]
   },
   "properties": {
    "classname": "info_player_teamspawn",
    "team": "2",
    "targetname": "",
    "hx": -3696.0,
    "hy": 3952.0,
    "hz": 496.0
   }
  },
  {
   "type": "Feature",
   "geometry": {
    "type": "Point",
    "coordinates": [
     -0.0006407048515592453,
     0.0006845137302494882
    ]
   },
   "properties": {
    "classname": "info_player_teamspawn",
    "team": "2",
    "targetname": "",
    "hx": -3744.0,
    "hy": 4000.0,
    "hz": 496.0
   }
  },
  {
   "type": "Feature",
   "geometry": {
    "type": "Point",
    "coordinates": [
     -0.0006407048515570768,
     0.0006680854007235005
    ]
   },
   "properties": {
    "classname": "info_player_teamspawn",
    "team": "2",
    "targetname": "",
    "hx": -3744.0,
    "hy": 3904.0,
    "hz": 496.0
   }
  },
  {
   "type": "Feature",
   "geometry": {
    "type": "Point",
    "coordinates": [
     -0.0006324906867935245,
     0.0006680854007235005
    ]
   },
   "properties": {
    "classname": "info_player_teamspawn",
    "team": "2",
    "targetname": "",
    "hx": -3696.0,
    "hy": 3904.0,
    "hz": 496.0
   }
  },
  {
   "type": "Feature",
   "geometry": {
    "type": "Point",
    "coordinates": [
     -0.0006407048515581545,
     0.0006762995654864944
    ]
   },
   "properties": {
    "classname": "info_player_teamspawn",
    "team": "2",
    "targetname": "",
    "hx": -3744.0,
    "hy": 3952.0,
    "hz": 496.0
   }
  },
  {
   "type": "Feature",
   "geometry": {
    "type": "Point",
    "coordinates": [
     -0.0006324906867924738,
     0.0006598712359605067
    ]
   },
   "properties": {
    "classname": "info_player_teamspawn",
    "team": "2",
    "targetname": "",
    "hx": -3696.0,
    "hy": 3856.0,
    "hz": 496.0
   }
  },
  {
   "type": "Feature",
   "geometry": {
    "type": "Point",
    "coordinates": [
     -0.0006407048515560124,
     0.0006598712359605067
    ]
   },
   "properties": {
    "classname": "info_player_teamspawn",
    "team": "2",
    "targetname": "",
    "hx": -3744.0,
    "hy": 3856.0,
    "hz": 496.0
   }
  },
  {
   "type": "Feature",
   "geometry": {
    "type": "Point",
    "coordinates": [
     -0.000624276522001705,
     0.0003860657438607114
    ]
   },
   "properties": {
    "classname": "info_player_teamspawn",
    "team": "3",
    "targetname": "",
    "hx": -3648.0,
    "hy": 2256.0,
    "hz": 784.0
   }
  },
  {
   "type": "Feature",
   "geometry": {
    "type": "Point",
    "coordinates": [
     -0.0006324906867661333,
     0.0004024940733866991
    ]
   },
   "properties": {
    "classname": "info_player_teamspawn",
    "team": "3",
    "targetname": "",
    "hx": -3696.0,
    "hy": 2352.0,
    "hz": 784.0
   }
  },
  {
   "type": "Feature",
   "geometry": {
    "type": "Point",
    "coordinates": [
     -0.0006242765220029368,
     0.0004024940733866991
    ]
   },
   "properties": {
    "classname": "info_player_teamspawn",
    "team": "3",
    "targetname": "",
    "hx": -3648.0,
    "hy": 2352.0,
    "hz": 784.0
   }
  },
  {
   "type": "Feature",
   "geometry": {
    "type": "Point",
    "coordinates": [
     -0.0006242765220023144,
     0.0003942799086237053
    ]
   },
   "properties": {
    "classname": "info_player_teamspawn",
    "team": "3",
    "targetname": "",
    "hx": -3648.0,
    "hy": 2304.0,
    "hz": 784.0
   }
  },
  {
   "type": "Feature",
   "geometry": {
    "type": "Point",
    "coordinates": [
     -0.0006160623572397403,
     0.0004024940733866991
    ]
   },
   "properties": {
    "classname": "info_player_teamspawn",
    "team": "3",
    "targetname": "",
    "hx": -3600.0,
    "hy": 2352.0,
    "hz": 784.0
   }
  },
  {
   "type": "Feature",
   "geometry": {
    "type": "Point",
    "coordinates": [
     -0.0006160623572391261,
     0.0003942799086237053
    ]
   },
   "properties": {
    "classname": "info_player_teamspawn",
    "team": "3",
    "targetname": "",
    "hx": -3600.0,
    "hy": 2304.0,
    "hz": 784.0
   }
  },
  {
   "type": "Feature",
   "geometry": {
    "type": "Point",
    "coordinates": [
     -0.0006160623572385247,
     0.0003860657438607114
    ]
   },
   "properties": {
    "classname": "info_player_teamspawn",
    "team": "3",
    "targetname": "",
    "hx": -3600.0,
    "hy": 2256.0,
    "hz": 784.0
   }
  },
  {
   "type": "Feature",
   "geometry": {
    "type": "Point",
    "coordinates": [
     -0.0006160623572379359,
     0.00037785157909771754
    ]
   },
   "properties": {
    "classname": "info_player_teamspawn",
    "team": "3",
    "targetname": "",
    "hx": -3600.0,
    "hy": 2208.0,
    "hz": 784.0
   }
  },
  {
   "type": "Feature",
   "geometry": {
    "type": "Point",
    "coordinates": [
     -0.0006078481924759378,
     0.0003942799086237053
    ]
   },
   "properties": {
    "classname": "info_player_teamspawn",
    "team": "3",
    "targetname": "",
    "hx": -3552.0,
    "hy": 2304.0,
    "hz": 784.0
   }
  },
  {
   "type": "Feature",
   "geometry": {
    "type": "Point",
    "coordinates": [
     -0.0006078481924753444,
     0.0003860657438607114
    ]
   },
   "properties": {
    "classname": "info_player_teamspawn",
    "team": "3",
    "targetname": "",
    "hx": -3552.0,
    "hy": 2256.0,
    "hz": 784.0
   }
  },
  {
   "type": "Feature",
   "geometry": {
    "type": "Point",
    "coordinates": [
     -0.0006078481924747635,
     0.00037785157909771754
    ]
   },
   "properties": {
    "classname": "info_player_teamspawn",
    "team": "3",
    "targetname": "",
    "hx": -3552.0,
    "hy": 2208.0,
    "hz": 784.0
   }
  },
  {
   "type": "Feature",
   "geometry": {
    "type": "Point",
    "coordinates": [
     -0.0006078481924765437,
     0.0004024940733866991
    ]
   },
   "properties": {
    "classname": "info_player_teamspawn",
    "team": "3",
    "targetname": "",
    "hx": -3552.0,
    "hy": 2352.0,
    "hz": 784.0
   }
  },
  {
   "type": "Feature",
   "geometry": {
    "type": "Point",
    "coordinates": [
     -0.0006242765220011084,
     0.00037785157909771754
    ]
   },
   "properties": {
    "classname": "info_player_teamspawn",
    "team": "3",
    "targetname": "",
    "hx": -3648.0,
    "hy": 2208.0,
    "hz": 784.0
   }
  },
  {
   "type": "Feature",
   "geometry": {
    "type": "Point",
    "coordinates": [
     -0.0006324906867648854,
     0.0003860657438607114
    ]
   },
   "properties": {
    "classname": "info_player_teamspawn",
    "team": "3",
    "targetname": "",
    "hx": -3696.0,
    "hy": 2256.0,
    "hz": 784.0
   }
  },
  {
   "type": "Feature",
   "geometry": {
    "type": "Point",
    "coordinates": [
     -0.0006324906867655028,
     0.0003942799086237053
    ]
   },
   "properties": {
    "classname": "info_player_teamspawn",
    "team": "3",
    "targetname": "",
    "hx": -3696.0,
    "hy": 2304.0,
    "hz": 784.0
   }
  },
  {
   "type": "Feature",
   "geometry": {
    "type": "Point",
    "coordinates": [
     -0.0006324906867642808,
     0.00037785157909771754
    ]
   },
   "properties": {
    "classname": "info_player_teamspawn",
    "team": "3",
    "targetname": "",
    "hx": -3696.0,
    "hy": 2208.0,
    "hz": 784.0
   }
  },
  {
   "type": "Feature",
   "geometry": {
    "type": "Point",
    "coordinates": [
     -0.0009227245085166778,
     0.000999390046164253
    ]
   },
   "properties": {
    "classname": "item_ammopack_medium",
    "team": "0",
    "targetname": "",
    "hx": -5392.0,
    "hy": 5840.0,
    "hz": 296.0
   }
  },
  {
   "type": "Feature",
   "geometry": {
    "type": "Point",
    "coordinates": [
     -0.0009227245085143799,
     0.000991175881401259
    ]
   },
   "properties": {
    "classname": "item_healthkit_medium",
    "team": "0",
    "targetname": "",
    "hx": -5392.0,
    "hy": 5792.0,
    "hz": 304.0
   }
  },
  {
   "type": "Feature",
   "geometry": {
    "type": "Point",
    "coordinates": [
     -0.0009939139365061178,
     0.0011020671057016761
    ]
   },
   "properties": {
    "classname": "item_ammopack_medium",
    "team": "0",
    "targetname": "",
    "hx": -5808.0,
    "hy": 6440.0,
    "hz": 584.0
   }
  },
  {
   "type": "Feature",
   "geometry": {
    "type": "Point",
    "coordinates": [
     -0.0009939139365033873,
     0.0010938529409386822
    ]
   },
   "properties": {
    "classname": "item_healthkit_medium",
    "team": "0",
    "targetname": "",
    "hx": -5808.0,
    "hy": 6392.0,
    "hz": 592.0
   }
  },
  {
   "type": "Feature",
   "geometry": {
    "type": "Point",
    "coordinates": [
     -0.0012786716482718606,
     0.0009227245083763102
    ]
   },
   "properties": {
    "classname": "item_ammopack_medium",
    "team": "0",
    "targetname": "",
    "hx": -7472.0,
    "hy": 5392.0,
    "hz": 120.0
   }
  },
  {
   "type": "Feature",
   "geometry": {
    "type": "Point",
    "coordinates": [
     -0.0012677194285854742,
     0.0009199864534553122
    ]
   },
   "properties": {
    "classname": "item_healthkit_medium",
    "team": "0",
    "targetname": "",
    "hx": -7408.0,
    "hy": 5376.0,
    "hz": 128.0
   }
  },
  {
   "type": "Feature",
   "geometry": {
    "type": "Point",
    "coordinates": [
     -0.0006598712360347962,
     0.0008597492451933572
    ]
   },
   "properties": {
    "classname": "item_healthkit_medium",
    "team": "0",
    "targetname": "",
    "hx": -3856.0,
    "hy": 5024.0,
    "hz": 400.0
   }
  },
  {
   "type": "Feature",
   "geometry": {
    "type": "Point",
    "coordinates": [
     -0.0006680854007987149,
     0.0008597492451933572
    ]
   },
   "properties": {
    "classname": "item_ammopack_medium",
    "team": "0",
    "targetname": "",
    "hx": -3904.0,
    "hy": 5024.0,
    "hz": 392.0
   }
  },
  {
   "type": "Feature",
   "geometry": {
    "type": "Point",
    "coordinates": [
     -0.0004764215563191466,
     0.0009501050575862897
    ]
   },
   "properties": {
    "classname": "item_healthkit_medium",
    "team": "0",
    "targetname": "",
    "hx": -2784.0,
    "hy": 5552.0,
    "hz": 272.0
   }
  },
  {
   "type": "Feature",
   "geometry": {
    "type": "Point",
    "coordinates": [
     -0.0004764215563180188,
     0.0009418908928232959
    ]
   },
   "properties": {
    "classname": "item_ammopack_medium",
    "team": "0",
    "targetname": "",
    "hx": -2784.0,
    "hy": 5504.0,
    "hz": 264.0
   }
  },
  {
   "type": "Feature",
   "geometry": {
    "type": "Point",
    "coordinates": [
     -0.0010431989249563114,
     0.0005941579178565557
    ]
   },
   "properties": {
    "classname": "item_healthkit_medium",
    "team": "0",
    "targetname": "",
    "hx": -6096.0,
    "hy": 3472.0,
    "hz": 864.0
   }
  },
  {
   "type": "Feature",
   "geometry": {
    "type": "Point",
    "coordinates": [
     -0.001051413089719747,
     0.0005941579178565557
    ]
   },
   "properties": {
    "classname": "item_ammopack_medium",
    "team": "0",
    "targetname": "",
    "hx": -6144.0,
    "hy": 3472.0,
    "hz": 856.0
   }
  },
  {
   "type": "Feature",
   "geometry": {
    "type": "Point",
    "coordinates": [
     -0.001018556430651909,
     0.0005120162702266172
    ]
   },
   "properties": {
    "classname": "item_ammopack_medium",
    "team": "0",
    "targetname": "",
    "hx": -5952.0,
    "hy": 2992.0,
    "hz": 688.0
   }
  },
  {
   "type": "Feature",
   "geometry": {
    "type": "Point",
    "coordinates": [
     -0.0010185564306532243,
     0.0005202304349896111
    ]
   },
   "properties": {
    "classname": "item_healthkit_medium",
    "team": "0",
    "targetname": "",
    "hx": -5952.0,
    "hy": 3040.0,
    "hz": 696.0
   }
  },
  {
   "type": "Feature",
   "geometry": {
    "type": "Point",
    "coordinates": [
     -0.0009665333871276445,
     0.00032309048067775845
    ]
   },
   "properties": {
    "classname": "item_ammopack_medium",
    "team": "0",
    "targetname": "",
    "hx": -5648.0,
    "hy": 1888.0,
    "hz": 680.0
   }
  },
  {
   "type": "Feature",
   "geometry": {
    "type": "Point",
    "coordinates": [
     -0.0009665333871284358,
     0.0003313046454407523
    ]
   },
   "properties": {
    "classname": "item_healthkit_medium",
    "team": "0",
    "targetname": "",
    "hx": -5648.0,
    "hy": 1936.0,
    "hz": 680.0
   }
  }
 ]
}
