{
 "type": "FeatureCollection",
 "note": "pseudo-WGS84 via crs.local_to_wgs84 ((0,0)m maps to (0,0)deg); viewing only, not survey",
 "features": [
  {
   "type": "Feature",
   "geometry": {
    "type": "Point",
    "coordinates": [
     0.0001314266362177367,
     0.000700942059775476
    ]
   },
   "properties": {
    "classname": "team_control_point",
    "team": "",
    "targetname": "cap_red_1",
    "hx": 768.0,
    "hy": 4096.0,
    "hz": -4.0
   }
  },
  {
   "type": "Feature",
   "geometry": {
    "type": "Point",
    "coordinates": [
     0.0003162453433791318,
     0.0002833886843232881
    ]
   },
   "properties": {
    "classname": "team_control_point",
    "team": "",
    "targetname": "cap_red_2",
    "hx": 1848.0,
    "hy": 1656.0,
    "hz": 404.0
   }
  },
  {
   "type": "Feature",
   "geometry": {
    "type": "Point",
    "coordinates": [
     -0.0001314266362177367,
     -0.000700942059775476
    ]
   },
   "properties": {
    "classname": "team_control_point",
    "team": "",
    "targetname": "cap_blue_1",
    "hx": -768.0,
    "hy": -4096.0,
    "hz": -4.0
   }
  },
  {
   "type": "Feature",
   "geometry": {
    "type": "Point",
    "coordinates": [
     -0.00031556082964887396,
     -0.0002833886843232881
    ]
   },
   "properties": {
    "classname": "team_control_point",
    "team": "",
    "targetname": "cap_blue_2",
    "hx": -1844.0,
    "hy": -1656.0,
    "hz": 404.0
   }
  },
  {
   "type": "Feature",
   "geometry": {
    "type": "Point",
    "coordinates": [
     -0.00019850898177250484,
     -7.118942794594677e-05
    ]
   },
   "properties": {
    "classname": "info_player_teamspawn",
    "team": "3",
    "targetname": "spawn_blue_3",
    "hx": -1160.0,
    "hy": -416.0,
    "hz": 276.0
   }
  },
  {
   "type": "Feature",
   "geometry": {
    "type": "Point",
    "coordinates": [
     -0.00020946120145650508,
     -7.118942794594677e-05
    ]
   },
   "properties": {
    "classname": "info_player_teamspawn",
    "team": "3",
    "targetname": "spawn_blue_3",
    "hx": -1224.0,
    "hy": -416.0,
    "hz": 276.0
   }
  },
  {
   "type": "Feature",
   "geometry": {
    "type": "Point",
    "coordinates": [
     -0.00022041342114050534,
     -7.118942794594677e-05
    ]
   },
   "properties": {
    "classname": "info_player_teamspawn",
    "team": "3",
    "targetname": "spawn_blue_3",
    "hx": -1288.0,
    "hy": -416.0,
    "hz": 276.0
   }
  },
  {
   "type": "Feature",
   "geometry": {
    "type": "Point",
    "coordinates": [
     -0.00023136564082450563,
     -7.118942794594677e-05
    ]
   },
   "properties": {
    "classname": "info_player_teamspawn",
    "team": "3",
    "targetname": "spawn_blue_3",
    "hx": -1352.0,
    "hy": -416.0,
    "hz": 276.0
   }
  },
  {
   "type": "Feature",
   "geometry": {
    "type": "Point",
    "coordinates": [
     -0.00023136564082444354,
     -5.749915334095701e-05
    ]
   },
   "properties": {
    "classname": "info_player_teamspawn",
    "team": "3",
    "targetname": "spawn_blue_3",
    "hx": -1352.0,
    "hy": -336.0,
    "hz": 276.0
   }
  },
  {
   "type": "Feature",
   "geometry": {
    "type": "Point",
    "coordinates": [
     -0.0002204134211404462,
     -5.749915334095701e-05
    ]
   },
   "properties": {
    "classname": "info_player_teamspawn",
    "team": "3",
    "targetname": "spawn_blue_3",
    "hx": -1288.0,
    "hy": -336.0,
    "hz": 276.0
   }
  },
  {
   "type": "Feature",
   "geometry": {
    "type": "Point",
    "coordinates": [
     -0.00020946120145644886,
     -5.749915334095701e-05
    ]
   },
   "properties": {
    "classname": "info_player_teamspawn",
    "team": "3",
    "targetname": "spawn_blue_3",
    "hx": -1224.0,
    "hy": -336.0,
    "hz": 276.0
   }
  },
  {
   "type": "Feature",
   "geometry": {
    "type": "Point",
    "coordinates": [
     -0.00019850898177245158,
     -5.749915334095701e-05
    ]
   },
   "properties": {
    "classname": "info_player_teamspawn",
    "team": "3",
    "targetname": "spawn_blue_3",
    "hx": -1160.0,
    "hy": -336.0,
    "hz": 276.0
   }
  },
  {
   "type": "Feature",
   "geometry": {
    "type": "Point",
    "coordinates": [
     -0.00018755676208845424,
     -5.749915334095701e-05
    ]
   },
   "properties": {
    "classname": "info_player_teamspawn",
    "team": "3",
    "targetname": "spawn_blue_3",
    "hx": -1096.0,
    "hy": -336.0,
    "hz": 276.0
   }
  },
  {
   "type": "Feature",
   "geometry": {
    "type": "Point",
    "coordinates": [
     -0.00018755676208850457,
     -7.118942794594677e-05
    ]
   },
   "properties": {
    "classname": "info_player_teamspawn",
    "team": "3",
    "targetname": "spawn_blue_3",
    "hx": -1096.0,
    "hy": -416.0,
    "hz": 276.0
   }
  },
  {
   "type": "Feature",
   "geometry": {
    "type": "Point",
    "coordinates": [
     -0.00015046980818357486,
     -7.599574110289356e-05
    ]
   },
   "properties": {
    "classname": "info_player_teamspawn",
    "team": "3",
    "targetname": "spawn_blue_3",
    "hx": -879.28,
    "hy": -444.086,
    "hz": 304.0
   }
  },
  {
   "type": "Feature",
   "geometry": {
    "type": "Point",
    "coordinates": [
     -0.00016142202786757632,
     -7.599574110289356e-05
    ]
   },
   "properties": {
    "classname": "info_player_teamspawn",
    "team": "3",
    "targetname": "spawn_blue_3",
    "hx": -943.28,
    "hy": -444.086,
    "hz": 304.0
   }
  },
  {
   "type": "Feature",
   "geometry": {
    "type": "Point",
    "coordinates": [
     0.0,
     0.0
    ]
   },
   "properties": {
    "classname": "team_control_point",
    "team": "",
    "targetname": "cap_center",
    "hx": 0.0,
    "hy": 0.0,
    "hz": 292.0
   }
  },
  {
   "type": "Feature",
   "geometry": {
    "type": "Point",
    "coordinates": [
     3.559471397418982e-05,
     0.0004736835013326459
    ]
   },
   "properties": {
    "classname": "info_player_teamspawn",
    "team": "2",
    "targetname": "spawn_red_2",
    "hx": 208.0,
    "hy": 2768.0,
    "hz": 208.0
   }
  },
  {
   "type": "Feature",
   "geometry": {
    "type": "Point",
    "coordinates": [
     4.6546933658555916e-05,
     0.0004736835013326459
    ]
   },
   "properties": {
    "classname": "info_player_teamspawn",
    "team": "2",
    "targetname": "spawn_red_2",
    "hx": 272.0,
    "hy": 2768.0,
    "hz": 208.0
   }
  },
  {
   "type": "Feature",
   "geometry": {
    "type": "Point",
    "coordinates": [
     3.559471397424672e-05,
     0.0004846357210166377
    ]
   },
   "properties": {
    "classname": "info_player_teamspawn",
    "team": "2",
    "targetname": "spawn_red_2",
    "hx": 208.0,
    "hy": 2832.0,
    "hz": 208.0
   }
  },
  {
   "type": "Feature",
   "geometry": {
    "type": "Point",
    "coordinates": [
     4.6546933658630326e-05,
     0.0004846357210166377
    ]
   },
   "properties": {
    "classname": "info_player_teamspawn",
    "team": "2",
    "targetname": "spawn_red_2",
    "hx": 272.0,
    "hy": 2832.0,
    "hz": 208.0
   }
  },
  {
   "type": "Feature",
   "geometry": {
    "type": "Point",
    "coordinates": [
     3.559471397430492e-05,
     0.0004955879407006295
    ]
   },
   "properties": {
    "classname": "info_player_teamspawn",
    "team": "2",
    "targetname": "spawn_red_2",
    "hx": 208.0,
    "hy": 2896.0,
    "hz": 208.0
   }
  },
  {
   "type": "Feature",
   "geometry": {
    "type": "Point",
    "coordinates": [
     4.654693365870644e-05,
     0.0004955879407006295
    ]
   },
   "properties": {
    "classname": "info_player_teamspawn",
    "team": "2",
    "targetname": "spawn_red_2",
    "hx": 272.0,
    "hy": 2896.0,
    "hz": 208.0
   }
  },
  {
   "type": "Feature",
   "geometry": {
    "type": "Point",
    "coordinates": [
     4.654693365848321e-05,
     0.0004627312816486541
    ]
   },
   "properties": {
    "classname": "info_player_teamspawn",
    "team": "2",
    "targetname": "spawn_red_2",
    "hx": 272.0,
    "hy": 2704.0,
    "hz": 208.0
   }
  },
  {
   "type": "Feature",
   "geometry": {
    "type": "Point",
    "coordinates": [
     4.6546933658412205e-05,
     0.0004517790619646622
    ]
   },
   "properties": {
    "classname": "info_player_teamspawn",
    "team": "2",
    "targetname": "spawn_red_2",
    "hx": 272.0,
    "hy": 2640.0,
    "hz": 208.0
   }
  },
  {
   "type": "Feature",
   "geometry": {
    "type": "Point",
    "coordinates": [
     0.00010404608700737006,
     0.0007721314877214228
    ]
   },
   "properties": {
    "classname": "info_player_teamspawn",
    "team": "2",
    "targetname": "spawn_red_1",
    "hx": 608.0,
    "hy": 4512.0,
    "hz": 204.319
   }
  },
  {
   "type": "Feature",
   "geometry": {
    "type": "Point",
    "coordinates": [
     8.214164763739742e-05,
     0.0007721314877214228
    ]
   },
   "properties": {
    "classname": "info_player_teamspawn",
    "team": "2",
    "targetname": "spawn_red_1",
    "hx": 480.0,
    "hy": 4512.0,
    "hz": 204.319
   }
  },
  {
   "type": "Feature",
   "geometry": {
    "type": "Point",
    "coordinates": [
     9.309386732238374e-05,
     0.0007721314877214228
    ]
   },
   "properties": {
    "classname": "info_player_teamspawn",
    "team": "2",
    "targetname": "spawn_red_1",
    "hx": 544.0,
    "hy": 4512.0,
    "hz": 204.319
   }
  },
  {
   "type": "Feature",
   "geometry": {
    "type": "Point",
    "coordinates": [
     0.00011499830669235638,
     0.0007721314877214228
    ]
   },
   "properties": {
    "classname": "info_player_teamspawn",
    "team": "2",
    "targetname": "spawn_red_1",
    "hx": 672.0,
    "hy": 4512.0,
    "hz": 204.319
   }
  },
  {
   "type": "Feature",
   "geometry": {
    "type": "Point",
    "coordinates": [
     8.214164763771819e-05,
     0.0007885598172474106
    ]
   },
   "properties": {
    "classname": "info_player_teamspawn",
    "team": "2",
    "targetname": "spawn_red_1",
    "hx": 480.0,
    "hy": 4608.0,
    "hz": 204.319
   }
  },
  {
   "type": "Feature",
   "geometry": {
    "type": "Point",
    "coordinates": [
     9.30938673227473e-05,
     0.0007885598172474106
    ]
   },
   "properties": {
    "classname": "info_player_teamspawn",
    "team": "2",
    "targetname": "spawn_red_1",
    "hx": 544.0,
    "hy": 4608.0,
    "hz": 204.319
   }
  },
  {
   "type": "Feature",
   "geometry": {
    "type": "Point",
    "coordinates": [
     0.00010404608700777638,
     0.0007885598172474106
    ]
   },
   "properties": {
    "classname": "info_player_teamspawn",
    "team": "2",
    "targetname": "spawn_red_1",
    "hx": 608.0,
    "hy": 4608.0,
    "hz": 204.319
   }
  },
  {
   "type": "Feature",
   "geometry": {
    "type": "Point",
    "coordinates": [
     0.00011499830669280547,
     0.0007885598172474106
    ]
   },
   "properties": {
    "classname": "info_player_teamspawn",
    "team": "2",
    "targetname": "spawn_red_1",
    "hx": 672.0,
    "hy": 4608.0,
    "hz": 204.319
   }
  },
  {
   "type": "Feature",
   "geometry": {
    "type": "Point",
    "coordinates": [
     0.00014785496574731534,
     0.0007721314877214228
    ]
   },
   "properties": {
    "classname": "info_player_teamspawn",
    "team": "2",
    "targetname": "spawn_red_1",
    "hx": 864.0,
    "hy": 4512.0,
    "hz": 204.319
   }
  },
  {
   "type": "Feature",
   "geometry": {
    "type": "Point",
    "coordinates": [
     0.00015880718543230166,
     0.0007721314877214228
    ]
   },
   "properties": {
    "classname": "info_player_teamspawn",
    "team": "2",
    "targetname": "spawn_red_1",
    "hx": 928.0,
    "hy": 4512.0,
    "hz": 204.319
   }
  },
  {
   "type": "Feature",
   "geometry": {
    "type": "Point",
    "coordinates": [
     0.00016975940511728798,
     0.0007721314877214228
    ]
   },
   "properties": {
    "classname": "info_player_teamspawn",
    "team": "2",
    "targetname": "spawn_red_1",
    "hx": 992.0,
    "hy": 4512.0,
    "hz": 204.319
   }
  },
  {
   "type": "Feature",
   "geometry": {
    "type": "Point",
    "coordinates": [
     0.00018071162480227433,
     0.0007721314877214228
    ]
   },
   "properties": {
    "classname": "info_player_teamspawn",
    "team": "2",
    "targetname": "spawn_red_1",
    "hx": 1056.0,
    "hy": 4512.0,
    "hz": 204.319
   }
  },
  {
   "type": "Feature",
   "geometry": {
    "type": "Point",
    "coordinates": [
     0.00014785496574789273,
     0.0007885598172474106
    ]
   },
   "properties": {
    "classname": "info_player_teamspawn",
    "team": "2",
    "targetname": "spawn_red_1",
    "hx": 864.0,
    "hy": 4608.0,
    "hz": 204.319
   }
  },
  {
   "type": "Feature",
   "geometry": {
    "type": "Point",
    "coordinates": [
     0.00015880718543292182,
     0.0007885598172474106
    ]
   },
   "properties": {
    "classname": "info_player_teamspawn",
    "team": "2",
    "targetname": "spawn_red_1",
    "hx": 928.0,
    "hy": 4608.0,
    "hz": 204.319
   }
  },
  {
   "type": "Feature",
   "geometry": {
    "type": "Point",
    "coordinates": [
     0.00016975940511795094,
     0.0007885598172474106
    ]
   },
   "properties": {
    "classname": "info_player_teamspawn",
    "team": "2",
    "targetname": "spawn_red_1",
    "hx": 992.0,
    "hy": 4608.0,
    "hz": 204.319
   }
  },
  {
   "type": "Feature",
   "geometry": {
    "type": "Point",
    "coordinates": [
     0.00018071162480298004,
     0.0007885598172474106
    ]
   },
   "properties": {
    "classname": "info_player_teamspawn",
    "team": "2",
    "targetname": "spawn_red_1",
    "hx": 1056.0,
    "hy": 4608.0,
    "hz": 204.319
   }
  },
  {
   "type": "Feature",
   "geometry": {
    "type": "Point",
    "coordinates": [
     -4.107082381638914e-05,
     -0.0004764215562536438
    ]
   },
   "properties": {
    "classname": "info_player_teamspawn",
    "team": "3",
    "targetname": "spawn_blue_2",
    "hx": -240.0,
    "hy": -2784.0,
    "hz": 208.0
   }
  },
  {
   "type": "Feature",
   "geometry": {
    "type": "Point",
    "coordinates": [
     -3.0118604132018702e-05,
     -0.0004764215562536438
    ]
   },
   "properties": {
    "classname": "info_player_teamspawn",
    "team": "3",
    "targetname": "spawn_blue_2",
    "hx": -176.0,
    "hy": -2784.0,
    "hz": 208.0
   }
  },
  {
   "type": "Feature",
   "geometry": {
    "type": "Point",
    "coordinates": [
     -4.107082381624606e-05,
     -0.0004517790619646622
    ]
   },
   "properties": {
    "classname": "info_player_teamspawn",
    "team": "3",
    "targetname": "spawn_blue_2",
    "hx": -240.0,
    "hy": -2640.0,
    "hz": 208.0
   }
  },
  {
   "type": "Feature",
   "geometry": {
    "type": "Point",
    "coordinates": [
     -4.107082381632461e-05,
     -0.000465469336569652
    ]
   },
   "properties": {
    "classname": "info_player_teamspawn",
    "team": "3",
    "targetname": "spawn_blue_2",
    "hx": -240.0,
    "hy": -2720.0,
    "hz": 208.0
   }
  },
  {
   "type": "Feature",
   "geometry": {
    "type": "Point",
    "coordinates": [
     -3.0118604132067125e-05,
     -0.00048737377593763563
    ]
   },
   "properties": {
    "classname": "info_player_teamspawn",
    "team": "3",
    "targetname": "spawn_blue_2",
    "hx": -176.0,
    "hy": -2848.0,
    "hz": 208.0
   }
  },
  {
   "type": "Feature",
   "geometry": {
    "type": "Point",
    "coordinates": [
     -4.107082381645517e-05,
     -0.00048737377593763563
    ]
   },
   "properties": {
    "classname": "info_player_teamspawn",
    "team": "3",
    "targetname": "spawn_blue_2",
    "hx": -240.0,
    "hy": -2848.0,
    "hz": 208.0
   }
  },
  {
   "type": "Feature",
   "geometry": {
    "type": "Point",
    "coordinates": [
     -3.0118604131971383e-05,
     -0.000465469336569652
    ]
   },
   "properties": {
    "classname": "info_player_teamspawn",
    "team": "3",
    "targetname": "spawn_blue_2",
    "hx": -176.0,
    "hy": -2720.0,
    "hz": 208.0
   }
  },
  {
   "type": "Feature",
   "geometry": {
    "type": "Point",
    "coordinates": [
     -3.011860413211665e-05,
     -0.0004983259956216274
    ]
   },
   "properties": {
    "classname": "info_player_teamspawn",
    "team": "3",
    "targetname": "spawn_blue_2",
    "hx": -176.0,
    "hy": -2912.0,
    "hz": 208.0
   }
  },
  {
   "type": "Feature",
   "geometry": {
    "type": "Point",
    "coordinates": [
     -4.10708238165227e-05,
     -0.0004983259956216274
    ]
   },
   "properties": {
    "classname": "info_player_teamspawn",
    "team": "3",
    "targetname": "spawn_blue_2",
    "hx": -240.0,
    "hy": -2912.0,
    "hz": 208.0
   }
  },
  {
   "type": "Feature",
   "geometry": {
    "type": "Point",
    "coordinates": [
     -3.0118604131913778e-05,
     -0.0004517790619646622
    ]
   },
   "properties": {
    "classname": "info_player_teamspawn",
    "team": "3",
    "targetname": "spawn_blue_2",
    "hx": -176.0,
    "hy": -2640.0,
    "hz": 208.0
   }
  },
  {
   "type": "Feature",
   "geometry": {
    "type": "Point",
    "coordinates": [
     -3.011860413216727e-05,
     -0.0005092782153056193
    ]
   },
   "properties": {
    "classname": "info_player_teamspawn",
    "team": "3",
    "targetname": "spawn_blue_2",
    "hx": -176.0,
    "hy": -2976.0,
    "hz": 208.0
   }
  },
  {
   "type": "Feature",
   "geometry": {
    "type": "Point",
    "coordinates": [
     -4.107082381659173e-05,
     -0.0005092782153056193
    ]
   },
   "properties": {
    "classname": "info_player_teamspawn",
    "team": "3",
    "targetname": "spawn_blue_2",
    "hx": -240.0,
    "hy": -2976.0,
    "hz": 208.0
   }
  },
  {
   "type": "Feature",
   "geometry": {
    "type": "Point",
    "coordinates": [
     -8.214164763739742e-05,
     -0.0007721314877214228
    ]
   },
   "properties": {
    "classname": "info_player_teamspawn",
    "team": "3",
    "targetname": "spawn_blue_1",
    "hx": -480.0,
    "hy": -4512.0,
    "hz": 204.319
   }
  },
  {
   "type": "Feature",
   "geometry": {
    "type": "Point",
    "coordinates": [
     -9.309386732238374e-05,
     -0.0007721314877214228
    ]
   },
   "properties": {
    "classname": "info_player_teamspawn",
    "team": "3",
    "targetname": "spawn_blue_1",
    "hx": -544.0,
    "hy": -4512.0,
    "hz": 204.319
   }
  },
  {
   "type": "Feature",
   "geometry": {
    "type": "Point",
    "coordinates": [
     -0.00010404608700737006,
     -0.0007721314877214228
    ]
   },
   "properties": {
    "classname": "info_player_teamspawn",
    "team": "3",
    "targetname": "spawn_blue_1",
    "hx": -608.0,
    "hy": -4512.0,
    "hz": 204.319
   }
  },
  {
   "type": "Feature",
   "geometry": {
    "type": "Point",
    "coordinates": [
     -0.00011499830669235638,
     -0.0007721314877214228
    ]
   },
   "properties": {
    "classname": "info_player_teamspawn",
    "team": "3",
    "targetname": "spawn_blue_1",
    "hx": -672.0,
    "hy": -4512.0,
    "hz": 204.319
   }
  },
  {
   "type": "Feature",
   "geometry": {
    "type": "Point",
    "coordinates": [
     -0.00011499830669280547,
     -0.0007885598172474106
    ]
   },
   "properties": {
    "classname": "info_player_teamspawn",
    "team": "3",
    "targetname": "spawn_blue_1",
    "hx": -672.0,
    "hy": -4608.0,
    "hz": 204.319
   }
  },
  {
   "type": "Feature",
   "geometry": {
    "type": "Point",
    "coordinates": [
     -8.214164763771819e-05,
     -0.0007885598172474106
    ]
   },
   "properties": {
    "classname": "info_player_teamspawn",
    "team": "3",
    "targetname": "spawn_blue_1",
    "hx": -480.0,
    "hy": -4608.0,
    "hz": 204.319
   }
  },
  {
   "type": "Feature",
   "geometry": {
    "type": "Point",
    "coordinates": [
     -9.30938673227473e-05,
     -0.0007885598172474106
    ]
   },
   "properties": {
    "classname": "info_player_teamspawn",
    "team": "3",
    "targetname": "spawn_blue_1",
    "hx": -544.0,
    "hy": -4608.0,
    "hz": 204.319
   }
  },
  {
   "type": "Feature",
   "geometry": {
    "type": "Point",
    "coordinates": [
     -0.00010404608700777638,
     -0.0007885598172474106
    ]
   },
   "properties": {
    "classname": "info_player_teamspawn",
    "team": "3",
    "targetname": "spawn_blue_1",
    "hx": -608.0,
    "hy": -4608.0,
    "hz": 204.319
   }
  },
  {
   "type": "Feature",
   "geometry": {
    "type": "Point",
    "coordinates": [
     -0.00018071162480227433,
     -0.0007721314877214228
    ]
   },
   "properties": {
    "classname": "info_player_teamspawn",
    "team": "3",
    "targetname": "spawn_blue_1",
    "hx": -1056.0,
    "hy": -4512.0,
    "hz": 204.319
   }
  },
  {
   "type": "Feature",
   "geometry": {
    "type": "Point",
    "coordinates": [
     -0.00014785496574731534,
     -0.0007721314877214228
    ]
   },
   "properties": {
    "classname": "info_player_teamspawn",
    "team": "3",
    "targetname": "spawn_blue_1",
    "hx": -864.0,
    "hy": -4512.0,
    "hz": 204.319
   }
  },
  {
   "type": "Feature",
   "geometry": {
    "type": "Point",
    "coordinates": [
     -0.00015880718543230166,
     -0.0007721314877214228
    ]
   },
   "properties": {
    "classname": "info_player_teamspawn",
    "team": "3",
    "targetname": "spawn_blue_1",
    "hx": -928.0,
    "hy": -4512.0,
    "hz": 204.319
   }
  },
  {
   "type": "Feature",
   "geometry": {
    "type": "Point",
    "coordinates": [
     -0.00016975940511728798,
     -0.0007721314877214228
    ]
   },
   "properties": {
    "classname": "info_player_teamspawn",
    "team": "3",
    "targetname": "spawn_blue_1",
    "hx": -992.0,
    "hy": -4512.0,
    "hz": 204.319
   }
  },
  {
   "type": "Feature",
   "geometry": {
    "type": "Point",
    "coordinates": [
     -0.00018071162480298004,
     -0.0007885598172474106
    ]
   },
   "properties": {
    "classname": "info_player_teamspawn",
    "team": "3",
    "targetname": "spawn_blue_1",
    "hx": -1056.0,
    "hy": -4608.0,
    "hz": 204.319
   }
  },
  {
   "type": "Feature",
   "geometry": {
    "type": "Point",
    "coordinates": [
     -0.00014785496574789273,
     -0.0007885598172474106
    ]
   },
   "properties": {
    "classname": "info_player_teamspawn",
    "team": "3",
    "targetname": "spawn_blue_1",
    "hx": -864.0,
    "hy": -4608.0,
    "hz": 204.319
   }
  },
  {
   "type": "Feature",
   "geometry": {
    "type": "Point",
    "coordinates": [
     -0.00015880718543292182,
     -0.0007885598172474106
    ]
   },
   "properties": {
    "classname": "info_player_teamspawn",
    "team": "3",
    "targetname": "spawn_blue_1",
    "hx": -928.0,
    "hy": -4608.0,
    "hz": 204.319
   }
  },
  {
   "type": "Feature",
   "geometry": {
    "type": "Point",
    "coordinates": [
     -0.00016975940511795094,
     -0.0007885598172474106
    ]
   },
   "properties": {
    "classname": "info_player_teamspawn",
    "team": "3",
    "targetname": "spawn_blue_1",
    "hx": -992.0,
    "hy": -4608.0,
    "hz": 204.319
   }
  },
  {
   "type": "Feature",
   "geometry": {
    "type": "Point",
    "coordinates": [
     0.0002108302289232385,
     0.00044630295212266634
    ]
   },
   "properties": {
    "classname": "item_ammopack_medium",
    "team": "",
    "targetname": "",
    "hx": 1232.0,
    "hy": 2608.0,
    "hz": 0.256199
   }
  },
  {
   "type": "Feature",
   "geometry": {
    "type": "Point",
    "coordinates": [
     0.0002546391076621259,
     0.0004901118308586336
    ]
   },
   "properties": {
    "classname": "item_healthkit_medium",
    "team": "",
    "targetname": "",
    "hx": 1488.0,
    "hy": 2864.0,
    "hz": 0.236099
   }
  },
  {
   "type": "Feature",
   "geometry": {
    "type": "Point",
    "coordinates": [
     0.00028475771178717,
     0.0002792816019417912
    ]
   },
   "properties": {
    "classname": "item_ammopack_small",
    "team": "",
    "targetname": "",
    "hx": 1664.0,
    "hy": 1632.0,
    "hz": 192.829
   }
  },
  {
   "type": "Feature",
   "geometry": {
    "type": "Point",
    "coordinates": [
     0.00028475771178690986,
     0.0002683293822577994
    ]
   },
   "properties": {
    "classname": "item_healthkit_small",
    "team": "",
    "targetname": "",
    "hx": 1664.0,
    "hy": 1568.0,
    "hz": 192.809
   }
  },
  {
   "type": "Feature",
   "geometry": {
    "type": "Point",
    "coordinates": [
     0.0,
     -3.285665905197544e-05
    ]
   },
   "properties": {
    "classname": "item_ammopack_small",
    "team": "",
    "targetname": "",
    "hx": 0.0,
    "hy": -192.0,
    "hz": 296.261
   }
  },
  {
   "type": "Feature",
   "geometry": {
    "type": "Point",
    "coordinates": [
     0.0,
     3.285665905197544e-05
    ]
   },
   "properties": {
    "classname": "item_ammopack_small",
    "team": "",
    "targetname": "",
    "hx": 0.0,
    "hy": 192.0,
    "hz": 296.261
   }
  },
  {
   "type": "Feature",
   "geometry": {
    "type": "Point",
    "coordinates": [
     0.0001697594051088707,
     0.0005202304349896111
    ]
   },
   "properties": {
    "classname": "item_ammopack_small",
    "team": "",
    "targetname": "",
    "hx": 992.0,
    "hy": 3040.0,
    "hz": 192.261
   }
  },
  {
   "type": "Feature",
   "geometry": {
    "type": "Point",
    "coordinates": [
     0.00021904439369329845,
     0.000635228741671525
    ]
   },
   "properties": {
    "classname": "item_healthkit_small",
    "team": "",
    "targetname": "",
    "hx": 1280.0,
    "hy": 3712.0,
    "hz": 192.235
   }
  },
  {
   "type": "Feature",
   "geometry": {
    "type": "Point",
    "coordinates": [
     4.3808878738659696e-05,
     0.000635228741671525
    ]
   },
   "properties": {
    "classname": "item_healthkit_small",
    "team": "",
    "targetname": "",
    "hx": 256.0,
    "hy": 3712.0,
    "hz": 192.235
   }
  },
  {
   "type": "Feature",
   "geometry": {
    "type": "Point",
    "coordinates": [
     0.00013142663621427012,
     0.0005640393137255783
    ]
   },
   "properties": {
    "classname": "item_ammopack_small",
    "team": "",
    "targetname": "",
    "hx": 768.0,
    "hy": 3296.0,
    "hz": 192.261
   }
  },
  {
   "type": "Feature",
   "geometry": {
    "type": "Point",
    "coordinates": [
     0.00030118604132218997,
     0.0005202304349896111
    ]
   },
   "properties": {
    "classname": "item_healthkit_small",
    "team": "",
    "targetname": "",
    "hx": 1760.0,
    "hy": 3040.0,
    "hz": 256.235
   }
  },
  {
   "type": "Feature",
   "geometry": {
    "type": "Point",
    "coordinates": [
     8.214164763193788e-05,
     0.00039975601846570116
    ]
   },
   "properties": {
    "classname": "item_healthkit_small",
    "team": "",
    "targetname": "",
    "hx": 480.0,
    "hy": 2336.0,
    "hz": 256.235
   }
  },
  {
   "type": "Feature",
   "geometry": {
    "type": "Point",
    "coordinates": [
     5.476109842344167e-05,
     0.0006461809613555169
    ]
   },
   "properties": {
    "classname": "item_ammopack_small",
    "team": "",
    "targetname": "",
    "hx": 320.0,
    "hy": 3776.0,
    "hz": 192.261
   }
  },
  {
   "type": "Feature",
   "geometry": {
    "type": "Point",
    "coordinates": [
     0.00020809217400907833,
     0.0006461809613555169
    ]
   },
   "properties": {
    "classname": "item_ammopack_small",
    "team": "",
    "targetname": "",
    "hx": 1216.0,
    "hy": 3776.0,
    "hz": 192.261
   }
  },
  {
   "type": "Feature",
   "geometry": {
    "type": "Point",
    "coordinates": [
     0.00030314546186711904,
     0.00031236415052474895
    ]
   },
   "properties": {
    "classname": "item_healthkit_small",
    "team": "",
    "targetname": "",
    "hx": 1771.45,
    "hy": 1825.32,
    "hz": 400.235
   }
  },
  {
   "type": "Feature",
   "geometry": {
    "type": "Point",
    "coordinates": [
     0.0002683293822757429,
     0.0006626092908815046
    ]
   },
   "properties": {
    "classname": "item_ammopack_small",
    "team": "",
    "targetname": "",
    "hx": 1568.0,
    "hy": 3872.0,
    "hz": 0.261276
   }
  },
  {
   "type": "Feature",
   "geometry": {
    "type": "Point",
    "coordinates": [
     0.000268329382276341,
     0.0006735615105654964
    ]
   },
   "properties": {
    "classname": "item_healthkit_small",
    "team": "",
    "targetname": "",
    "hx": 1568.0,
    "hy": 3936.0,
    "hz": 0.235199
   }
  },
  {
   "type": "Feature",
   "geometry": {
    "type": "Point",
    "coordinates": [
     -0.00028475771178717,
     -0.0002792816019417912
    ]
   },
   "properties": {
    "classname": "item_ammopack_small",
    "team": "",
    "targetname": "",
    "hx": -1664.0,
    "hy": -1632.0,
    "hz": 192.829
   }
  },
  {
   "type": "Feature",
   "geometry": {
    "type": "Point",
    "coordinates": [
     -0.00028475771178690986,
     -0.0002683293822577994
    ]
   },
   "properties": {
    "classname": "item_healthkit_small",
    "team": "",
    "targetname": "",
    "hx": -1664.0,
    "hy": -1568.0,
    "hz": 192.809
   }
  },
  {
   "type": "Feature",
   "geometry": {
    "type": "Point",
    "coordinates": [
     -0.00030314546186711904,
     -0.00031236415052474895
    ]
   },
   "properties": {
    "classname": "item_healthkit_small",
    "team": "",
    "targetname": "",
    "hx": -1771.45,
    "hy": -1825.32,
    "hz": 400.235
   }
  },
  {
   "type": "Feature",
   "geometry": {
    "type": "Point",
    "coordinates": [
     0.00018755676208850457,
     7.118942794594677e-05
    ]
   },
   "properties": {
    "classname": "info_player_teamspawn",
    "team": "2",
    "targetname": "spawn_red_3",
    "hx": 1096.0,
    "hy": 416.0,
    "hz": 276.0
   }
  },
  {
   "type": "Feature",
   "geometry": {
    "type": "Point",
    "coordinates": [
     0.00019850898177250484,
     7.118942794594677e-05
    ]
   },
   "properties": {
    "classname": "info_player_teamspawn",
    "team": "2",
    "targetname": "spawn_red_3",
    "hx": 1160.0,
    "hy": 416.0,
    "hz": 276.0
   }
  },
  {
   "type": "Feature",
   "geometry": {
    "type": "Point",
    "coordinates": [
     0.00020946120145650508,
     7.118942794594677e-05
    ]
   },
   "properties": {
    "classname": "info_player_teamspawn",
    "team": "2",
    "targetname": "spawn_red_3",
    "hx": 1224.0,
    "hy": 416.0,
    "hz": 276.0
   }
  },
  {
   "type": "Feature",
   "geometry": {
    "type": "Point",
    "coordinates": [
     0.00023136564082450563,
     7.118942794594677e-05
    ]
   },
   "properties": {
    "classname": "info_player_teamspawn",
    "team": "2",
    "targetname": "spawn_red_3",
    "hx": 1352.0,
    "hy": 416.0,
    "hz": 276.0
   }
  },
  {
   "type": "Feature",
   "geometry": {
    "type": "Point",
    "coordinates": [
     0.00022041342114050534,
     7.118942794594677e-05
    ]
   },
   "properties": {
    "classname": "info_player_teamspawn",
    "team": "2",
    "targetname": "spawn_red_3",
    "hx": 1288.0,
    "hy": 416.0,
    "hz": 276.0
   }
  },
  {
   "type": "Feature",
   "geometry": {
    "type": "Point",
    "coordinates": [
     0.00023136564082444354,
     5.749915334095701e-05
    ]
   },
   "properties": {
    "classname": "info_player_teamspawn",
    "team": "2",
    "targetname": "spawn_red_3",
    "hx": 1352.0,
    "hy": 336.0,
    "hz": 276.0
   }
  },
  {
   "type": "Feature",
   "geometry": {
    "type": "Point",
    "coordinates": [
     0.0002204134211404462,
     5.749915334095701e-05
    ]
   },
   "properties": {
    "classname": "info_player_teamspawn",
    "team": "2",
    "targetname": "spawn_red_3",
    "hx": 1288.0,
    "hy": 336.0,
    "hz": 276.0
   }
  },
  {
   "type": "Feature",
   "geometry": {
    "type": "Point",
    "coordinates": [
     0.00020946120145644886,
     5.749915334095701e-05
    ]
   },
   "properties": {
    "classname": "info_player_teamspawn",
    "team": "2",
    "targetname": "spawn_red_3",
    "hx": 1224.0,
    "hy": 336.0,
    "hz": 276.0
   }
  },
  {
   "type": "Feature",
   "geometry": {
    "type": "Point",
    "coordinates": [
     0.00019850898177245158,
     5.749915334095701e-05
    ]
   },
   "properties": {
    "classname": "info_player_teamspawn",
    "team": "2",
    "targetname": "spawn_red_3",
    "hx": 1160.0,
    "hy": 336.0,
    "hz": 276.0
   }
  },
  {
   "type": "Feature",
   "geometry": {
    "type": "Point",
    "coordinates": [
     0.00018755676208845424,
     5.749915334095701e-05
    ]
   },
   "properties": {
    "classname": "info_player_teamspawn",
    "team": "2",
    "targetname": "spawn_red_3",
    "hx": 1096.0,
    "hy": 336.0,
    "hz": 276.0
   }
  },
  {
   "type": "Feature",
   "geometry": {
    "type": "Point",
    "coordinates": [
     0.00010130803207736893,
     0.0001697594051018731
    ]
   },
   "properties": {
    "classname": "item_ammopack_small",
    "team": "",
    "targetname": "",
    "hx": 592.0,
    "hy": 992.0,
    "hz": 288.256
   }
  },
  {
   "type": "Feature",
   "geometry": {
    "type": "Point",
    "coordinates": [
     9.035581239332904e-05,
     0.0001697594051018731
    ]
   },
   "properties": {
    "classname": "item_healthkit_medium",
    "team": "",
    "targetname": "",
    "hx": 528.0,
    "hy": 992.0,
    "hz": 288.236
   }
  },
  {
   "type": "Feature",
   "geometry": {
    "type": "Point",
    "coordinates": [
     0.00019166384447028042,
     0.00012047441652390994
    ]
   },
   "properties": {
    "classname": "item_ammopack_medium",
    "team": "",
    "targetname": "",
    "hx": 1120.0,
    "hy": 704.0,
    "hz": 192.261
   }
  },
  {
   "type": "Feature",
   "geometry": {
    "type": "Point",
    "coordinates": [
     4.928498857843948e-05,
     0.0002519010527318117
    ]
   },
   "properties": {
    "classname": "item_ammopack_small",
    "team": "",
    "targetname": "",
    "hx": 288.0,
    "hy": 1472.0,
    "hz": 192.261
   }
  },
  {
   "type": "Feature",
   "geometry": {
    "type": "Point",
    "coordinates": [
     0.00015046980818357486,
     7.599574110289356e-05
    ]
   },
   "properties": {
    "classname": "info_player_teamspawn",
    "team": "2",
    "targetname": "spawn_red_3",
    "hx": 879.28,
    "hy": 444.086,
    "hz": 304.0
   }
  },
  {
   "type": "Feature",
   "geometry": {
    "type": "Point",
    "coordinates": [
     0.00016142202786757632,
     7.599574110289356e-05
    ]
   },
   "properties": {
    "classname": "info_player_teamspawn",
    "team": "2",
    "targetname": "spawn_red_3",
    "hx": 943.28,
    "hy": 444.086,
    "hz": 304.0
   }
  },
  {
   "type": "Feature",
   "geometry": {
    "type": "Point",
    "coordinates": [
     -0.00010130803207736893,
     -0.0001697594051018731
    ]
   },
   "properties": {
    "classname": "item_ammopack_small",
    "team": "",
    "targetname": "",
    "hx": -592.0,
    "hy": -992.0,
    "hz": 288.256
   }
  },
  {
   "type": "Feature",
   "geometry": {
    "type": "Point",
    "coordinates": [
     -9.035581239332904e-05,
     -0.0001697594051018731
    ]
   },
   "properties": {
    "classname": "item_healthkit_medium",
    "team": "",
    "targetname": "",
    "hx": -528.0,
    "hy": -992.0,
    "hz": 288.236
   }
  },
  {
   "type": "Feature",
   "geometry": {
    "type": "Point",
    "coordinates": [
     -0.00019166384447028042,
     -0.00012047441652390994
    ]
   },
   "properties": {
    "classname": "item_ammopack_medium",
    "team": "",
    "targetname": "",
    "hx": -1120.0,
    "hy": -704.0,
    "hz": 192.261
   }
  },
  {
   "type": "Feature",
   "geometry": {
    "type": "Point",
    "coordinates": [
     -4.928498857843948e-05,
     -0.0002519010527318117
    ]
   },
   "properties": {
    "classname": "item_ammopack_small",
    "team": "",
    "targetname": "",
    "hx": -288.0,
    "hy": -1472.0,
    "hz": 192.261
   }
  },
  {
   "type": "Feature",
   "geometry": {
    "type": "Point",
    "coordinates": [
     3.5594713974134214e-05,
     0.0004627312816486541
    ]
   },
   "properties": {
    "classname": "info_player_teamspawn",
    "team": "2",
    "targetname": "spawn_red_2",
    "hx": 208.0,
    "hy": 2704.0,
    "hz": 208.0
   }
  },
  {
   "type": "Feature",
   "geometry": {
    "type": "Point",
    "coordinates": [
     3.5594713974079916e-05,
     0.0004517790619646622
    ]
   },
   "properties": {
    "classname": "info_player_teamspawn",
    "team": "2",
    "targetname": "spawn_red_2",
    "hx": 208.0,
    "hy": 2640.0,
    "hz": 208.0
   }
  },
  {
   "type": "Feature",
   "geometry": {
    "type": "Point",
    "coordinates": [
     3.5594713974364424e-05,
     0.0005065401603846214
    ]
   },
   "properties": {
    "classname": "info_player_teamspawn",
    "team": "2",
    "targetname": "spawn_red_2",
    "hx": 208.0,
    "hy": 2960.0,
    "hz": 208.0
   }
  },
  {
   "type": "Feature",
   "geometry": {
    "type": "Point",
    "coordinates": [
     4.654693365878425e-05,
     0.0005065401603846214
    ]
   },
   "properties": {
    "classname": "info_player_teamspawn",
    "team": "2",
    "targetname": "spawn_red_2",
    "hx": 272.0,
    "hy": 2960.0,
    "hz": 208.0
   }
  },
  {
   "type": "Feature",
   "geometry": {
    "type": "Point",
    "coordinates": [
     -0.0002108302289232385,
     -0.00044630295212266634
    ]
   },
   "properties": {
    "classname": "item_ammopack_medium",
    "team": "",
    "targetname": "",
    "hx": -1232.0,
    "hy": -2608.0,
    "hz": 0.256199
   }
  },
  {
   "type": "Feature",
   "geometry": {
    "type": "Point",
    "coordinates": [
     -0.0002546391076621259,
     -0.0004901118308586336
    ]
   },
   "properties": {
    "classname": "item_healthkit_medium",
    "team": "",
    "targetname": "",
    "hx": -1488.0,
    "hy": -2864.0,
    "hz": 0.236099
   }
  },
  {
   "type": "Feature",
   "geometry": {
    "type": "Point",
    "coordinates": [
     -0.0001697594051088707,
     -0.0005202304349896111
    ]
   },
   "properties": {
    "classname": "item_ammopack_small",
    "team": "",
    "targetname": "",
    "hx": -992.0,
    "hy": -3040.0,
    "hz": 192.261
   }
  },
  {
   "type": "Feature",
   "geometry": {
    "type": "Point",
    "coordinates": [
     -0.00021904439369329845,
     -0.000635228741671525
    ]
   },
   "properties": {
    "classname": "item_healthkit_small",
    "team": "",
    "targetname": "",
    "hx": -1280.0,
    "hy": -3712.0,
    "hz": 192.235
   }
  },
  {
   "type": "Feature",
   "geometry": {
    "type": "Point",
    "coordinates": [
     -4.3808878738659696e-05,
     -0.000635228741671525
    ]
   },
   "properties": {
    "classname": "item_healthkit_small",
    "team": "",
    "targetname": "",
    "hx": -256.0,
    "hy": -3712.0,
    "hz": 192.235
   }
  },
  {
   "type": "Feature",
   "geometry": {
    "type": "Point",
    "coordinates": [
     -0.00013142663621427012,
     -0.0005640393137255783
    ]
   },
   "properties": {
    "classname": "item_ammopack_small",
    "team": "",
    "targetname": "",
    "hx": -768.0,
    "hy": -3296.0,
    "hz": 192.261
   }
  },
  {
   "type": "Feature",
   "geometry": {
    "type": "Point",
    "coordinates": [
     -0.00030118604132218997,
     -0.0005202304349896111
    ]
   },
   "properties": {
    "classname": "item_healthkit_small",
    "team": "",
    "targetname": "",
    "hx": -1760.0,
    "hy": -3040.0,
    "hz": 256.235
   }
  },
  {
   "type": "Feature",
   "geometry": {
    "type": "Point",
    "coordinates": [
     -8.214164763193788e-05,
     -0.00039975601846570116
    ]
   },
   "properties": {
    "classname": "item_healthkit_small",
    "team": "",
    "targetname": "",
    "hx": -480.0,
    "hy": -2336.0,
    "hz": 256.235
   }
  },
  {
   "type": "Feature",
   "geometry": {
    "type": "Point",
    "coordinates": [
     -5.476109842344167e-05,
     -0.0006461809613555169
    ]
   },
   "properties": {
    "classname": "item_ammopack_small",
    "team": "",
    "targetname": "",
    "hx": -320.0,
    "hy": -3776.0,
    "hz": 192.261
   }
  },
  {
   "type": "Feature",
   "geometry": {
    "type": "Point",
    "coordinates": [
     -0.00020809217400907833,
     -0.0006461809613555169
    ]
   },
   "properties": {
    "classname": "item_ammopack_small",
    "team": "",
    "targetname": "",
    "hx": -1216.0,
    "hy": -3776.0,
    "hz": 192.261
   }
  },
  {
   "type": "Feature",
   "geometry": {
    "type": "Point",
    "coordinates": [
     -0.0002683293822757429,
     -0.0006626092908815046
    ]
   },
   "properties": {
    "classname": "item_ammopack_small",
    "team": "",
    "targetname": "",
    "hx": -1568.0,
    "hy": -3872.0,
    "hz": 0.261276
   }
  },
  {
   "type": "Feature",
   "geometry": {
    "type": "Point",
    "coordinates": [
     -0.000268329382276341,
     -0.0006735615105654964
    ]
   },
   "properties": {
    "classname": "item_healthkit_small",
    "team": "",
    "targetname": "",
    "hx": -1568.0,
    "hy": -3936.0,
    "hz": 0.235199
   }
  }
 ]
}
