{
 "type": "FeatureCollection",
 "note": "pseudo-WGS84 via crs.local_to_wgs84 ((0,0)m maps to (0,0)deg); viewing only, not survey",
 "features": [
  {
   "type": "Feature",
   "geometry": {
    "type": "Point",
    "coordinates": [
     -0.0002053541190761305,
     -0.00020261606415384855
    ]
   },
   "properties": {
    "classname": "item_ammopack_full",
    "team": "",
    "targetname": "",
    "hx": -1200.0,
    "hy": -1184.0,
    "hz": -192.0
   }
  },
  {
   "type": "Feature",
   "geometry": {
    "type": "Point",
    "coordinates": [
     -0.00042987462259771726,
     -0.00012595052636590586
    ]
   },
   "properties": {
    "classname": "item_ammopack_medium",
    "team": "",
    "targetname": "",
    "hx": -2512.0,
    "hy": -736.0,
    "hz": -190.744
   }
  },
  {
   "type": "Feature",
   "geometry": {
    "type": "Point",
    "coordinates": [
     -0.0002738054920997953,
     0.0
    ]
   },
   "properties": {
    "classname": "item_ammopack_medium",
    "team": "",
    "targetname": "",
    "hx": -1600.0,
    "hy": 0.0,
    "hz": -64.0
   }
  },
  {
   "type": "Feature",
   "geometry": {
    "type": "Point",
    "coordinates": [
     -0.00011499830668612136,
     0.0004901118308586336
    ]
   },
   "properties": {
    "classname": "item_healthkit_small",
    "team": "",
    "targetname": "",
    "hx": -672.0,
    "hy": 2864.0,
    "hz": 0.0
   }
  },
  {
   "type": "Feature",
   "geometry": {
    "type": "Point",
    "coordinates": [
     -0.00011499830668612136,
     -0.0004901118308586336
    ]
   },
   "properties": {
    "classname": "item_healthkit_small",
    "team": "",
    "targetname": "",
    "hx": -672.0,
    "hy": -2864.0,
    "hz": 0.0
   }
  },
  {
   "type": "Feature",
   "geometry": {
    "type": "Point",
    "coordinates": [
     -0.00011499830668602786,
     -0.0004846357210166377
    ]
   },
   "properties": {
    "classname": "item_ammopack_medium",
    "team": "",
    "targetname": "",
    "hx": -672.0,
    "hy": -2832.0,
    "hz": 0.0
   }
  },
  {
   "type": "Feature",
   "geometry": {
    "type": "Point",
    "coordinates": [
     2.7380549210618854e-06,
     -0.0003915418537027073
    ]
   },
   "properties": {
    "classname": "item_healthkit_small",
    "team": "",
    "targetname": "",
    "hx": 16.0,
    "hy": -2288.0,
    "hz": -128.0
   }
  },
  {
   "type": "Feature",
   "geometry": {
    "type": "Point",
    "coordinates": [
     -9.30938673139304e-05,
     0.0
    ]
   },
   "properties": {
    "classname": "item_healthkit_medium",
    "team": "",
    "targetname": "",
    "hx": -544.0,
    "hy": 0.0,
    "hz": -440.0
   }
  },
  {
   "type": "Feature",
   "geometry": {
    "type": "Point",
    "coordinates": [
     8.214164763185657e-06,
     -0.0003915418537027073
    ]
   },
   "properties": {
    "classname": "item_ammopack_full",
    "team": "",
    "targetname": "",
    "hx": 48.0,
    "hy": -2288.0,
    "hz": -128.0
   }
  },
  {
   "type": "Feature",
   "geometry": {
    "type": "Point",
    "coordinates": [
     -0.00021083022891816064,
     0.00020261606415384855
    ]
   },
   "properties": {
    "classname": "item_healthkit_medium",
    "team": "",
    "targetname": "",
    "hx": -1232.0,
    "hy": 1184.0,
    "hz": -192.0
   }
  },
  {
   "type": "Feature",
   "geometry": {
    "type": "Point",
    "coordinates": [
     -0.000454517116899619,
     -0.0004490410070436643
    ]
   },
   "properties": {
    "classname": "info_player_teamspawn",
    "team": "3",
    "targetname": "spawn2_points",
    "hx": -2656.0,
    "hy": -2624.0,
    "hz": -110.995
   }
  },
  {
   "type": "Feature",
   "geometry": {
    "type": "Point",
    "coordinates": [
     -0.00043261267753229044,
     -0.00047094544641164795
    ]
   },
   "properties": {
    "classname": "info_player_teamspawn",
    "team": "3",
    "targetname": "spawn2_points",
    "hx": -2528.0,
    "hy": -2752.0,
    "hz": -110.995
   }
  },
  {
   "type": "Feature",
   "geometry": {
    "type": "Point",
    "coordinates": [
     -0.0004326126775316186,
     -0.0004599932267276561
    ]
   },
   "properties": {
    "classname": "info_player_teamspawn",
    "team": "3",
    "targetname": "spawn2_points",
    "hx": -2528.0,
    "hy": -2688.0,
    "hz": -110.995
   }
  },
  {
   "type": "Feature",
   "geometry": {
    "type": "Point",
    "coordinates": [
     -0.0004326126775309626,
     -0.0004490410070436643
    ]
   },
   "properties": {
    "classname": "info_player_teamspawn",
    "team": "3",
    "targetname": "spawn2_points",
    "hx": -2528.0,
    "hy": -2624.0,
    "hz": -110.995
   }
  },
  {
   "type": "Feature",
   "geometry": {
    "type": "Point",
    "coordinates": [
     -0.0004435648972173572,
     -0.00048189766609563976
    ]
   },
   "properties": {
    "classname": "info_player_teamspawn",
    "team": "3",
    "targetname": "spawn2_points",
    "hx": -2592.0,
    "hy": -2816.0,
    "hz": -110.995
   }
  },
  {
   "type": "Feature",
   "geometry": {
    "type": "Point",
    "coordinates": [
     -0.00044356489721665223,
     -0.00047094544641164795
    ]
   },
   "properties": {
    "classname": "info_player_teamspawn",
    "team": "3",
    "targetname": "spawn2_points",
    "hx": -2592.0,
    "hy": -2752.0,
    "hz": -110.995
   }
  },
  {
   "type": "Feature",
   "geometry": {
    "type": "Point",
    "coordinates": [
     -0.0004435648972159634,
     -0.0004599932267276561
    ]
   },
   "properties": {
    "classname": "info_player_teamspawn",
    "team": "3",
    "targetname": "spawn2_points",
    "hx": -2592.0,
    "hy": -2688.0,
    "hz": -110.995
   }
  },
  {
   "type": "Feature",
   "geometry": {
    "type": "Point",
    "coordinates": [
     -0.0004435648972152908,
     -0.0004490410070436643
    ]
   },
   "properties": {
    "classname": "info_player_teamspawn",
    "team": "3",
    "targetname": "spawn2_points",
    "hx": -2592.0,
    "hy": -2624.0,
    "hz": -110.995
   }
  },
  {
   "type": "Feature",
   "geometry": {
    "type": "Point",
    "coordinates": [
     -0.000432612677532978,
     -0.00048189766609563976
    ]
   },
   "properties": {
    "classname": "info_player_teamspawn",
    "team": "3",
    "targetname": "spawn2_points",
    "hx": -2528.0,
    "hy": -2816.0,
    "hz": -110.995
   }
  },
  {
   "type": "Feature",
   "geometry": {
    "type": "Point",
    "coordinates": [
     -0.00045451711690173643,
     -0.00048189766609563976
    ]
   },
   "properties": {
    "classname": "info_player_teamspawn",
    "team": "3",
    "targetname": "spawn2_points",
    "hx": -2656.0,
    "hy": -2816.0,
    "hz": -110.995
   }
  },
  {
   "type": "Feature",
   "geometry": {
    "type": "Point",
    "coordinates": [
     -0.0004654693365861156,
     -0.00048189766609563976
    ]
   },
   "properties": {
    "classname": "info_player_teamspawn",
    "team": "3",
    "targetname": "spawn2_points",
    "hx": -2720.0,
    "hy": -2816.0,
    "hz": -110.995
   }
  },
  {
   "type": "Feature",
   "geometry": {
    "type": "Point",
    "coordinates": [
     -0.00045451711690101403,
     -0.00047094544641164795
    ]
   },
   "properties": {
    "classname": "info_player_teamspawn",
    "team": "3",
    "targetname": "spawn2_points",
    "hx": -2656.0,
    "hy": -2752.0,
    "hz": -110.995
   }
  },
  {
   "type": "Feature",
   "geometry": {
    "type": "Point",
    "coordinates": [
     -0.000465469336584653,
     -0.0004599932267276561
    ]
   },
   "properties": {
    "classname": "info_player_teamspawn",
    "team": "3",
    "targetname": "spawn2_points",
    "hx": -2720.0,
    "hy": -2688.0,
    "hz": -110.995
   }
  },
  {
   "type": "Feature",
   "geometry": {
    "type": "Point",
    "coordinates": [
     -0.00045451711690030816,
     -0.0004599932267276561
    ]
   },
   "properties": {
    "classname": "info_player_teamspawn",
    "team": "3",
    "targetname": "spawn2_points",
    "hx": -2656.0,
    "hy": -2688.0,
    "hz": -110.995
   }
  },
  {
   "type": "Feature",
   "geometry": {
    "type": "Point",
    "coordinates": [
     -0.0004654693365839471,
     -0.0004490410070436643
    ]
   },
   "properties": {
    "classname": "info_player_teamspawn",
    "team": "3",
    "targetname": "spawn2_points",
    "hx": -2720.0,
    "hy": -2624.0,
    "hz": -110.995
   }
  },
  {
   "type": "Feature",
   "geometry": {
    "type": "Point",
    "coordinates": [
     -0.0004654693365853758,
     -0.00047094544641164795
    ]
   },
   "properties": {
    "classname": "info_player_teamspawn",
    "team": "3",
    "targetname": "spawn2_points",
    "hx": -2720.0,
    "hy": -2752.0,
    "hz": -110.995
   }
  },
  {
   "type": "Feature",
   "geometry": {
    "type": "Point",
    "coordinates": [
     0.00017523551495219605,
     -0.0005585632038835824
    ]
   },
   "properties": {
    "classname": "info_player_teamspawn",
    "team": "3",
    "targetname": "spawn1_points",
    "hx": 1024.0,
    "hy": -3264.0,
    "hz": 96.0
   }
  },
  {
   "type": "Feature",
   "geometry": {
    "type": "Point",
    "coordinates": [
     0.00019713995432122058,
     -0.0005585632038835824
    ]
   },
   "properties": {
    "classname": "info_player_teamspawn",
    "team": "3",
    "targetname": "spawn1_points",
    "hx": 1152.0,
    "hy": -3264.0,
    "hz": 96.0
   }
  },
  {
   "type": "Feature",
   "geometry": {
    "type": "Point",
    "coordinates": [
     0.00018618773463705866,
     -0.0005695154235675742
    ]
   },
   "properties": {
    "classname": "info_player_teamspawn",
    "team": "3",
    "targetname": "spawn1_points",
    "hx": 1088.0,
    "hy": -3328.0,
    "hz": 96.0
   }
  },
  {
   "type": "Feature",
   "geometry": {
    "type": "Point",
    "coordinates": [
     0.00019713995432159154,
     -0.0005695154235675742
    ]
   },
   "properties": {
    "classname": "info_player_teamspawn",
    "team": "3",
    "targetname": "spawn1_points",
    "hx": 1152.0,
    "hy": -3328.0,
    "hz": 96.0
   }
  },
  {
   "type": "Feature",
   "geometry": {
    "type": "Point",
    "coordinates": [
     0.0001752355149525258,
     -0.0005695154235675742
    ]
   },
   "properties": {
    "classname": "info_player_teamspawn",
    "team": "3",
    "targetname": "spawn1_points",
    "hx": 1024.0,
    "hy": -3328.0,
    "hz": 96.0
   }
  },
  {
   "type": "Feature",
   "geometry": {
    "type": "Point",
    "coordinates": [
     0.00017523551495286197,
     -0.0005804676432515661
    ]
   },
   "properties": {
    "classname": "info_player_teamspawn",
    "team": "3",
    "targetname": "spawn1_points",
    "hx": 1024.0,
    "hy": -3392.0,
    "hz": 96.0
   }
  },
  {
   "type": "Feature",
   "geometry": {
    "type": "Point",
    "coordinates": [
     0.0001971399543219697,
     -0.0005804676432515661
    ]
   },
   "properties": {
    "classname": "info_player_teamspawn",
    "team": "3",
    "targetname": "spawn1_points",
    "hx": 1152.0,
    "hy": -3392.0,
    "hz": 96.0
   }
  },
  {
   "type": "Feature",
   "geometry": {
    "type": "Point",
    "coordinates": [
     0.0001971399543223551,
     -0.0005914198629355578
    ]
   },
   "properties": {
    "classname": "info_player_teamspawn",
    "team": "3",
    "targetname": "spawn1_points",
    "hx": 1152.0,
    "hy": -3456.0,
    "hz": 96.0
   }
  },
  {
   "type": "Feature",
   "geometry": {
    "type": "Point",
    "coordinates": [
     0.00017523551495320452,
     -0.0005914198629355578
    ]
   },
   "properties": {
    "classname": "info_player_teamspawn",
    "team": "3",
    "targetname": "spawn1_points",
    "hx": 1024.0,
    "hy": -3456.0,
    "hz": 96.0
   }
  },
  {
   "type": "Feature",
   "geometry": {
    "type": "Point",
    "coordinates": [
     0.00017523551495355347,
     -0.0006023720826195497
    ]
   },
   "properties": {
    "classname": "info_player_teamspawn",
    "team": "3",
    "targetname": "spawn1_points",
    "hx": 1024.0,
    "hy": -3520.0,
    "hz": 96.0
   }
  },
  {
   "type": "Feature",
   "geometry": {
    "type": "Point",
    "coordinates": [
     0.00019713995432274768,
     -0.0006023720826195497
    ]
   },
   "properties": {
    "classname": "info_player_teamspawn",
    "team": "3",
    "targetname": "spawn1_points",
    "hx": 1152.0,
    "hy": -3520.0,
    "hz": 96.0
   }
  },
  {
   "type": "Feature",
   "geometry": {
    "type": "Point",
    "coordinates": [
     0.00017523551495390885,
     -0.0006133243023035414
    ]
   },
   "properties": {
    "classname": "info_player_teamspawn",
    "team": "3",
    "targetname": "spawn1_points",
    "hx": 1024.0,
    "hy": -3584.0,
    "hz": 96.0
   }
  },
  {
   "type": "Feature",
   "geometry": {
    "type": "Point",
    "coordinates": [
     0.00018618773463852814,
     -0.0006133243023035414
    ]
   },
   "properties": {
    "classname": "info_player_teamspawn",
    "team": "3",
    "targetname": "spawn1_points",
    "hx": 1088.0,
    "hy": -3584.0,
    "hz": 96.0
   }
  },
  {
   "type": "Feature",
   "geometry": {
    "type": "Point",
    "coordinates": [
     0.00019713995432314745,
     -0.0006133243023035414
    ]
   },
   "properties": {
    "classname": "info_player_teamspawn",
    "team": "3",
    "targetname": "spawn1_points",
    "hx": 1152.0,
    "hy": -3584.0,
    "hz": 96.0
   }
  },
  {
   "type": "Feature",
   "geometry": {
    "type": "Point",
    "coordinates": [
     0.00019713995432355444,
     -0.0006242765219875333
    ]
   },
   "properties": {
    "classname": "info_player_teamspawn",
    "team": "3",
    "targetname": "spawn1_points",
    "hx": 1152.0,
    "hy": -3648.0,
    "hz": 96.0
   }
  },
  {
   "type": "Feature",
   "geometry": {
    "type": "Point",
    "coordinates": [
     0.00017523551495427062,
     -0.0006242765219875333
    ]
   },
   "properties": {
    "classname": "info_player_teamspawn",
    "team": "3",
    "targetname": "spawn1_points",
    "hx": 1024.0,
    "hy": -3648.0,
    "hz": 96.0
   }
  },
  {
   "type": "Feature",
   "geometry": {
    "type": "Point",
    "coordinates": [
     -0.0001754733834749914,
     -0.0006074152375271627
    ]
   },
   "properties": {
    "classname": "item_healthkit_medium",
    "team": "",
    "targetname": "",
    "hx": -1025.39,
    "hy": -3549.47,
    "hz": -126.0
   }
  },
  {
   "type": "Feature",
   "geometry": {
    "type": "Point",
    "coordinates": [
     0.00017523551495219605,
     0.0005585632038835824
    ]
   },
   "properties": {
    "classname": "info_player_teamspawn",
    "team": "2",
    "targetname": "red_spawn1_points",
    "hx": 1024.0,
    "hy": 3264.0,
    "hz": 96.0
   }
  },
  {
   "type": "Feature",
   "geometry": {
    "type": "Point",
    "coordinates": [
     0.00019713995432122058,
     0.0005585632038835824
    ]
   },
   "properties": {
    "classname": "info_player_teamspawn",
    "team": "2",
    "targetname": "red_spawn1_points",
    "hx": 1152.0,
    "hy": 3264.0,
    "hz": 96.0
   }
  },
  {
   "type": "Feature",
   "geometry": {
    "type": "Point",
    "coordinates": [
     0.00018618773463705866,
     0.0005695154235675742
    ]
   },
   "properties": {
    "classname": "info_player_teamspawn",
    "team": "2",
    "targetname": "red_spawn1_points",
    "hx": 1088.0,
    "hy": 3328.0,
    "hz": 96.0
   }
  },
  {
   "type": "Feature",
   "geometry": {
    "type": "Point",
    "coordinates": [
     0.00019713995432159154,
     0.0005695154235675742
    ]
   },
   "properties": {
    "classname": "info_player_teamspawn",
    "team": "2",
    "targetname": "red_spawn1_points",
    "hx": 1152.0,
    "hy": 3328.0,
    "hz": 96.0
   }
  },
  {
   "type": "Feature",
   "geometry": {
    "type": "Point",
    "coordinates": [
     0.0001752355149525258,
     0.0005695154235675742
    ]
   },
   "properties": {
    "classname": "info_player_teamspawn",
    "team": "2",
    "targetname": "red_spawn1_points",
    "hx": 1024.0,
    "hy": 3328.0,
    "hz": 96.0
   }
  },
  {
   "type": "Feature",
   "geometry": {
    "type": "Point",
    "coordinates": [
     0.00017523551495286197,
     0.0005804676432515661
    ]
   },
   "properties": {
    "classname": "info_player_teamspawn",
    "team": "2",
    "targetname": "red_spawn1_points",
    "hx": 1024.0,
    "hy": 3392.0,
    "hz": 96.0
   }
  },
  {
   "type": "Feature",
   "geometry": {
    "type": "Point",
    "coordinates": [
     0.0001971399543219697,
     0.0005804676432515661
    ]
   },
   "properties": {
    "classname": "info_player_teamspawn",
    "team": "2",
    "targetname": "red_spawn1_points",
    "hx": 1152.0,
    "hy": 3392.0,
    "hz": 96.0
   }
  },
  {
   "type": "Feature",
   "geometry": {
    "type": "Point",
    "coordinates": [
     0.0001971399543223551,
     0.0005914198629355578
    ]
   },
   "properties": {
    "classname": "info_player_teamspawn",
    "team": "2",
    "targetname": "red_spawn1_points",
    "hx": 1152.0,
    "hy": 3456.0,
    "hz": 96.0
   }
  },
  {
   "type": "Feature",
   "geometry": {
    "type": "Point",
    "coordinates": [
     0.00017523551495320452,
     0.0005914198629355578
    ]
   },
   "properties": {
    "classname": "info_player_teamspawn",
    "team": "2",
    "targetname": "red_spawn1_points",
    "hx": 1024.0,
    "hy": 3456.0,
    "hz": 96.0
   }
  },
  {
   "type": "Feature",
   "geometry": {
    "type": "Point",
    "coordinates": [
     0.00017523551495355347,
     0.0006023720826195497
    ]
   },
   "properties": {
    "classname": "info_player_teamspawn",
    "team": "2",
    "targetname": "red_spawn1_points",
    "hx": 1024.0,
    "hy": 3520.0,
    "hz": 96.0
   }
  },
  {
   "type": "Feature",
   "geometry": {
    "type": "Point",
    "coordinates": [
     0.00019713995432274768,
     0.0006023720826195497
    ]
   },
   "properties": {
    "classname": "info_player_teamspawn",
    "team": "2",
    "targetname": "red_spawn1_points",
    "hx": 1152.0,
    "hy": 3520.0,
    "hz": 96.0
   }
  },
  {
   "type": "Feature",
   "geometry": {
    "type": "Point",
    "coordinates": [
     0.00017523551495390885,
     0.0006133243023035414
    ]
   },
   "properties": {
    "classname": "info_player_teamspawn",
    "team": "2",
    "targetname": "red_spawn1_points",
    "hx": 1024.0,
    "hy": 3584.0,
    "hz": 96.0
   }
  },
  {
   "type": "Feature",
   "geometry": {
    "type": "Point",
    "coordinates": [
     0.00018618773463852814,
     0.0006133243023035414
    ]
   },
   "properties": {
    "classname": "info_player_teamspawn",
    "team": "2",
    "targetname": "red_spawn1_points",
    "hx": 1088.0,
    "hy": 3584.0,
    "hz": 96.0
   }
  },
  {
   "type": "Feature",
   "geometry": {
    "type": "Point",
    "coordinates": [
     0.00019713995432314745,
     0.0006133243023035414
    ]
   },
   "properties": {
    "classname": "info_player_teamspawn",
    "team": "2",
    "targetname": "red_spawn1_points",
    "hx": 1152.0,
    "hy": 3584.0,
    "hz": 96.0
   }
  },
  {
   "type": "Feature",
   "geometry": {
    "type": "Point",
    "coordinates": [
     0.00019713995432355444,
     0.0006242765219875333
    ]
   },
   "properties": {
    "classname": "info_player_teamspawn",
    "team": "2",
    "targetname": "red_spawn1_points",
    "hx": 1152.0,
    "hy": 3648.0,
    "hz": 96.0
   }
  },
  {
   "type": "Feature",
   "geometry": {
    "type": "Point",
    "coordinates": [
     0.00017523551495427062,
     0.0006242765219875333
    ]
   },
   "properties": {
    "classname": "info_player_teamspawn",
    "team": "2",
    "targetname": "red_spawn1_points",
    "hx": 1024.0,
    "hy": 3648.0,
    "hz": 96.0
   }
  },
  {
   "type": "Feature",
   "geometry": {
    "type": "Point",
    "coordinates": [
     2.7380549210618854e-06,
     0.0003915418537027073
    ]
   },
   "properties": {
    "classname": "item_healthkit_small",
    "team": "",
    "targetname": "",
    "hx": 16.0,
    "hy": 2288.0,
    "hz": -128.0
   }
  },
  {
   "type": "Feature",
   "geometry": {
    "type": "Point",
    "coordinates": [
     -0.0004435648972152908,
     0.0004490410070436643
    ]
   },
   "properties": {
    "classname": "info_player_teamspawn",
    "team": "2",
    "targetname": "red_spawn2_points",
    "hx": -2592.0,
    "hy": 2624.0,
    "hz": -110.995
   }
  },
  {
   "type": "Feature",
   "geometry": {
    "type": "Point",
    "coordinates": [
     -0.0004654693365853758,
     0.00047094544641164795
    ]
   },
   "properties": {
    "classname": "info_player_teamspawn",
    "team": "2",
    "targetname": "red_spawn2_points",
    "hx": -2720.0,
    "hy": 2752.0,
    "hz": -110.995
   }
  },
  {
   "type": "Feature",
   "geometry": {
    "type": "Point",
    "coordinates": [
     -0.000465469336584653,
     0.0004599932267276561
    ]
   },
   "properties": {
    "classname": "info_player_teamspawn",
    "team": "2",
    "targetname": "red_spawn2_points",
    "hx": -2720.0,
    "hy": 2688.0,
    "hz": -110.995
   }
  },
  {
   "type": "Feature",
   "geometry": {
    "type": "Point",
    "coordinates": [
     -0.0004654693365839471,
     0.0004490410070436643
    ]
   },
   "properties": {
    "classname": "info_player_teamspawn",
    "team": "2",
    "targetname": "red_spawn2_points",
    "hx": -2720.0,
    "hy": 2624.0,
    "hz": -110.995
   }
  },
  {
   "type": "Feature",
   "geometry": {
    "type": "Point",
    "coordinates": [
     -0.00045451711690173643,
     0.00048189766609563976
    ]
   },
   "properties": {
    "classname": "info_player_teamspawn",
    "team": "2",
    "targetname": "red_spawn2_points",
    "hx": -2656.0,
    "hy": 2816.0,
    "hz": -110.995
   }
  },
  {
   "type": "Feature",
   "geometry": {
    "type": "Point",
    "coordinates": [
     -0.00045451711690101403,
     0.00047094544641164795
    ]
   },
   "properties": {
    "classname": "info_player_teamspawn",
    "team": "2",
    "targetname": "red_spawn2_points",
    "hx": -2656.0,
    "hy": 2752.0,
    "hz": -110.995
   }
  },
  {
   "type": "Feature",
   "geometry": {
    "type": "Point",
    "coordinates": [
     -0.00045451711690030816,
     0.0004599932267276561
    ]
   },
   "properties": {
    "classname": "info_player_teamspawn",
    "team": "2",
    "targetname": "red_spawn2_points",
    "hx": -2656.0,
    "hy": 2688.0,
    "hz": -110.995
   }
  },
  {
   "type": "Feature",
   "geometry": {
    "type": "Point",
    "coordinates": [
     -0.000454517116899619,
     0.0004490410070436643
    ]
   },
   "properties": {
    "classname": "info_player_teamspawn",
    "team": "2",
    "targetname": "red_spawn2_points",
    "hx": -2656.0,
    "hy": 2624.0,
    "hz": -110.995
   }
  },
  {
   "type": "Feature",
   "geometry": {
    "type": "Point",
    "coordinates": [
     -0.0004654693365861156,
     0.00048189766609563976
    ]
   },
   "properties": {
    "classname": "info_player_teamspawn",
    "team": "2",
    "targetname": "red_spawn2_points",
    "hx": -2720.0,
    "hy": 2816.0,
    "hz": -110.995
   }
  },
  {
   "type": "Feature",
   "geometry": {
    "type": "Point",
    "coordinates": [
     -0.0004435648972173572,
     0.00048189766609563976
    ]
   },
   "properties": {
    "classname": "info_player_teamspawn",
    "team": "2",
    "targetname": "red_spawn2_points",
    "hx": -2592.0,
    "hy": 2816.0,
    "hz": -110.995
   }
  },
  {
   "type": "Feature",
   "geometry": {
    "type": "Point",
    "coordinates": [
     -0.000432612677532978,
     0.00048189766609563976
    ]
   },
   "properties": {
    "classname": "info_player_teamspawn",
    "team": "2",
    "targetname": "red_spawn2_points",
    "hx": -2528.0,
    "hy": 2816.0,
    "hz": -110.995
   }
  },
  {
   "type": "Feature",
   "geometry": {
    "type": "Point",
    "coordinates": [
     -0.00044356489721665223,
     0.00047094544641164795
    ]
   },
   "properties": {
    "classname": "info_player_teamspawn",
    "team": "2",
    "targetname": "red_spawn2_points",
    "hx": -2592.0,
    "hy": 2752.0,
    "hz": -110.995
   }
  },
  {
   "type": "Feature",
   "geometry": {
    "type": "Point",
    "coordinates": [
     -0.0004326126775316186,
     0.0004599932267276561
    ]
   },
   "properties": {
    "classname": "info_player_teamspawn",
    "team": "2",
    "targetname": "red_spawn2_points",
    "hx": -2528.0,
    "hy": 2688.0,
    "hz": -110.995
   }
  },
  {
   "type": "Feature",
   "geometry": {
    "type": "Point",
    "coordinates": [
     -0.0004435648972159634,
     0.0004599932267276561
    ]
   },
   "properties": {
    "classname": "info_player_teamspawn",
    "team": "2",
    "targetname": "red_spawn2_points",
    "hx": -2592.0,
    "hy": 2688.0,
    "hz": -110.995
   }
  },
  {
   "type": "Feature",
   "geometry": {
    "type": "Point",
    "coordinates": [
     -0.0004326126775309626,
     0.0004490410070436643
    ]
   },
   "properties": {
    "classname": "info_player_teamspawn",
    "team": "2",
    "targetname": "red_spawn2_points",
    "hx": -2528.0,
    "hy": 2624.0,
    "hz": -110.995
   }
  },
  {
   "type": "Feature",
   "geometry": {
    "type": "Point",
    "coordinates": [
     -0.00043261267753229044,
     0.00047094544641164795
    ]
   },
   "properties": {
    "classname": "info_player_teamspawn",
    "team": "2",
    "targetname": "red_spawn2_points",
    "hx": -2528.0,
    "hy": 2752.0,
    "hz": -110.995
   }
  },
  {
   "type": "Feature",
   "geometry": {
    "type": "Point",
    "coordinates": [
     -0.00010952065668402555,
     -5.47609272915265e-06
    ]
   },
   "properties": {
    "classname": "info_player_teamspawn",
    "team": "3",
    "targetname": "central_points",
    "hx": -639.991,
    "hy": -31.9999,
    "hz": 233.005
   }
  },
  {
   "type": "Feature",
   "geometry": {
    "type": "Point",
    "coordinates": [
     -8.761621731604504e-05,
     1.642832952598772e-05
    ]
   },
   "properties": {
    "classname": "info_player_teamspawn",
    "team": "3",
    "targetname": "central_points",
    "hx": -511.991,
    "hy": 96.0,
    "hz": 233.005
   }
  },
  {
   "type": "Feature",
   "geometry": {
    "type": "Point",
    "coordinates": [
     -9.856843700003728e-05,
     1.642832952598772e-05
    ]
   },
   "properties": {
    "classname": "info_player_teamspawn",
    "team": "3",
    "targetname": "central_points",
    "hx": -575.991,
    "hy": 96.0,
    "hz": 233.005
   }
  },
  {
   "type": "Feature",
   "geometry": {
    "type": "Point",
    "coordinates": [
     -0.00010952065668402955,
     1.642832952598772e-05
    ]
   },
   "properties": {
    "classname": "info_player_teamspawn",
    "team": "3",
    "targetname": "central_points",
    "hx": -639.991,
    "hy": 96.0,
    "hz": 233.005
   }
  },
  {
   "type": "Feature",
   "geometry": {
    "type": "Point",
    "coordinates": [
     -7.666399763204996e-05,
     5.476126954839163e-06
    ]
   },
   "properties": {
    "classname": "info_player_teamspawn",
    "team": "3",
    "targetname": "central_points",
    "hx": -447.991,
    "hy": 32.0001,
    "hz": 233.005
   }
  },
  {
   "type": "Feature",
   "geometry": {
    "type": "Point",
    "coordinates": [
     -8.761621731604184e-05,
     5.476126954839163e-06
    ]
   },
   "properties": {
    "classname": "info_player_teamspawn",
    "team": "3",
    "targetname": "central_points",
    "hx": -511.991,
    "hy": 32.0001,
    "hz": 233.005
   }
  },
  {
   "type": "Feature",
   "geometry": {
    "type": "Point",
    "coordinates": [
     -9.856843700003369e-05,
     5.476126954839163e-06
    ]
   },
   "properties": {
    "classname": "info_player_teamspawn",
    "team": "3",
    "targetname": "central_points",
    "hx": -575.991,
    "hy": 32.0001,
    "hz": 233.005
   }
  },
  {
   "type": "Feature",
   "geometry": {
    "type": "Point",
    "coordinates": [
     -0.00010952065668402555,
     5.476126954839163e-06
    ]
   },
   "properties": {
    "classname": "info_player_teamspawn",
    "team": "3",
    "targetname": "central_points",
    "hx": -639.991,
    "hy": 32.0001,
    "hz": 233.005
   }
  },
  {
   "type": "Feature",
   "geometry": {
    "type": "Point",
    "coordinates": [
     -7.666399763205277e-05,
     1.642832952598772e-05
    ]
   },
   "properties": {
    "classname": "info_player_teamspawn",
    "team": "3",
    "targetname": "central_points",
    "hx": -447.991,
    "hy": 96.0,
    "hz": 233.005
   }
  },
  {
   "type": "Feature",
   "geometry": {
    "type": "Point",
    "coordinates": [
     -7.666399763204996e-05,
     -5.47609272915265e-06
    ]
   },
   "properties": {
    "classname": "info_player_teamspawn",
    "team": "3",
    "targetname": "central_points",
    "hx": -447.991,
    "hy": -31.9999,
    "hz": 233.005
   }
  },
  {
   "type": "Feature",
   "geometry": {
    "type": "Point",
    "coordinates": [
     -7.666399763205277e-05,
     -1.642831241314446e-05
    ]
   },
   "properties": {
    "classname": "info_player_teamspawn",
    "team": "3",
    "targetname": "central_points",
    "hx": -447.991,
    "hy": -95.9999,
    "hz": 233.005
   }
  },
  {
   "type": "Feature",
   "geometry": {
    "type": "Point",
    "coordinates": [
     -8.761621731604184e-05,
     -5.47609272915265e-06
    ]
   },
   "properties": {
    "classname": "info_player_teamspawn",
    "team": "3",
    "targetname": "central_points",
    "hx": -511.991,
    "hy": -31.9999,
    "hz": 233.005
   }
  },
  {
   "type": "Feature",
   "geometry": {
    "type": "Point",
    "coordinates": [
     -9.856843700003728e-05,
     -1.642831241314446e-05
    ]
   },
   "properties": {
    "classname": "info_player_teamspawn",
    "team": "3",
    "targetname": "central_points",
    "hx": -575.991,
    "hy": -95.9999,
    "hz": 233.005
   }
  },
  {
   "type": "Feature",
   "geometry": {
    "type": "Point",
    "coordinates": [
     -9.856843700003369e-05,
     -5.47609272915265e-06
    ]
   },
   "properties": {
    "classname": "info_player_teamspawn",
    "team": "3",
    "targetname": "central_points",
    "hx": -575.991,
    "hy": -31.9999,
    "hz": 233.005
   }
  },
  {
   "type": "Feature",
   "geometry": {
    "type": "Point",
    "coordinates": [
     -0.00010952065668402955,
     -1.642831241314446e-05
    ]
   },
   "properties": {
    "classname": "info_player_teamspawn",
    "team": "3",
    "targetname": "central_points",
    "hx": -639.991,
    "hy": -95.9999,
    "hz": 233.005
   }
  },
  {
   "type": "Feature",
   "geometry": {
    "type": "Point",
    "coordinates": [
     -8.761621731604504e-05,
     -1.642831241314446e-05
    ]
   },
   "properties": {
    "classname": "info_player_teamspawn",
    "team": "3",
    "targetname": "central_points",
    "hx": -511.991,
    "hy": -95.9999,
    "hz": 233.005
   }
  },
  {
   "type": "Feature",
   "geometry": {
    "type": "Point",
    "coordinates": [
     -9.856997716070258e-05,
     0.0005640393137255783
    ]
   },
   "properties": {
    "classname": "item_healthkit_small",
    "team": "",
    "targetname": "",
    "hx": -576.0,
    "hy": 3296.0,
    "hz": 128.0
   }
  },
  {
   "type": "Feature",
   "geometry": {
    "type": "Point",
    "coordinates": [
     -9.309386731844132e-05,
     0.0005640393137255783
    ]
   },
   "properties": {
    "classname": "item_ammopack_full",
    "team": "",
    "targetname": "",
    "hx": -544.0,
    "hy": 3296.0,
    "hz": 128.0
   }
  },
  {
   "type": "Feature",
   "geometry": {
    "type": "Point",
    "coordinates": [
     -0.00042987462259771726,
     0.00012595052636590586
    ]
   },
   "properties": {
    "classname": "item_ammopack_medium",
    "team": "",
    "targetname": "",
    "hx": -2512.0,
    "hy": 736.0,
    "hz": -190.744
   }
  },
  {
   "type": "Feature",
   "geometry": {
    "type": "Point",
    "coordinates": [
     -0.0004243985127557081,
     0.00012595052636590586
    ]
   },
   "properties": {
    "classname": "item_healthkit_small",
    "team": "",
    "targetname": "",
    "hx": -2480.0,
    "hy": 736.0,
    "hz": -190.744
   }
  },
  {
   "type": "Feature",
   "geometry": {
    "type": "Point",
    "coordinates": [
     -0.0003723754692610553,
     -0.0003066621511517707
    ]
   },
   "properties": {
    "classname": "team_control_point",
    "team": "",
    "targetname": "forwards_cp",
    "hx": -2176.0,
    "hy": -1792.0,
    "hz": -192.0
   }
  },
  {
   "type": "Feature",
   "geometry": {
    "type": "Point",
    "coordinates": [
     -0.00019166384447471543,
     -0.00040797018322869503
    ]
   },
   "properties": {
    "classname": "item_healthkit_medium",
    "team": "",
    "targetname": "",
    "hx": -1120.0,
    "hy": -2384.0,
    "hz": 257.236
   }
  },
  {
   "type": "Feature",
   "geometry": {
    "type": "Point",
    "coordinates": [
     -0.00019166384447465046,
     -0.0004052321283076971
    ]
   },
   "properties": {
    "classname": "item_ammopack_medium",
    "team": "",
    "targetname": "",
    "hx": -1120.0,
    "hy": -2368.0,
    "hz": -128.0
   }
  },
  {
   "type": "Feature",
   "geometry": {
    "type": "Point",
    "coordinates": [
     -0.00019166384447465046,
     0.0004052321283076971
    ]
   },
   "properties": {
    "classname": "item_ammopack_medium",
    "team": "",
    "targetname": "",
    "hx": -1120.0,
    "hy": 2368.0,
    "hz": -128.0
   }
  },
  {
   "type": "Feature",
   "geometry": {
    "type": "Point",
    "coordinates": [
     -0.0003395188102037462,
     0.0
    ]
   },
   "properties": {
    "classname": "item_healthkit_medium",
    "team": "",
    "targetname": "",
    "hx": -1984.0,
    "hy": 0.0,
    "hz": -64.0
   }
  },
  {
   "type": "Feature",
   "geometry": {
    "type": "Point",
    "coordinates": [
     -0.0002053541190761305,
     0.00020261606415384855
    ]
   },
   "properties": {
    "classname": "item_ammopack_full",
    "team": "",
    "targetname": "",
    "hx": -1200.0,
    "hy": 1184.0,
    "hz": -192.0
   }
  },
  {
   "type": "Feature",
   "geometry": {
    "type": "Point",
    "coordinates": [
     -2.088964776376807e-11,
     -0.000525706544831607
    ]
   },
   "properties": {
    "classname": "team_control_point",
    "team": "",
    "targetname": "base_cp",
    "hx": -0.00012207,
    "hy": -3072.0,
    "hz": 0.0
   }
  },
  {
   "type": "Feature",
   "geometry": {
    "type": "Point",
    "coordinates": [
     -0.0003723754692610553,
     0.0003066621511517707
    ]
   },
   "properties": {
    "classname": "team_control_point",
    "team": "",
    "targetname": "red_forwards_cp",
    "hx": -2176.0,
    "hy": 1792.0,
    "hz": -192.0
   }
  },
  {
   "type": "Feature",
   "geometry": {
    "type": "Point",
    "coordinates": [
     -0.00021083022891816064,
     -0.00020261606415384855
    ]
   },
   "properties": {
    "classname": "item_healthkit_medium",
    "team": "",
    "targetname": "",
    "hx": -1232.0,
    "hy": -1184.0,
    "hz": -192.0
   }
  },
  {
   "type": "Feature",
   "geometry": {
    "type": "Point",
    "coordinates": [
     -0.00034773297498246397,
     -0.0005448729292785926
    ]
   },
   "properties": {
    "classname": "item_ammopack_medium",
    "team": "",
    "targetname": "",
    "hx": -2032.0,
    "hy": -3184.0,
    "hz": -126.765
   }
  },
  {
   "type": "Feature",
   "geometry": {
    "type": "Point",
    "coordinates": [
     -2.088964776376807e-11,
     0.000525706544831607
    ]
   },
   "properties": {
    "classname": "team_control_point",
    "team": "",
    "targetname": "red_base_cp",
    "hx": -0.00012207,
    "hy": 3072.0,
    "hz": 0.0
   }
  },
  {
   "type": "Feature",
   "geometry": {
    "type": "Point",
    "coordinates": [
     -9.309386731844132e-05,
     -0.0005640393137255783
    ]
   },
   "properties": {
    "classname": "item_ammopack_full",
    "team": "",
    "targetname": "",
    "hx": -544.0,
    "hy": -3296.0,
    "hz": 128.0
   }
  },
  {
   "type": "Feature",
   "geometry": {
    "type": "Point",
    "coordinates": [
     -0.0003258285356134899,
     0.0005448729292785926
    ]
   },
   "properties": {
    "classname": "item_healthkit_small",
    "team": "",
    "targetname": "",
    "hx": -1904.0,
    "hy": 3184.0,
    "hz": -126.765
   }
  },
  {
   "type": "Feature",
   "geometry": {
    "type": "Point",
    "coordinates": [
     -9.30938673139304e-05,
     0.0
    ]
   },
   "properties": {
    "classname": "team_control_point",
    "team": "",
    "targetname": "central_cp",
    "hx": -544.0,
    "hy": 0.0,
    "hz": -64.0
   }
  },
  {
   "type": "Feature",
   "geometry": {
    "type": "Point",
    "coordinates": [
     -0.0004243985127557081,
     -0.00012595052636590586
    ]
   },
   "properties": {
    "classname": "item_healthkit_small",
    "team": "",
    "targetname": "",
    "hx": -2480.0,
    "hy": -736.0,
    "hz": -190.744
   }
  },
  {
   "type": "Feature",
   "geometry": {
    "type": "Point",
    "coordinates": [
     -0.00019166384447471543,
     0.00040797018322869503
    ]
   },
   "properties": {
    "classname": "item_healthkit_medium",
    "team": "",
    "targetname": "",
    "hx": -1120.0,
    "hy": 2384.0,
    "hz": 257.236
   }
  },
  {
   "type": "Feature",
   "geometry": {
    "type": "Point",
    "coordinates": [
     -0.00019166384447458587,
     0.0004024940733866991
    ]
   },
   "properties": {
    "classname": "item_ammopack_full",
    "team": "",
    "targetname": "",
    "hx": -1120.0,
    "hy": 2352.0,
    "hz": 257.236
   }
  },
  {
   "type": "Feature",
   "geometry": {
    "type": "Point",
    "coordinates": [
     -0.0003313046454557334,
     0.0005448729292785926
    ]
   },
   "properties": {
    "classname": "item_ammopack_medium",
    "team": "",
    "targetname": "",
    "hx": -1936.0,
    "hy": 3184.0,
    "hz": -126.765
   }
  },
  {
   "type": "Feature",
   "geometry": {
    "type": "Point",
    "coordinates": [
     -0.00011499830668602786,
     0.0004846357210166377
    ]
   },
   "properties": {
    "classname": "item_ammopack_medium",
    "team": "",
    "targetname": "",
    "hx": -672.0,
    "hy": 2832.0,
    "hz": 0.0
   }
  },
  {
   "type": "Feature",
   "geometry": {
    "type": "Point",
    "coordinates": [
     8.214164763185657e-06,
     0.0003915418537027073
    ]
   },
   "properties": {
    "classname": "item_ammopack_full",
    "team": "",
    "targetname": "",
    "hx": 48.0,
    "hy": 2288.0,
    "hz": -128.0
   }
  },
  {
   "type": "Feature",
   "geometry": {
    "type": "Point",
    "coordinates": [
     -0.00034225686514022046,
     -0.0005448729292785926
    ]
   },
   "properties": {
    "classname": "item_healthkit_small",
    "team": "",
    "targetname": "",
    "hx": -2000.0,
    "hy": -3184.0,
    "hz": -126.765
   }
  },
  {
   "type": "Feature",
   "geometry": {
    "type": "Point",
    "coordinates": [
     -9.856997716070258e-05,
     -0.0005640393137255783
    ]
   },
   "properties": {
    "classname": "item_healthkit_small",
    "team": "",
    "targetname": "",
    "hx": -576.0,
    "hy": -3296.0,
    "hz": 128.0
   }
  },
  {
   "type": "Feature",
   "geometry": {
    "type": "Point",
    "coordinates": [
     -0.00017523551495373036,
     0.0006078481924615455
    ]
   },
   "properties": {
    "classname": "item_healthkit_medium",
    "team": "",
    "targetname": "",
    "hx": -1024.0,
    "hy": 3552.0,
    "hz": -126.0
   }
  },
  {
   "type": "Feature",
   "geometry": {
    "type": "Point",
    "coordinates": [
     -0.00019166384447458587,
     -0.0004024940733866991
    ]
   },
   "properties": {
    "classname": "item_ammopack_full",
    "team": "",
    "targetname": "",
    "hx": -1120.0,
    "hy": -2352.0,
    "hz": 257.236
   }
  }
 ]
}
