{
 "type": "FeatureCollection",
 "note": "pseudo-WGS84 via crs.local_to_wgs84 ((0,0)m maps to (0,0)deg); viewing only, not survey",
 "features": [
  {
   "type": "Feature",
   "geometry": {
    "type": "Point",
    "coordinates": [
     0.0,
     -0.0007160013618409647
    ]
   },
   "properties": {
    "classname": "team_control_point",
    "team": "",
    "targetname": "mid_cap_point",
    "hx": 0.0,
    "hy": -4184.0,
    "hz": 1156.0
   }
  },
  {
   "type": "Feature",
   "geometry": {
    "type": "Point",
    "coordinates": [
     -0.0004271365676778052,
     -0.0001807116247858649
    ]
   },
   "properties": {
    "classname": "info_player_teamspawn",
    "team": "3",
    "targetname": "blu_spawn",
    "hx": -2496.0,
    "hy": -1056.0,
    "hz": 1330.75
   }
  },
  {
   "type": "Feature",
   "geometry": {
    "type": "Point",
    "coordinates": [
     -0.0003997577297512611,
     -0.00014237885589189354
    ]
   },
   "properties": {
    "classname": "info_player_teamspawn",
    "team": "3",
    "targetname": "blu_spawn",
    "hx": -2336.01,
    "hy": -832.0,
    "hz": 1330.75
   }
  },
  {
   "type": "Feature",
   "geometry": {
    "type": "Point",
    "coordinates": [
     0.0003614232495805569,
     -0.0004004405321959507
    ]
   },
   "properties": {
    "classname": "item_healthkit_medium",
    "team": "0",
    "targetname": "",
    "hx": 2112.0,
    "hy": -2340.0,
    "hz": 1290.0
   }
  },
  {
   "type": "Feature",
   "geometry": {
    "type": "Point",
    "coordinates": [
     -0.0003819603727648119,
     -0.00014785496573388945
    ]
   },
   "properties": {
    "classname": "info_player_teamspawn",
    "team": "3",
    "targetname": "blu_spawn",
    "hx": -2232.01,
    "hy": -864.0,
    "hz": 1330.75
   }
  },
  {
   "type": "Feature",
   "geometry": {
    "type": "Point",
    "coordinates": [
     -0.00037785157909927077,
     -0.0001642832952598772
    ]
   },
   "properties": {
    "classname": "info_player_teamspawn",
    "team": "3",
    "targetname": "blu_spawn",
    "hx": -2208.0,
    "hy": -960.0,
    "hz": 1330.75
   }
  },
  {
   "type": "Feature",
   "geometry": {
    "type": "Point",
    "coordinates": [
     0.00018824127582758727,
     -0.0005595899744789566
    ]
   },
   "properties": {
    "classname": "item_healthkit_small",
    "team": "0",
    "targetname": "",
    "hx": 1100.0,
    "hy": -3270.0,
    "hz": 1624.0
   }
  },
  {
   "type": "Feature",
   "geometry": {
    "type": "Point",
    "coordinates": [
     -0.00023684175066714103,
     -0.00015059302065488741
    ]
   },
   "properties": {
    "classname": "team_control_point",
    "team": "",
    "targetname": "blu_cap_point",
    "hx": -1384.0,
    "hy": -880.0,
    "hz": 1348.0
   }
  },
  {
   "type": "Feature",
   "geometry": {
    "type": "Point",
    "coordinates": [
     0.00015135283089774278,
     -0.00031438346602898494
    ]
   },
   "properties": {
    "classname": "item_healthkit_small",
    "team": "0",
    "targetname": "",
    "hx": 884.44,
    "hy": -1837.12,
    "hz": 1332.21
   }
  },
  {
   "type": "Feature",
   "geometry": {
    "type": "Point",
    "coordinates": [
     -0.00015197864757563278,
     -0.00031438346602898494
    ]
   },
   "properties": {
    "classname": "item_healthkit_small",
    "team": "0",
    "targetname": "",
    "hx": -888.097,
    "hy": -1837.12,
    "hz": 1336.21
   }
  },
  {
   "type": "Feature",
   "geometry": {
    "type": "Point",
    "coordinates": [
     -0.00018892578955784738,
     -0.0005589054607487071
    ]
   },
   "properties": {
    "classname": "item_healthkit_small",
    "team": "0",
    "targetname": "",
    "hx": -1104.0,
    "hy": -3266.0,
    "hz": 1626.0
   }
  },
  {
   "type": "Feature",
   "geometry": {
    "type": "Point",
    "coordinates": [
     0.0002874957667199597,
     -0.0005886818080145599
    ]
   },
   "properties": {
    "classname": "item_healthkit_small",
    "team": "0",
    "targetname": "",
    "hx": 1680.0,
    "hy": -3440.0,
    "hz": 1538.0
   }
  },
  {
   "type": "Feature",
   "geometry": {
    "type": "Point",
    "coordinates": [
     8.838869106345116e-05,
     -0.00045793968553690766
    ]
   },
   "properties": {
    "classname": "item_healthkit_medium",
    "team": "0",
    "targetname": "",
    "hx": 516.505,
    "hy": -2676.0,
    "hz": 1336.0
   }
  },
  {
   "type": "Feature",
   "geometry": {
    "type": "Point",
    "coordinates": [
     5.6130125880462134e-05,
     2.1904439367983625e-05
    ]
   },
   "properties": {
    "classname": "item_ammopack_medium",
    "team": "0",
    "targetname": "",
    "hx": 328.0,
    "hy": 128.0,
    "hz": 1176.0
   }
  },
  {
   "type": "Feature",
   "geometry": {
    "type": "Point",
    "coordinates": [
     -0.0002874957667199597,
     -0.0005886818080145599
    ]
   },
   "properties": {
    "classname": "item_healthkit_small",
    "team": "0",
    "targetname": "",
    "hx": -1680.0,
    "hy": -3440.0,
    "hz": 1538.0
   }
  },
  {
   "type": "Feature",
   "geometry": {
    "type": "Point",
    "coordinates": [
     0.00040933921069036245,
     -0.00013690274604989764
    ]
   },
   "properties": {
    "classname": "info_player_teamspawn",
    "team": "2",
    "targetname": "red_spawn",
    "hx": 2392.0,
    "hy": -800.0,
    "hz": 1330.75
   }
  },
  {
   "type": "Feature",
   "geometry": {
    "type": "Point",
    "coordinates": [
     -0.0004107082381515542,
     -0.00017249746002287103
    ]
   },
   "properties": {
    "classname": "info_player_teamspawn",
    "team": "3",
    "targetname": "blu_spawn",
    "hx": -2400.0,
    "hy": -1008.0,
    "hz": 1330.75
   }
  },
  {
   "type": "Feature",
   "geometry": {
    "type": "Point",
    "coordinates": [
     4.791596111746768e-05,
     2.1904439367983625e-05
    ]
   },
   "properties": {
    "classname": "item_healthkit_small",
    "team": "0",
    "targetname": "",
    "hx": 280.0,
    "hy": 128.0,
    "hz": 1176.0
   }
  },
  {
   "type": "Feature",
   "geometry": {
    "type": "Point",
    "coordinates": [
     0.0003970179635462813,
     -0.00016154524033887922
    ]
   },
   "properties": {
    "classname": "info_player_teamspawn",
    "team": "2",
    "targetname": "red_spawn",
    "hx": 2320.0,
    "hy": -944.0,
    "hz": 1330.75
   }
  },
  {
   "type": "Feature",
   "geometry": {
    "type": "Point",
    "coordinates": [
     -0.00016152778524118773,
     -0.0003142722325478194
    ]
   },
   "properties": {
    "classname": "item_ammopack_medium",
    "team": "0",
    "targetname": "",
    "hx": -943.898,
    "hy": -1836.47,
    "hz": 1328.21
   }
  },
  {
   "type": "Feature",
   "geometry": {
    "type": "Point",
    "coordinates": [
     0.0004120772656118858,
     -0.0001642832952598772
    ]
   },
   "properties": {
    "classname": "info_player_teamspawn",
    "team": "2",
    "targetname": "red_spawn",
    "hx": 2408.0,
    "hy": -960.0,
    "hz": 1330.75
   }
  },
  {
   "type": "Feature",
   "geometry": {
    "type": "Point",
    "coordinates": [
     0.00042029143037443405,
     -0.0001396408009708956
    ]
   },
   "properties": {
    "classname": "info_player_teamspawn",
    "team": "2",
    "targetname": "red_spawn",
    "hx": 2456.0,
    "hy": -816.0,
    "hz": 1330.75
   }
  },
  {
   "type": "Feature",
   "geometry": {
    "type": "Point",
    "coordinates": [
     -0.0001191053890742071,
     -0.0007714469739911733
    ]
   },
   "properties": {
    "classname": "item_ammopack_medium",
    "team": "0",
    "targetname": "",
    "hx": -696.0,
    "hy": -4508.0,
    "hz": 1274.0
   }
  },
  {
   "type": "Feature",
   "geometry": {
    "type": "Point",
    "coordinates": [
     0.00010130803207744355,
     -0.00018344967970686287
    ]
   },
   "properties": {
    "classname": "item_healthkit_medium",
    "team": "0",
    "targetname": "",
    "hx": 592.0,
    "hy": -1072.0,
    "hz": 1468.0
   }
  },
  {
   "type": "Feature",
   "geometry": {
    "type": "Point",
    "coordinates": [
     0.0004202914303751823,
     -0.00017660454240436797
    ]
   },
   "properties": {
    "classname": "info_player_teamspawn",
    "team": "2",
    "targetname": "red_spawn",
    "hx": 2456.0,
    "hy": -1032.0,
    "hz": 1330.75
   }
  },
  {
   "type": "Feature",
   "geometry": {
    "type": "Point",
    "coordinates": [
     -0.00010883768311953407,
     -0.0007714469739911733
    ]
   },
   "properties": {
    "classname": "item_healthkit_medium",
    "team": "0",
    "targetname": "",
    "hx": -636.0,
    "hy": -4508.0,
    "hz": 1274.0
   }
  },
  {
   "type": "Feature",
   "geometry": {
    "type": "Point",
    "coordinates": [
     -0.00041892240291383534,
     -0.0001341646911288997
    ]
   },
   "properties": {
    "classname": "info_player_teamspawn",
    "team": "3",
    "targetname": "blu_spawn",
    "hx": -2448.0,
    "hy": -784.0,
    "hz": 1330.75
   }
  },
  {
   "type": "Feature",
   "geometry": {
    "type": "Point",
    "coordinates": [
     -0.000412078976895941,
     -0.00015059302065488741
    ]
   },
   "properties": {
    "classname": "info_player_teamspawn",
    "team": "3",
    "targetname": "blu_spawn",
    "hx": -2408.01,
    "hy": -880.0,
    "hz": 1330.75
   }
  },
  {
   "type": "Feature",
   "geometry": {
    "type": "Point",
    "coordinates": [
     -3.4225686513587294e-06,
     -0.00046204676791840457
    ]
   },
   "properties": {
    "classname": "item_healthkit_small",
    "team": "0",
    "targetname": "",
    "hx": -20.0,
    "hy": -2700.0,
    "hz": 1366.0
   }
  },
  {
   "type": "Feature",
   "geometry": {
    "type": "Point",
    "coordinates": [
     0.00039838699100627225,
     -0.0001327956636684007
    ]
   },
   "properties": {
    "classname": "info_player_teamspawn",
    "team": "2",
    "targetname": "red_spawn",
    "hx": 2328.0,
    "hy": -776.0,
    "hz": 1330.75
   }
  },
  {
   "type": "Feature",
   "geometry": {
    "type": "Point",
    "coordinates": [
     -0.0003066621511526461,
     -0.00013690274604989764
    ]
   },
   "properties": {
    "classname": "item_ammopack_medium",
    "team": "0",
    "targetname": "",
    "hx": -1792.0,
    "hy": -800.0,
    "hz": 1339.25
   }
  },
  {
   "type": "Feature",
   "geometry": {
    "type": "Point",
    "coordinates": [
     0.00040523212830953357,
     -0.00017249746002287103
    ]
   },
   "properties": {
    "classname": "info_player_teamspawn",
    "team": "2",
    "targetname": "red_spawn",
    "hx": 2368.0,
    "hy": -1008.0,
    "hz": 1330.75
   }
  },
  {
   "type": "Feature",
   "geometry": {
    "type": "Point",
    "coordinates": [
     -4.791596111746768e-05,
     2.1904439367983625e-05
    ]
   },
   "properties": {
    "classname": "item_healthkit_small",
    "team": "0",
    "targetname": "",
    "hx": -280.0,
    "hy": 128.0,
    "hz": 1176.0
   }
  },
  {
   "type": "Feature",
   "geometry": {
    "type": "Point",
    "coordinates": [
     -0.00036963741433604727,
     -0.00015333107557588535
    ]
   },
   "properties": {
    "classname": "info_player_teamspawn",
    "team": "3",
    "targetname": "blu_spawn",
    "hx": -2160.0,
    "hy": -896.0,
    "hz": 1330.75
   }
  },
  {
   "type": "Feature",
   "geometry": {
    "type": "Point",
    "coordinates": [
     0.00018824127582786393,
     -0.0005681463961070753
    ]
   },
   "properties": {
    "classname": "item_ammopack_small",
    "team": "0",
    "targetname": "",
    "hx": 1100.0,
    "hy": -3320.0,
    "hz": 1624.0
   }
  },
  {
   "type": "Feature",
   "geometry": {
    "type": "Point",
    "coordinates": [
     0.00011978990280451864,
     -0.0007714469739911733
    ]
   },
   "properties": {
    "classname": "item_ammopack_medium",
    "team": "0",
    "targetname": "",
    "hx": 700.0,
    "hy": -4508.0,
    "hz": 1274.0
   }
  },
  {
   "type": "Feature",
   "geometry": {
    "type": "Point",
    "coordinates": [
     -0.00040249407338771435,
     -0.0001286885812869038
    ]
   },
   "properties": {
    "classname": "info_player_teamspawn",
    "team": "3",
    "targetname": "blu_spawn",
    "hx": -2352.0,
    "hy": -752.0,
    "hz": 1330.75
   }
  },
  {
   "type": "Feature",
   "geometry": {
    "type": "Point",
    "coordinates": [
     0.0003819586614804862,
     -0.00014785496573388945
    ]
   },
   "properties": {
    "classname": "info_player_teamspawn",
    "team": "2",
    "targetname": "red_spawn",
    "hx": 2232.0,
    "hy": -864.0,
    "hz": 1330.75
   }
  },
  {
   "type": "Feature",
   "geometry": {
    "type": "Point",
    "coordinates": [
     0.00038743477132233855,
     -0.00013827177351039664
    ]
   },
   "properties": {
    "classname": "info_player_teamspawn",
    "team": "2",
    "targetname": "red_spawn",
    "hx": 2264.0,
    "hy": -808.0,
    "hz": 1330.75
   }
  },
  {
   "type": "Feature",
   "geometry": {
    "type": "Point",
    "coordinates": [
     -0.0003723754692567846,
     -0.00013690274604989764
    ]
   },
   "properties": {
    "classname": "info_player_teamspawn",
    "team": "3",
    "targetname": "blu_spawn",
    "hx": -2176.0,
    "hy": -800.0,
    "hz": 1330.75
   }
  },
  {
   "type": "Feature",
   "geometry": {
    "type": "Point",
    "coordinates": [
     0.0003723754692569387,
     -0.00014648593827339048
    ]
   },
   "properties": {
    "classname": "info_player_teamspawn",
    "team": "2",
    "targetname": "red_spawn",
    "hx": 2176.0,
    "hy": -856.0,
    "hz": 1330.75
   }
  },
  {
   "type": "Feature",
   "geometry": {
    "type": "Point",
    "coordinates": [
     0.00023547272320663732,
     -0.00015059302065488741
    ]
   },
   "properties": {
    "classname": "team_control_point",
    "team": "",
    "targetname": "red_cap_point",
    "hx": 1376.0,
    "hy": -880.0,
    "hz": 1348.0
   }
  },
  {
   "type": "Feature",
   "geometry": {
    "type": "Point",
    "coordinates": [
     -0.00042713827896148177,
     -0.00015059302065488741
    ]
   },
   "properties": {
    "classname": "info_player_teamspawn",
    "team": "3",
    "targetname": "blu_spawn",
    "hx": -2496.01,
    "hy": -880.0,
    "hz": 1330.75
   }
  },
  {
   "type": "Feature",
   "geometry": {
    "type": "Point",
    "coordinates": [
     0.0003874347713229385,
     -0.00017112843256237206
    ]
   },
   "properties": {
    "classname": "info_player_teamspawn",
    "team": "2",
    "targetname": "red_spawn",
    "hx": 2264.0,
    "hy": -1000.0,
    "hz": 1330.75
   }
  },
  {
   "type": "Feature",
   "geometry": {
    "type": "Point",
    "coordinates": [
     0.00030118604131627684,
     -0.0003764825516372186
    ]
   },
   "properties": {
    "classname": "item_healthkit_full",
    "team": "0",
    "targetname": "",
    "hx": 1760.0,
    "hy": -2200.0,
    "hz": 1588.26
   }
  },
  {
   "type": "Feature",
   "geometry": {
    "type": "Point",
    "coordinates": [
     -0.00039565064737055787,
     -0.00018344967970686287
    ]
   },
   "properties": {
    "classname": "info_player_teamspawn",
    "team": "3",
    "targetname": "blu_spawn",
    "hx": -2312.01,
    "hy": -1072.0,
    "hz": 1330.75
   }
  },
  {
   "type": "Feature",
   "geometry": {
    "type": "Point",
    "coordinates": [
     -0.0003970196748305539,
     -0.00015880718541788126
    ]
   },
   "properties": {
    "classname": "info_player_teamspawn",
    "team": "3",
    "targetname": "blu_spawn",
    "hx": -2320.01,
    "hy": -928.0,
    "hz": 1330.75
   }
  },
  {
   "type": "Feature",
   "geometry": {
    "type": "Point",
    "coordinates": [
     -0.00030115181562975985,
     -0.000376371318156053
    ]
   },
   "properties": {
    "classname": "item_ammopack_full",
    "team": "0",
    "targetname": "",
    "hx": -1759.8,
    "hy": -2199.35,
    "hz": 1584.26
   }
  },
  {
   "type": "Feature",
   "geometry": {
    "type": "Point",
    "coordinates": [
     -8.487970255353535e-05,
     -0.0004483564933134148
    ]
   },
   "properties": {
    "classname": "item_ammopack_medium",
    "team": "0",
    "targetname": "",
    "hx": -496.0,
    "hy": -2620.0,
    "hz": 1338.0
   }
  },
  {
   "type": "Feature",
   "geometry": {
    "type": "Point",
    "coordinates": [
     0.0,
     -0.0002464249428898158
    ]
   },
   "properties": {
    "classname": "item_healthkit_medium",
    "team": "0",
    "targetname": "",
    "hx": 0.0,
    "hy": -1440.0,
    "hz": 992.0
   }
  },
  {
   "type": "Feature",
   "geometry": {
    "type": "Point",
    "coordinates": [
     -5.6130125880462134e-05,
     2.1904439367983625e-05
    ]
   },
   "properties": {
    "classname": "item_ammopack_medium",
    "team": "0",
    "targetname": "",
    "hx": -328.0,
    "hy": 128.0,
    "hz": 1176.0
   }
  },
  {
   "type": "Feature",
   "geometry": {
    "type": "Point",
    "coordinates": [
     -0.0003614232495805267,
     -0.00039975601846570116
    ]
   },
   "properties": {
    "classname": "item_healthkit_medium",
    "team": "0",
    "targetname": "",
    "hx": -2112.0,
    "hy": -2336.0,
    "hz": 1290.0
   }
  },
  {
   "type": "Feature",
   "geometry": {
    "type": "Point",
    "coordinates": [
     0.0003997560184670322,
     -0.00014785496573388945
    ]
   },
   "properties": {
    "classname": "info_player_teamspawn",
    "team": "2",
    "targetname": "red_spawn",
    "hx": 2336.0,
    "hy": -864.0,
    "hz": 1330.75
   }
  },
  {
   "type": "Feature",
   "geometry": {
    "type": "Point",
    "coordinates": [
     0.00011020671058015714,
     -0.0007714469739911733
    ]
   },
   "properties": {
    "classname": "item_healthkit_medium",
    "team": "0",
    "targetname": "",
    "hx": 644.0,
    "hy": -4508.0,
    "hz": 1274.0
   }
  },
  {
   "type": "Feature",
   "geometry": {
    "type": "Point",
    "coordinates": [
     -0.0003888037987827753,
     -0.0001341646911288997
    ]
   },
   "properties": {
    "classname": "info_player_teamspawn",
    "team": "3",
    "targetname": "blu_spawn",
    "hx": -2272.0,
    "hy": -784.0,
    "hz": 1330.75
   }
  },
  {
   "type": "Feature",
   "geometry": {
    "type": "Point",
    "coordinates": [
     0.00031213826099465763,
     -0.00013690274604989764
    ]
   },
   "properties": {
    "classname": "item_ammopack_medium",
    "team": "0",
    "targetname": "",
    "hx": 1824.0,
    "hy": -800.0,
    "hz": 1340.0
   }
  },
  {
   "type": "Feature",
   "geometry": {
    "type": "Point",
    "coordinates": [
     0.00041618434799317914,
     -0.00015333107557588535
    ]
   },
   "properties": {
    "classname": "info_player_teamspawn",
    "team": "2",
    "targetname": "red_spawn",
    "hx": 2432.0,
    "hy": -896.0,
    "hz": 1330.75
   }
  },
  {
   "type": "Feature",
   "geometry": {
    "type": "Point",
    "coordinates": [
     0.00037511352417813574,
     -0.0001574381579573823
    ]
   },
   "properties": {
    "classname": "info_player_teamspawn",
    "team": "2",
    "targetname": "red_spawn",
    "hx": 2192.0,
    "hy": -920.0,
    "hz": 1330.75
   }
  },
  {
   "type": "Feature",
   "geometry": {
    "type": "Point",
    "coordinates": [
     -0.00010130803207744355,
     -0.00018344967970686287
    ]
   },
   "properties": {
    "classname": "item_healthkit_medium",
    "team": "0",
    "targetname": "",
    "hx": -592.0,
    "hy": -1072.0,
    "hz": 1464.0
   }
  },
  {
   "type": "Feature",
   "geometry": {
    "type": "Point",
    "coordinates": [
     0.0003614232495809844,
     -0.00041002372441944346
    ]
   },
   "properties": {
    "classname": "item_ammopack_medium",
    "team": "0",
    "targetname": "",
    "hx": 2112.0,
    "hy": -2396.0,
    "hz": 1290.0
   }
  },
  {
   "type": "Feature",
   "geometry": {
    "type": "Point",
    "coordinates": [
     -8.487970255364765e-05,
     -0.00045793968553690766
    ]
   },
   "properties": {
    "classname": "item_healthkit_medium",
    "team": "0",
    "targetname": "",
    "hx": -496.0,
    "hy": -2676.0,
    "hz": 1338.0
   }
  },
  {
   "type": "Feature",
   "geometry": {
    "type": "Point",
    "coordinates": [
     0.0003942799086256664,
     -0.0001807116247858649
    ]
   },
   "properties": {
    "classname": "info_player_teamspawn",
    "team": "2",
    "targetname": "red_spawn",
    "hx": 2304.0,
    "hy": -1056.0,
    "hz": 1330.75
   }
  },
  {
   "type": "Feature",
   "geometry": {
    "type": "Point",
    "coordinates": [
     8.838869106332598e-05,
     -0.0004476719795831653
    ]
   },
   "properties": {
    "classname": "item_ammopack_medium",
    "team": "0",
    "targetname": "",
    "hx": 516.505,
    "hy": -2616.0,
    "hz": 1336.0
   }
  },
  {
   "type": "Feature",
   "geometry": {
    "type": "Point",
    "coordinates": [
     5.476109842173967e-06,
     -0.00046204676791840457
    ]
   },
   "properties": {
    "classname": "item_ammopack_small",
    "team": "0",
    "targetname": "",
    "hx": 32.0,
    "hy": -2700.0,
    "hz": 1370.0
   }
  },
  {
   "type": "Feature",
   "geometry": {
    "type": "Point",
    "coordinates": [
     -0.00036142324958101535,
     -0.0004107082381496929
    ]
   },
   "properties": {
    "classname": "item_ammopack_medium",
    "team": "0",
    "targetname": "",
    "hx": -2112.0,
    "hy": -2400.0,
    "hz": 1290.0
   }
  },
  {
   "type": "Feature",
   "geometry": {
    "type": "Point",
    "coordinates": [
     -0.00018892578955811352,
     -0.000567119625511701
    ]
   },
   "properties": {
    "classname": "item_ammopack_small",
    "team": "0",
    "targetname": "",
    "hx": -1104.0,
    "hy": -3314.0,
    "hz": 1626.0
   }
  },
  {
   "type": "Feature",
   "geometry": {
    "type": "Point",
    "coordinates": [
     -0.0002902338216320486,
     -0.0003764825516372186
    ]
   },
   "properties": {
    "classname": "item_healthkit_full",
    "team": "0",
    "targetname": "",
    "hx": -1696.0,
    "hy": -2200.0,
    "hz": 1588.26
   }
  },
  {
   "type": "Feature",
   "geometry": {
    "type": "Point",
    "coordinates": [
     -0.00039154185370448175,
     -0.00017249746002287103
    ]
   },
   "properties": {
    "classname": "info_player_teamspawn",
    "team": "3",
    "targetname": "blu_spawn",
    "hx": -2288.0,
    "hy": -1008.0,
    "hz": 1330.75
   }
  },
  {
   "type": "Feature",
   "geometry": {
    "type": "Point",
    "coordinates": [
     0.0002902680473185581,
     -0.000376371318156053
    ]
   },
   "properties": {
    "classname": "item_ammopack_full",
    "team": "0",
    "targetname": "",
    "hx": 1696.2,
    "hy": -2199.35,
    "hz": 1584.26
   }
  },
  {
   "type": "Feature",
   "geometry": {
    "type": "Point",
    "coordinates": [
     0.00042439851275642725,
     -0.0001642832952598772
    ]
   },
   "properties": {
    "classname": "info_player_teamspawn",
    "team": "2",
    "targetname": "red_spawn",
    "hx": 2480.0,
    "hy": -960.0,
    "hz": 1330.75
   }
  },
  {
   "type": "Feature",
   "geometry": {
    "type": "Point",
    "coordinates": [
     0.00016090213969173028,
     -0.0003142722325478194
    ]
   },
   "properties": {
    "classname": "item_ammopack_medium",
    "team": "0",
    "targetname": "",
    "hx": 940.242,
    "hy": -1836.47,
    "hz": 1328.21
   }
  },
  {
   "type": "Feature",
   "geometry": {
    "type": "Point",
    "coordinates": [
     -0.0004243985127564564,
     -0.00016565232272037616
    ]
   },
   "properties": {
    "classname": "info_player_teamspawn",
    "team": "3",
    "targetname": "blu_spawn",
    "hx": -2480.0,
    "hy": -968.0,
    "hz": 1330.75
   }
  }
 ]
}
