{
 "type": "FeatureCollection",
 "note": "pseudo-WGS84 via crs.local_to_wgs84 ((0,0)m maps to (0,0)deg); viewing only, not survey",
 "features": [
  {
   "type": "Feature",
   "geometry": {
    "type": "Point",
    "coordinates": [
     0.00018225178068000507,
     0.00019713995431185264
    ]
   },
   "properties": {
    "classname": "info_player_teamspawn",
    "team": "2",
    "targetname": "spawn_red_third",
    "hx": 1065.0,
    "hy": 1152.0,
    "hz": 98.0
   }
  },
  {
   "type": "Feature",
   "geometry": {
    "type": "Point",
    "coordinates": [
     0.00016667909331673187,
     0.00019662656901416552
    ]
   },
   "properties": {
    "classname": "info_player_teamspawn",
    "team": "2",
    "targetname": "spawn_red_third",
    "hx": 974.0,
    "hy": 1149.0,
    "hz": 98.0
   }
  },
  {
   "type": "Feature",
   "geometry": {
    "type": "Point",
    "coordinates": [
     0.0001658234511537141,
     0.000175235514943869
    ]
   },
   "properties": {
    "classname": "info_player_teamspawn",
    "team": "2",
    "targetname": "spawn_red_third",
    "hx": 969.0,
    "hy": 1024.0,
    "hz": 98.0
   }
  },
  {
   "type": "Feature",
   "geometry": {
    "type": "Point",
    "coordinates": [
     0.0002178464946528558,
     0.0001697594051018731
    ]
   },
   "properties": {
    "classname": "info_player_teamspawn",
    "team": "2",
    "targetname": "spawn_red_third",
    "hx": 1273.0,
    "hy": 992.0,
    "hz": 98.0
   }
  },
  {
   "type": "Feature",
   "geometry": {
    "type": "Point",
    "coordinates": [
     0.00021784649465257224,
     0.00014237885589189354
    ]
   },
   "properties": {
    "classname": "info_player_teamspawn",
    "team": "2",
    "targetname": "spawn_red_third",
    "hx": 1273.0,
    "hy": 832.0,
    "hz": 98.0
   }
  },
  {
   "type": "Feature",
   "geometry": {
    "type": "Point",
    "coordinates": [
     0.00021784649465235957,
     0.00011773636160291199
    ]
   },
   "properties": {
    "classname": "info_player_teamspawn",
    "team": "2",
    "targetname": "spawn_red_third",
    "hx": 1273.0,
    "hy": 688.0,
    "hz": 98.0
   }
  },
  {
   "type": "Feature",
   "geometry": {
    "type": "Point",
    "coordinates": [
     0.00021784649465318912,
     0.00019713995431185264
    ]
   },
   "properties": {
    "classname": "info_player_teamspawn",
    "team": "2",
    "targetname": "spawn_red_third",
    "hx": 1273.0,
    "hy": 1152.0,
    "hz": 98.0
   }
  },
  {
   "type": "Feature",
   "geometry": {
    "type": "Point",
    "coordinates": [
     -2.1219925637860616e-05,
     0.00019782446804210213
    ]
   },
   "properties": {
    "classname": "info_player_teamspawn",
    "team": "2",
    "targetname": "spawn_red_third",
    "hx": -124.0,
    "hy": 1156.0,
    "hz": 82.0
   }
  },
  {
   "type": "Feature",
   "geometry": {
    "type": "Point",
    "coordinates": [
     -2.2417824665834568e-05,
     0.00021904439367983623
    ]
   },
   "properties": {
    "classname": "info_player_teamspawn",
    "team": "2",
    "targetname": "spawn_red_third",
    "hx": -131.0,
    "hy": 1280.0,
    "hz": 82.0
   }
  },
  {
   "type": "Feature",
   "geometry": {
    "type": "Point",
    "coordinates": [
     1.1978990279453584e-06,
     0.00021904439367983623
    ]
   },
   "properties": {
    "classname": "info_player_teamspawn",
    "team": "2",
    "targetname": "spawn_red_third",
    "hx": 7.0,
    "hy": 1280.0,
    "hz": 82.0
   }
  },
  {
   "type": "Feature",
   "geometry": {
    "type": "Point",
    "coordinates": [
     -4.278210814084626e-06,
     0.00019713995431185264
    ]
   },
   "properties": {
    "classname": "info_player_teamspawn",
    "team": "2",
    "targetname": "spawn_red_third",
    "hx": -25.0,
    "hy": 1152.0,
    "hz": 82.0
   }
  },
  {
   "type": "Feature",
   "geometry": {
    "type": "Point",
    "coordinates": [
     2.8065062940381588e-05,
     0.00018892578954885877
    ]
   },
   "properties": {
    "classname": "info_player_teamspawn",
    "team": "2",
    "targetname": "spawn_red_third",
    "hx": 164.0,
    "hy": 1104.0,
    "hz": 82.0
   }
  },
  {
   "type": "Feature",
   "geometry": {
    "type": "Point",
    "coordinates": [
     2.8065062940409276e-05,
     0.00020535411907484646
    ]
   },
   "properties": {
    "classname": "info_player_teamspawn",
    "team": "2",
    "targetname": "spawn_red_third",
    "hx": 164.0,
    "hy": 1200.0,
    "hz": 82.0
   }
  },
  {
   "type": "Feature",
   "geometry": {
    "type": "Point",
    "coordinates": [
     2.7551677642743247e-05,
     0.00021904439367983623
    ]
   },
   "properties": {
    "classname": "info_player_teamspawn",
    "team": "2",
    "targetname": "spawn_red_third",
    "hx": 161.0,
    "hy": 1280.0,
    "hz": 82.0
   }
  },
  {
   "type": "Feature",
   "geometry": {
    "type": "Point",
    "coordinates": [
     -0.00037880647575762414,
     -0.0003280395149474623
    ]
   },
   "properties": {
    "classname": "info_player_teamspawn",
    "team": "2",
    "targetname": "spawn_red_second",
    "hx": -2213.58,
    "hy": -1916.92,
    "hz": -80.0
   }
  },
  {
   "type": "Feature",
   "geometry": {
    "type": "Point",
    "coordinates": [
     -0.000393766523332486,
     -0.00032839546208719196
    ]
   },
   "properties": {
    "classname": "info_player_teamspawn",
    "team": "2",
    "targetname": "spawn_red_second",
    "hx": -2301.0,
    "hy": -1919.0,
    "hz": -80.0
   }
  },
  {
   "type": "Feature",
   "geometry": {
    "type": "Point",
    "coordinates": [
     -0.0003937665233334352,
     -0.0003516689289156746
    ]
   },
   "properties": {
    "classname": "info_player_teamspawn",
    "team": "2",
    "targetname": "spawn_red_second",
    "hx": -2301.0,
    "hy": -2055.0,
    "hz": -80.0
   }
  },
  {
   "type": "Feature",
   "geometry": {
    "type": "Point",
    "coordinates": [
     -0.00039376652333432676,
     -0.00037220434082315925
    ]
   },
   "properties": {
    "classname": "info_player_teamspawn",
    "team": "2",
    "targetname": "spawn_red_second",
    "hx": -2301.0,
    "hy": -2175.0,
    "hz": -80.0
   }
  },
  {
   "type": "Feature",
   "geometry": {
    "type": "Point",
    "coordinates": [
     -0.0003937665233353334,
     -0.00039410878019114287
    ]
   },
   "properties": {
    "classname": "info_player_teamspawn",
    "team": "2",
    "targetname": "spawn_red_second",
    "hx": -2301.0,
    "hy": -2303.0,
    "hz": -80.0
   }
  },
  {
   "type": "Feature",
   "geometry": {
    "type": "Point",
    "coordinates": [
     -0.0003727177261296255,
     -0.00039325313802833104
    ]
   },
   "properties": {
    "classname": "info_player_teamspawn",
    "team": "2",
    "targetname": "spawn_red_second",
    "hx": -2178.0,
    "hy": -2298.0,
    "hz": -80.0
   }
  },
  {
   "type": "Feature",
   "geometry": {
    "type": "Point",
    "coordinates": [
     -0.00037271772612867466,
     -0.00037134869866034737
    ]
   },
   "properties": {
    "classname": "info_player_teamspawn",
    "team": "2",
    "targetname": "spawn_red_second",
    "hx": -2178.0,
    "hy": -2170.0,
    "hz": -80.0
   }
  },
  {
   "type": "Feature",
   "geometry": {
    "type": "Point",
    "coordinates": [
     -0.00035081328675938734,
     -0.00034944425929236375
    ]
   },
   "properties": {
    "classname": "info_player_teamspawn",
    "team": "2",
    "targetname": "spawn_red_second",
    "hx": -2050.0,
    "hy": -2042.0,
    "hz": -80.0
   }
  },
  {
   "type": "Feature",
   "geometry": {
    "type": "Point",
    "coordinates": [
     -0.0003508132867604499,
     -0.0003768248085023433
    ]
   },
   "properties": {
    "classname": "info_player_teamspawn",
    "team": "2",
    "targetname": "spawn_red_second",
    "hx": -2050.0,
    "hy": -2202.0,
    "hz": -80.0
   }
  },
  {
   "type": "Feature",
   "geometry": {
    "type": "Point",
    "coordinates": [
     -0.0003289088473926263,
     -0.00039325313802833104
    ]
   },
   "properties": {
    "classname": "info_player_teamspawn",
    "team": "2",
    "targetname": "spawn_red_second",
    "hx": -1922.0,
    "hy": -2298.0,
    "hz": -80.0
   }
  },
  {
   "type": "Feature",
   "geometry": {
    "type": "Point",
    "coordinates": [
     -0.00030700440802412674,
     -0.00039325313802833104
    ]
   },
   "properties": {
    "classname": "info_player_teamspawn",
    "team": "2",
    "targetname": "spawn_red_second",
    "hx": -1794.0,
    "hy": -2298.0,
    "hz": -80.0
   }
  },
  {
   "type": "Feature",
   "geometry": {
    "type": "Point",
    "coordinates": [
     -0.00032890884739178726,
     -0.00037134869866034737
    ]
   },
   "properties": {
    "classname": "info_player_teamspawn",
    "team": "2",
    "targetname": "spawn_red_second",
    "hx": -1922.0,
    "hy": -2170.0,
    "hz": -80.0
   }
  },
  {
   "type": "Feature",
   "geometry": {
    "type": "Point",
    "coordinates": [
     -0.00030700440802334356,
     -0.00037134869866034737
    ]
   },
   "properties": {
    "classname": "info_player_teamspawn",
    "team": "2",
    "targetname": "spawn_red_second",
    "hx": -1794.0,
    "hy": -2170.0,
    "hz": -80.0
   }
  },
  {
   "type": "Feature",
   "geometry": {
    "type": "Point",
    "coordinates": [
     -0.0003070044080226053,
     -0.00034944425929236375
    ]
   },
   "properties": {
    "classname": "info_player_teamspawn",
    "team": "2",
    "targetname": "spawn_red_second",
    "hx": -1794.0,
    "hy": -2042.0,
    "hz": -80.0
   }
  },
  {
   "type": "Feature",
   "geometry": {
    "type": "Point",
    "coordinates": [
     -0.00030700440802191193,
     -0.00032753981992438014
    ]
   },
   "properties": {
    "classname": "info_player_teamspawn",
    "team": "2",
    "targetname": "spawn_red_second",
    "hx": -1794.0,
    "hy": -1914.0,
    "hz": -80.0
   }
  },
  {
   "type": "Feature",
   "geometry": {
    "type": "Point",
    "coordinates": [
     -0.00032138604149472996,
     -0.00032882328316859795
    ]
   },
   "properties": {
    "classname": "info_player_teamspawn",
    "team": "2",
    "targetname": "spawn_red_second",
    "hx": -1878.04,
    "hy": -1921.5,
    "hz": -80.0
   }
  },
  {
   "type": "Feature",
   "geometry": {
    "type": "Point",
    "coordinates": [
     0.0004516079335360649,
     0.000240093190885008
    ]
   },
   "properties": {
    "classname": "info_player_teamspawn",
    "team": "2",
    "targetname": "spawn_red_first",
    "hx": 2639.0,
    "hy": 1403.0,
    "hz": -176.0
   }
  },
  {
   "type": "Feature",
   "geometry": {
    "type": "Point",
    "coordinates": [
     0.0004512656766699759,
     0.00020894781615865627
    ]
   },
   "properties": {
    "classname": "info_player_teamspawn",
    "team": "2",
    "targetname": "spawn_red_first",
    "hx": 2637.0,
    "hy": 1221.0,
    "hz": -176.0
   }
  },
  {
   "type": "Feature",
   "geometry": {
    "type": "Point",
    "coordinates": [
     0.0004516079335355356,
     0.0002234937329264579
    ]
   },
   "properties": {
    "classname": "info_player_teamspawn",
    "team": "2",
    "targetname": "spawn_red_first",
    "hx": 2639.0,
    "hy": 1306.0,
    "hz": -176.0
   }
  },
  {
   "type": "Feature",
   "geometry": {
    "type": "Point",
    "coordinates": [
     0.00045297696099733467,
     0.00026199763025299165
    ]
   },
   "properties": {
    "classname": "info_player_teamspawn",
    "team": "2",
    "targetname": "spawn_red_first",
    "hx": 2647.0,
    "hy": 1531.0,
    "hz": -176.0
   }
  },
  {
   "type": "Feature",
   "geometry": {
    "type": "Point",
    "coordinates": [
     0.00039342426646434757,
     0.000240093190885008
    ]
   },
   "properties": {
    "classname": "info_player_teamspawn",
    "team": "2",
    "targetname": "spawn_red_first",
    "hx": 2299.0,
    "hy": 1403.0,
    "hz": -176.0
   }
  },
  {
   "type": "Feature",
   "geometry": {
    "type": "Point",
    "coordinates": [
     0.0003834988173753381,
     0.00022896984276845383
    ]
   },
   "properties": {
    "classname": "info_player_teamspawn",
    "team": "2",
    "targetname": "spawn_red_first",
    "hx": 2241.0,
    "hy": 1338.0,
    "hz": -176.0
   }
  },
  {
   "type": "Feature",
   "geometry": {
    "type": "Point",
    "coordinates": [
     0.0003879019519443876,
     0.00019653073709193059
    ]
   },
   "properties": {
    "classname": "info_player_teamspawn",
    "team": "2",
    "targetname": "spawn_red_first",
    "hx": 2266.73,
    "hy": 1148.44,
    "hz": -176.0
   }
  },
  {
   "type": "Feature",
   "geometry": {
    "type": "Point",
    "coordinates": [
     0.0003804185055894931,
     0.000240093190885008
    ]
   },
   "properties": {
    "classname": "info_player_teamspawn",
    "team": "2",
    "targetname": "spawn_red_first",
    "hx": 2223.0,
    "hy": 1403.0,
    "hz": -176.0
   }
  },
  {
   "type": "Feature",
   "geometry": {
    "type": "Point",
    "coordinates": [
     0.00037699593693711793,
     0.00019628431214904077
    ]
   },
   "properties": {
    "classname": "info_player_teamspawn",
    "team": "2",
    "targetname": "spawn_red_first",
    "hx": 2203.0,
    "hy": 1147.0,
    "hz": -176.0
   }
  },
  {
   "type": "Feature",
   "geometry": {
    "type": "Point",
    "coordinates": [
     0.0003769959369388471,
     0.00026199763025299165
    ]
   },
   "properties": {
    "classname": "info_player_teamspawn",
    "team": "2",
    "targetname": "spawn_red_first",
    "hx": 2203.0,
    "hy": 1531.0,
    "hz": -176.0
   }
  },
  {
   "type": "Feature",
   "geometry": {
    "type": "Point",
    "coordinates": [
     0.00041532870583269174,
     0.0002455693007270039
    ]
   },
   "properties": {
    "classname": "info_player_teamspawn",
    "team": "2",
    "targetname": "spawn_red_first",
    "hx": 2427.0,
    "hy": 1435.0,
    "hz": -176.0
   }
  },
  {
   "type": "Feature",
   "geometry": {
    "type": "Point",
    "coordinates": [
     0.0004372331452006994,
     0.000240093190885008
    ]
   },
   "properties": {
    "classname": "info_player_teamspawn",
    "team": "2",
    "targetname": "spawn_red_first",
    "hx": 2555.0,
    "hy": 1403.0,
    "hz": -176.0
   }
  },
  {
   "type": "Feature",
   "geometry": {
    "type": "Point",
    "coordinates": [
     0.00045263470412999307,
     0.00019115045917216962
    ]
   },
   "properties": {
    "classname": "info_player_teamspawn",
    "team": "2",
    "targetname": "spawn_red_first",
    "hx": 2645.0,
    "hy": 1117.0,
    "hz": -176.0
   }
  },
  {
   "type": "Feature",
   "geometry": {
    "type": "Point",
    "coordinates": [
     0.00041532870583188845,
     0.00021818875151702438
    ]
   },
   "properties": {
    "classname": "info_player_teamspawn",
    "team": "2",
    "targetname": "spawn_red_first",
    "hx": 2427.0,
    "hy": 1275.0,
    "hz": -176.0
   }
  },
  {
   "type": "Feature",
   "geometry": {
    "type": "Point",
    "coordinates": [
     0.0004372331452014318,
     0.00026199763025299165
    ]
   },
   "properties": {
    "classname": "info_player_teamspawn",
    "team": "2",
    "targetname": "spawn_red_first",
    "hx": 2555.0,
    "hy": 1531.0,
    "hz": -176.0
   }
  },
  {
   "type": "Feature",
   "geometry": {
    "type": "Point",
    "coordinates": [
     0.0003934242664650066,
     0.00026199763025299165
    ]
   },
   "properties": {
    "classname": "info_player_teamspawn",
    "team": "2",
    "targetname": "spawn_red_first",
    "hx": 2299.0,
    "hy": 1531.0,
    "hz": -176.0
   }
  },
  {
   "type": "Feature",
   "geometry": {
    "type": "Point",
    "coordinates": [
     -0.0005178346369516398,
     0.0004764215562536438
    ]
   },
   "properties": {
    "classname": "info_player_teamspawn",
    "team": "3",
    "targetname": "spawn_blue_first",
    "hx": -3026.0,
    "hy": 2784.0,
    "hz": -422.0
   }
  },
  {
   "type": "Feature",
   "geometry": {
    "type": "Point",
    "coordinates": [
     -0.0005342629664781954,
     0.0004764215562536438
    ]
   },
   "properties": {
    "classname": "info_player_teamspawn",
    "team": "3",
    "targetname": "spawn_blue_first",
    "hx": -3122.0,
    "hy": 2784.0,
    "hz": -422.0
   }
  },
  {
   "type": "Feature",
   "geometry": {
    "type": "Point",
    "coordinates": [
     -0.0005479532410836585,
     0.0004764215562536438
    ]
   },
   "properties": {
    "classname": "info_player_teamspawn",
    "team": "3",
    "targetname": "spawn_blue_first",
    "hx": -3202.0,
    "hy": 2784.0,
    "hz": -422.0
   }
  },
  {
   "type": "Feature",
   "geometry": {
    "type": "Point",
    "coordinates": [
     -0.0005613012588235139,
     0.00047060318954652316
    ]
   },
   "properties": {
    "classname": "info_player_teamspawn",
    "team": "3",
    "targetname": "spawn_blue_first",
    "hx": -3280.0,
    "hy": 2750.0,
    "hz": -422.0
   }
  },
  {
   "type": "Feature",
   "geometry": {
    "type": "Point",
    "coordinates": [
     -0.000561301258822215,
     0.0004541748600205355
    ]
   },
   "properties": {
    "classname": "info_player_teamspawn",
    "team": "3",
    "targetname": "spawn_blue_first",
    "hx": -3280.0,
    "hy": 2654.0,
    "hz": -422.0
   }
  },
  {
   "type": "Feature",
   "geometry": {
    "type": "Point",
    "coordinates": [
     -0.0005479532410819566,
     0.0004545171168856602
    ]
   },
   "properties": {
    "classname": "info_player_teamspawn",
    "team": "3",
    "targetname": "spawn_blue_first",
    "hx": -3202.0,
    "hy": 2656.0,
    "hz": -422.0
   }
  },
  {
   "type": "Feature",
   "geometry": {
    "type": "Point",
    "coordinates": [
     -0.000534262966476536,
     0.0004545171168856602
    ]
   },
   "properties": {
    "classname": "info_player_teamspawn",
    "team": "3",
    "targetname": "spawn_blue_first",
    "hx": -3122.0,
    "hy": 2656.0,
    "hz": -422.0
   }
  },
  {
   "type": "Feature",
   "geometry": {
    "type": "Point",
    "coordinates": [
     -0.0005178346369500315,
     0.0004545171168856602
    ]
   },
   "properties": {
    "classname": "info_player_teamspawn",
    "team": "3",
    "targetname": "spawn_blue_first",
    "hx": -3026.0,
    "hy": 2656.0,
    "hz": -422.0
   }
  },
  {
   "type": "Feature",
   "geometry": {
    "type": "Point",
    "coordinates": [
     -0.0005178346369490647,
     0.0004408268422806704
    ]
   },
   "properties": {
    "classname": "info_player_teamspawn",
    "team": "3",
    "targetname": "spawn_blue_first",
    "hx": -3026.0,
    "hy": 2576.0,
    "hz": -422.0
   }
  },
  {
   "type": "Feature",
   "geometry": {
    "type": "Point",
    "coordinates": [
     -0.0005342629664755386,
     0.0004408268422806704
    ]
   },
   "properties": {
    "classname": "info_player_teamspawn",
    "team": "3",
    "targetname": "spawn_blue_first",
    "hx": -3122.0,
    "hy": 2576.0,
    "hz": -422.0
   }
  },
  {
   "type": "Feature",
   "geometry": {
    "type": "Point",
    "coordinates": [
     -0.0005479532410809335,
     0.0004408268422806704
    ]
   },
   "properties": {
    "classname": "info_player_teamspawn",
    "team": "3",
    "targetname": "spawn_blue_first",
    "hx": -3202.0,
    "hy": 2576.0,
    "hz": -422.0
   }
  },
  {
   "type": "Feature",
   "geometry": {
    "type": "Point",
    "coordinates": [
     -0.0005613012588211679,
     0.0004404845854155457
    ]
   },
   "properties": {
    "classname": "info_player_teamspawn",
    "team": "3",
    "targetname": "spawn_blue_first",
    "hx": -3280.0,
    "hy": 2574.0,
    "hz": -422.0
   }
  },
  {
   "type": "Feature",
   "geometry": {
    "type": "Point",
    "coordinates": [
     -0.0005174923800829702,
     0.00042679431081055593
    ]
   },
   "properties": {
    "classname": "info_player_teamspawn",
    "team": "3",
    "targetname": "spawn_blue_first",
    "hx": -3024.0,
    "hy": 2494.0,
    "hz": -430.0
   }
  },
  {
   "type": "Feature",
   "geometry": {
    "type": "Point",
    "coordinates": [
     -0.0005325516821489716,
     0.0004281633382710549
    ]
   },
   "properties": {
    "classname": "info_player_teamspawn",
    "team": "3",
    "targetname": "spawn_blue_first",
    "hx": -3112.0,
    "hy": 2502.0,
    "hz": -422.0
   }
  },
  {
   "type": "Feature",
   "geometry": {
    "type": "Point",
    "coordinates": [
     -0.0005503490391356619,
     0.00042405625588955794
    ]
   },
   "properties": {
    "classname": "info_player_teamspawn",
    "team": "3",
    "targetname": "spawn_blue_first",
    "hx": -3216.0,
    "hy": 2478.0,
    "hz": -422.0
   }
  },
  {
   "type": "Feature",
   "geometry": {
    "type": "Point",
    "coordinates": [
     -0.0005640393137410267,
     0.00042405625588955794
    ]
   },
   "properties": {
    "classname": "info_player_teamspawn",
    "team": "",
    "targetname": "spawn_blue_first",
    "hx": -3296.0,
    "hy": 2478.0,
    "hz": -422.0
   }
  },
  {
   "type": "Feature",
   "geometry": {
    "type": "Point",
    "coordinates": [
     -3.6963741434757575e-05,
     0.0004777905837141428
    ]
   },
   "properties": {
    "classname": "team_control_point",
    "team": "",
    "targetname": "cap_red_1",
    "hx": -216.0,
    "hy": 2792.0,
    "hz": -242.415
   }
  },
  {
   "type": "Feature",
   "geometry": {
    "type": "Point",
    "coordinates": [
     0.0003953066792233704,
     -0.00026696035479730043
    ]
   },
   "properties": {
    "classname": "team_control_point",
    "team": "",
    "targetname": "cap_red_3",
    "hx": 2310.0,
    "hy": -1560.0,
    "hz": 7.58536
   }
  },
  {
   "type": "Feature",
   "geometry": {
    "type": "Point",
    "coordinates": [
     -0.0002649068136111842,
     -0.0003388342964734967
    ]
   },
   "properties": {
    "classname": "team_control_point",
    "team": "",
    "targetname": "cap_red_4",
    "hx": -1548.0,
    "hy": -1980.0,
    "hz": -42.414
   }
  },
  {
   "type": "Feature",
   "geometry": {
    "type": "Point",
    "coordinates": [
     -0.0003176143708363428,
     0.00010952219683991812
    ]
   },
   "properties": {
    "classname": "team_control_point",
    "team": "",
    "targetname": "cap_red_5",
    "hx": -1856.0,
    "hy": 640.0,
    "hz": 5.58536
   }
  },
  {
   "type": "Feature",
   "geometry": {
    "type": "Point",
    "coordinates": [
     9.30938673141362e-05,
     0.00012047441652390994
    ]
   },
   "properties": {
    "classname": "team_control_point",
    "team": "",
    "targetname": "cap_red_6",
    "hx": 544.0,
    "hy": 704.0,
    "hz": 5.58536
   }
  },
  {
   "type": "Feature",
   "geometry": {
    "type": "Point",
    "coordinates": [
     5.613012588046034e-05,
     -1.642832952598772e-05
    ]
   },
   "properties": {
    "classname": "item_ammopack_medium",
    "team": "0",
    "targetname": "",
    "hx": 328.0,
    "hy": -96.0,
    "hz": 0.0
   }
  },
  {
   "type": "Feature",
   "geometry": {
    "type": "Point",
    "coordinates": [
     0.00039017282625193405,
     0.0004045476145774476
    ]
   },
   "properties": {
    "classname": "team_control_point",
    "team": "",
    "targetname": "cap_red_2",
    "hx": 2280.0,
    "hy": 2364.0,
    "hz": -140.414
   }
  },
  {
   "type": "Feature",
   "geometry": {
    "type": "Point",
    "coordinates": [
     0.0004230294852991112,
     -0.00027654354702079327
    ]
   },
   "properties": {
    "classname": "info_player_teamspawn",
    "team": "3",
    "targetname": "spawn_blue_second_b",
    "hx": 2472.0,
    "hy": -1616.0,
    "hz": -124.0
   }
  },
  {
   "type": "Feature",
   "geometry": {
    "type": "Point",
    "coordinates": [
     0.00039291088116778295,
     -0.00027654354702079327
    ]
   },
   "properties": {
    "classname": "info_player_teamspawn",
    "team": "3",
    "targetname": "spawn_blue_second_b",
    "hx": 2296.0,
    "hy": -1616.0,
    "hz": -124.0
   }
  },
  {
   "type": "Feature",
   "geometry": {
    "type": "Point",
    "coordinates": [
     0.0004107801120961927,
     -0.0002776610156854255
    ]
   },
   "properties": {
    "classname": "info_player_teamspawn",
    "team": "3",
    "targetname": "spawn_blue_second_b",
    "hx": 2400.42,
    "hy": -1622.53,
    "hz": -124.0
   }
  },
  {
   "type": "Feature",
   "geometry": {
    "type": "Point",
    "coordinates": [
     0.000440931230629726,
     -0.00027805974493329586
    ]
   },
   "properties": {
    "classname": "info_player_teamspawn",
    "team": "3",
    "targetname": "spawn_blue_second_b",
    "hx": 2576.61,
    "hy": -1624.86,
    "hz": -124.0
   }
  },
  {
   "type": "Feature",
   "geometry": {
    "type": "Point",
    "coordinates": [
     0.0004298746226008332,
     -0.0002519010527318117
    ]
   },
   "properties": {
    "classname": "info_player_teamspawn",
    "team": "3",
    "targetname": "spawn_blue_second_b",
    "hx": 2512.0,
    "hy": -1472.0,
    "hz": -124.0
   }
  },
  {
   "type": "Feature",
   "geometry": {
    "type": "Point",
    "coordinates": [
     0.0004150668793312589,
     -0.00025782723035144665
    ]
   },
   "properties": {
    "classname": "info_player_teamspawn",
    "team": "3",
    "targetname": "spawn_blue_second_b",
    "hx": 2425.47,
    "hy": -1506.63,
    "hz": -124.0
   }
  },
  {
   "type": "Feature",
   "geometry": {
    "type": "Point",
    "coordinates": [
     0.0003942799086276833,
     -0.0002573771625738076
    ]
   },
   "properties": {
    "classname": "info_player_teamspawn",
    "team": "3",
    "targetname": "spawn_blue_second_b",
    "hx": 2304.0,
    "hy": -1504.0,
    "hz": -124.0
   }
  },
  {
   "type": "Feature",
   "geometry": {
    "type": "Point",
    "coordinates": [
     0.00042576754021898946,
     -0.00024231786050831885
    ]
   },
   "properties": {
    "classname": "info_player_teamspawn",
    "team": "3",
    "targetname": "spawn_blue_second_b",
    "hx": 2488.0,
    "hy": -1416.0,
    "hz": -124.0
   }
  },
  {
   "type": "Feature",
   "geometry": {
    "type": "Point",
    "coordinates": [
     0.00040386310085131625,
     -0.00025874619003430656
    ]
   },
   "properties": {
    "classname": "info_player_teamspawn",
    "team": "3",
    "targetname": "spawn_blue_second_b",
    "hx": 2360.0,
    "hy": -1512.0,
    "hz": -124.0
   }
  },
  {
   "type": "Feature",
   "geometry": {
    "type": "Point",
    "coordinates": [
     0.0004408268422848847,
     -0.0002505320252713127
    ]
   },
   "properties": {
    "classname": "info_player_teamspawn",
    "team": "3",
    "targetname": "spawn_blue_second_b",
    "hx": 2576.0,
    "hy": -1464.0,
    "hz": -124.0
   }
  },
  {
   "type": "Feature",
   "geometry": {
    "type": "Point",
    "coordinates": [
     0.0004285055951406889,
     -0.0002628532724158035
    ]
   },
   "properties": {
    "classname": "info_player_teamspawn",
    "team": "3",
    "targetname": "spawn_blue_second_b",
    "hx": 2504.0,
    "hy": -1536.0,
    "hz": -124.0
   }
  },
  {
   "type": "Feature",
   "geometry": {
    "type": "Point",
    "coordinates": [
     0.0004312436500620526,
     -0.0002724364646392963
    ]
   },
   "properties": {
    "classname": "info_player_teamspawn",
    "team": "3",
    "targetname": "spawn_blue_second_b",
    "hx": 2520.0,
    "hy": -1592.0,
    "hz": -124.0
   }
  },
  {
   "type": "Feature",
   "geometry": {
    "type": "Point",
    "coordinates": [
     0.00040249407339120353,
     -0.00027106743717879734
    ]
   },
   "properties": {
    "classname": "info_player_teamspawn",
    "team": "3",
    "targetname": "spawn_blue_second_b",
    "hx": 2352.0,
    "hy": -1584.0,
    "hz": -124.0
   }
  },
  {
   "type": "Feature",
   "geometry": {
    "type": "Point",
    "coordinates": [
     0.00041755337545676684,
     -0.0002683293822577994
    ]
   },
   "properties": {
    "classname": "info_player_teamspawn",
    "team": "3",
    "targetname": "spawn_blue_second_b",
    "hx": 2440.0,
    "hy": -1568.0,
    "hz": -124.0
   }
  },
  {
   "type": "Feature",
   "geometry": {
    "type": "Point",
    "coordinates": [
     0.00043808878736359045,
     -0.00024231786050831885
    ]
   },
   "properties": {
    "classname": "info_player_teamspawn",
    "team": "3",
    "targetname": "spawn_blue_second_b",
    "hx": 2560.0,
    "hy": -1416.0,
    "hz": -124.0
   }
  },
  {
   "type": "Feature",
   "geometry": {
    "type": "Point",
    "coordinates": [
     0.0004409312306292434,
     -0.00026482467195892203
    ]
   },
   "properties": {
    "classname": "info_player_teamspawn",
    "team": "3",
    "targetname": "spawn_blue_second_b",
    "hx": 2576.61,
    "hy": -1547.52,
    "hz": -124.0
   }
  },
  {
   "type": "Feature",
   "geometry": {
    "type": "Point",
    "coordinates": [
     -0.0003352405994008393,
     0.00046735174932783813
    ]
   },
   "properties": {
    "classname": "item_ammopack_full",
    "team": "0",
    "targetname": "",
    "hx": -1959.0,
    "hy": 2731.0,
    "hz": -256.0
   }
  },
  {
   "type": "Feature",
   "geometry": {
    "type": "Point",
    "coordinates": [
     -6.845137302720768e-06,
     0.000465469336569652
    ]
   },
   "properties": {
    "classname": "item_ammopack_full",
    "team": "0",
    "targetname": "",
    "hx": -40.0,
    "hy": 2720.0,
    "hz": -248.0
   }
  },
  {
   "type": "Feature",
   "geometry": {
    "type": "Point",
    "coordinates": [
     -0.0002532700801963289,
     0.0003227482238126337
    ]
   },
   "properties": {
    "classname": "item_ammopack_full",
    "team": "0",
    "targetname": "",
    "hx": -1480.0,
    "hy": 1886.0,
    "hz": -248.0
   }
  },
  {
   "type": "Feature",
   "geometry": {
    "type": "Point",
    "coordinates": [
     0.00011226025176267078,
     0.0003203524257567605
    ]
   },
   "properties": {
    "classname": "item_ammopack_medium",
    "team": "0",
    "targetname": "",
    "hx": 656.0,
    "hy": 1872.0,
    "hz": -253.0
   }
  },
  {
   "type": "Feature",
   "geometry": {
    "type": "Point",
    "coordinates": [
     0.00023769739283895867,
     0.0005209149487198606
    ]
   },
   "properties": {
    "classname": "item_ammopack_medium",
    "team": "0",
    "targetname": "",
    "hx": 1389.0,
    "hy": 3044.0,
    "hz": -59.0
   }
  },
  {
   "type": "Feature",
   "geometry": {
    "type": "Point",
    "coordinates": [
     0.0003367807552930282,
     0.0004476719795831653
    ]
   },
   "properties": {
    "classname": "item_ammopack_small",
    "team": "0",
    "targetname": "",
    "hx": 1968.0,
    "hy": 2616.0,
    "hz": -187.0
   }
  },
  {
   "type": "Feature",
   "geometry": {
    "type": "Point",
    "coordinates": [
     0.0002519010527338533,
     0.00023068112709407755
    ]
   },
   "properties": {
    "classname": "item_ammopack_small",
    "team": "0",
    "targetname": "",
    "hx": 1472.0,
    "hy": 1348.0,
    "hz": 5.0
   }
  },
  {
   "type": "Feature",
   "geometry": {
    "type": "Point",
    "coordinates": [
     0.00030905794920804886,
     -9.275161044880566e-05
    ]
   },
   "properties": {
    "classname": "item_ammopack_medium",
    "team": "0",
    "targetname": "",
    "hx": 1806.0,
    "hy": -542.0,
    "hz": -192.0
   }
  },
  {
   "type": "Feature",
   "geometry": {
    "type": "Point",
    "coordinates": [
     0.00028458658335160034,
     -9.30938673139304e-05
    ]
   },
   "properties": {
    "classname": "item_ammopack_medium",
    "team": "0",
    "targetname": "",
    "hx": 1663.0,
    "hy": -544.0,
    "hz": -192.0
   }
  },
  {
   "type": "Feature",
   "geometry": {
    "type": "Point",
    "coordinates": [
     0.0003942799086256147,
     -0.0001783158267299917
    ]
   },
   "properties": {
    "classname": "item_ammopack_medium",
    "team": "0",
    "targetname": "",
    "hx": 2304.0,
    "hy": -1042.0,
    "hz": -128.0
   }
  },
  {
   "type": "Feature",
   "geometry": {
    "type": "Point",
    "coordinates": [
     0.0003908573399736646,
     -0.00014237885589189354
    ]
   },
   "properties": {
    "classname": "item_ammopack_medium",
    "team": "0",
    "targetname": "",
    "hx": 2284.0,
    "hy": -832.0,
    "hz": 0.0
   }
  },
  {
   "type": "Feature",
   "geometry": {
    "type": "Point",
    "coordinates": [
     0.00021904439368349818,
     -0.0003313046454407523
    ]
   },
   "properties": {
    "classname": "item_ammopack_full",
    "team": "0",
    "targetname": "",
    "hx": 1280.0,
    "hy": -1936.0,
    "hz": -128.0
   }
  },
  {
   "type": "Feature",
   "geometry": {
    "type": "Point",
    "coordinates": [
     -0.00010473060072945274,
     -0.0002833886843232881
    ]
   },
   "properties": {
    "classname": "item_ammopack_medium",
    "team": "0",
    "targetname": "",
    "hx": -612.0,
    "hy": -1656.0,
    "hz": 0.0
   }
  },
  {
   "type": "Feature",
   "geometry": {
    "type": "Point",
    "coordinates": [
     -0.0001492239931962137,
     -0.0002833886843232881
    ]
   },
   "properties": {
    "classname": "item_ammopack_medium",
    "team": "0",
    "targetname": "",
    "hx": -872.0,
    "hy": -1656.0,
    "hz": 0.0
   }
  },
  {
   "type": "Feature",
   "geometry": {
    "type": "Point",
    "coordinates": [
     -0.00020295832102094547,
     -0.00025258556646206117
    ]
   },
   "properties": {
    "classname": "item_ammopack_medium",
    "team": "0",
    "targetname": "",
    "hx": -1186.0,
    "hy": -1476.0,
    "hz": -112.0
   }
  },
  {
   "type": "Feature",
   "geometry": {
    "type": "Point",
    "coordinates": [
     -0.00034612950155371136,
     -3.913536124268886e-05
    ]
   },
   "properties": {
    "classname": "item_ammopack_full",
    "team": "0",
    "targetname": "",
    "hx": -2022.63,
    "hy": -228.69,
    "hz": 48.0
   }
  },
  {
   "type": "Feature",
   "geometry": {
    "type": "Point",
    "coordinates": [
     -0.00016222975406913334,
     -1.3690274604989765e-05
    ]
   },
   "properties": {
    "classname": "item_ammopack_medium",
    "team": "0",
    "targetname": "",
    "hx": -948.0,
    "hy": -80.0,
    "hz": 128.0
   }
  },
  {
   "type": "Feature",
   "geometry": {
    "type": "Point",
    "coordinates": [
     -0.00019166384447034016,
     -0.0001286885812869038
    ]
   },
   "properties": {
    "classname": "item_ammopack_medium",
    "team": "0",
    "targetname": "",
    "hx": -1120.0,
    "hy": -752.0,
    "hz": 192.0
   }
  },
  {
   "type": "Feature",
   "geometry": {
    "type": "Point",
    "coordinates": [
     5.749915334101415e-05,
     -8.077262016943961e-05
    ]
   },
   "properties": {
    "classname": "item_ammopack_full",
    "team": "0",
    "targetname": "",
    "hx": 336.0,
    "hy": -472.0,
    "hz": 128.0
   }
  },
  {
   "type": "Feature",
   "geometry": {
    "type": "Point",
    "coordinates": [
     0.00016291426779948092,
     -6.43442906434519e-05
    ]
   },
   "properties": {
    "classname": "item_ammopack_full",
    "team": "0",
    "targetname": "",
    "hx": 952.0,
    "hy": -376.0,
    "hz": 144.0
   }
  },
  {
   "type": "Feature",
   "geometry": {
    "type": "Point",
    "coordinates": [
     4.757370425380271e-05,
     0.000449383263908789
    ]
   },
   "properties": {
    "classname": "item_healthkit_full",
    "team": "",
    "targetname": "",
    "hx": 278.0,
    "hy": 2626.0,
    "hz": -60.469
   }
  },
  {
   "type": "Feature",
   "geometry": {
    "type": "Point",
    "coordinates": [
     -1.3519146172873517e-05,
     0.000465469336569652
    ]
   },
   "properties": {
    "classname": "item_healthkit_full",
    "team": "0",
    "targetname": "",
    "hx": -79.0,
    "hy": 2720.0,
    "hz": -248.0
   }
  },
  {
   "type": "Feature",
   "geometry": {
    "type": "Point",
    "coordinates": [
     -0.0003360962415639846,
     0.0004736835013326459
    ]
   },
   "properties": {
    "classname": "item_healthkit_full",
    "team": "0",
    "targetname": "",
    "hx": -1964.0,
    "hy": 2768.0,
    "hz": -256.0
   }
  },
  {
   "type": "Feature",
   "geometry": {
    "type": "Point",
    "coordinates": [
     -0.0002532700801965012,
     0.00032959336111512856
    ]
   },
   "properties": {
    "classname": "item_healthkit_full",
    "team": "0",
    "targetname": "",
    "hx": -1480.0,
    "hy": 1926.0,
    "hz": -248.0
   }
  },
  {
   "type": "Feature",
   "geometry": {
    "type": "Point",
    "coordinates": [
     0.00010695527035315612,
     0.00032052355418932287
    ]
   },
   "properties": {
    "classname": "item_healthkit_medium",
    "team": "0",
    "targetname": "",
    "hx": 625.0,
    "hy": 1873.0,
    "hz": -253.0
   }
  },
  {
   "type": "Feature",
   "geometry": {
    "type": "Point",
    "coordinates": [
     3.696374143436743e-05,
     0.0003987292478703269
    ]
   },
   "properties": {
    "classname": "item_ammopack_small",
    "team": "",
    "targetname": "",
    "hx": 216.0,
    "hy": 2330.0,
    "hz": -263.469
   }
  },
  {
   "type": "Feature",
   "geometry": {
    "type": "Point",
    "coordinates": [
     0.00023769739283875324,
     0.0005154388388778646
    ]
   },
   "properties": {
    "classname": "item_healthkit_medium",
    "team": "0",
    "targetname": "",
    "hx": 1389.0,
    "hy": 3012.0,
    "hz": -59.0
   }
  },
  {
   "type": "Feature",
   "geometry": {
    "type": "Point",
    "coordinates": [
     0.0003410589661072181,
     0.0004476719795831653
    ]
   },
   "properties": {
    "classname": "item_healthkit_small",
    "team": "0",
    "targetname": "",
    "hx": 1993.0,
    "hy": 2616.0,
    "hz": -185.0
   }
  },
  {
   "type": "Feature",
   "geometry": {
    "type": "Point",
    "coordinates": [
     0.0002529278233291665,
     0.00022674517314514298
    ]
   },
   "properties": {
    "classname": "item_healthkit_small",
    "team": "0",
    "targetname": "",
    "hx": 1478.0,
    "hy": 1325.0,
    "hz": 7.0
   }
  },
  {
   "type": "Feature",
   "geometry": {
    "type": "Point",
    "coordinates": [
     0.0003157319580779886,
     -9.258048201624328e-05
    ]
   },
   "properties": {
    "classname": "item_healthkit_full",
    "team": "0",
    "targetname": "",
    "hx": 1845.0,
    "hy": -541.0,
    "hz": -192.0
   }
  },
  {
   "type": "Feature",
   "geometry": {
    "type": "Point",
    "coordinates": [
     0.0002779125744816537,
     -9.240935358368092e-05
    ]
   },
   "properties": {
    "classname": "item_healthkit_full",
    "team": "0",
    "targetname": "",
    "hx": 1624.0,
    "hy": -540.0,
    "hz": -192.0
   }
  },
  {
   "type": "Feature",
   "geometry": {
    "type": "Point",
    "coordinates": [
     0.00039736022041105484,
     -0.00014237885589189354
    ]
   },
   "properties": {
    "classname": "item_healthkit_full",
    "team": "0",
    "targetname": "",
    "hx": 2322.0,
    "hy": -832.0,
    "hz": 0.0
   }
  },
  {
   "type": "Feature",
   "geometry": {
    "type": "Point",
    "coordinates": [
     0.00039427990862549926,
     -0.0001728397168879958
    ]
   },
   "properties": {
    "classname": "item_healthkit_medium",
    "team": "0",
    "targetname": "",
    "hx": 2304.0,
    "hy": -1010.0,
    "hz": -128.0
   }
  },
  {
   "type": "Feature",
   "geometry": {
    "type": "Point",
    "coordinates": [
     0.0003622788917405482,
     -0.00032993561798025335
    ]
   },
   "properties": {
    "classname": "item_healthkit_full",
    "team": "",
    "targetname": "",
    "hx": 2117.0,
    "hy": -1928.0,
    "hz": -128.316
   }
  },
  {
   "type": "Feature",
   "geometry": {
    "type": "Point",
    "coordinates": [
     0.0003566316534658963,
     -0.00032993561798025335
    ]
   },
   "properties": {
    "classname": "item_ammopack_small",
    "team": "",
    "targetname": "",
    "hx": 2084.0,
    "hy": -1928.0,
    "hz": -123.316
   }
  },
  {
   "type": "Feature",
   "geometry": {
    "type": "Point",
    "coordinates": [
     0.0002193866505487509,
     -0.0003367807552827482
    ]
   },
   "properties": {
    "classname": "item_healthkit_medium",
    "team": "0",
    "targetname": "",
    "hx": 1282.0,
    "hy": -1968.0,
    "hz": -128.0
   }
  },
  {
   "type": "Feature",
   "geometry": {
    "type": "Point",
    "coordinates": [
     -0.00014306336962389296,
     -0.0002833886843232881
    ]
   },
   "properties": {
    "classname": "item_healthkit_medium",
    "team": "0",
    "targetname": "",
    "hx": -836.0,
    "hy": -1656.0,
    "hz": 0.0
   }
  },
  {
   "type": "Feature",
   "geometry": {
    "type": "Point",
    "coordinates": [
     -0.0001098644537063867,
     -0.0002833886843232881
    ]
   },
   "properties": {
    "classname": "item_healthkit_medium",
    "team": "0",
    "targetname": "",
    "hx": -642.0,
    "hy": -1656.0,
    "hz": 0.0
   }
  },
  {
   "type": "Feature",
   "geometry": {
    "type": "Point",
    "coordinates": [
     -0.00020295832102104283,
     -0.00025874619003430656
    ]
   },
   "properties": {
    "classname": "item_healthkit_small",
    "team": "0",
    "targetname": "",
    "hx": -1186.0,
    "hy": -1512.0,
    "hz": -105.0
   }
  },
  {
   "type": "Feature",
   "geometry": {
    "type": "Point",
    "coordinates": [
     -0.0003461295015536928,
     -3.434376513094245e-05
    ]
   },
   "properties": {
    "classname": "item_healthkit_small",
    "team": "0",
    "targetname": "",
    "hx": -2022.63,
    "hy": -200.69,
    "hz": 55.0
   }
  },
  {
   "type": "Feature",
   "geometry": {
    "type": "Point",
    "coordinates": [
     -0.00016633683645063039,
     -1.3690274604989765e-05
    ]
   },
   "properties": {
    "classname": "item_healthkit_small",
    "team": "0",
    "targetname": "",
    "hx": -972.0,
    "hy": -80.0,
    "hz": 135.0
   }
  },
  {
   "type": "Feature",
   "geometry": {
    "type": "Point",
    "coordinates": [
     -0.00018584547776320483,
     -0.0001286885812869038
    ]
   },
   "properties": {
    "classname": "item_healthkit_small",
    "team": "0",
    "targetname": "",
    "hx": -1086.0,
    "hy": -752.0,
    "hz": 199.0
   }
  },
  {
   "type": "Feature",
   "geometry": {
    "type": "Point",
    "coordinates": [
     5.339207095951773e-05,
     -8.419518882068705e-05
    ]
   },
   "properties": {
    "classname": "item_healthkit_small",
    "team": "0",
    "targetname": "",
    "hx": 312.0,
    "hy": -492.0,
    "hz": 135.0
   }
  },
  {
   "type": "Feature",
   "geometry": {
    "type": "Point",
    "coordinates": [
     1.4374788335344302e-05,
     0.00021904439367983623
    ]
   },
   "properties": {
    "classname": "info_player_teamspawn",
    "team": "2",
    "targetname": "spawn_red_third",
    "hx": 84.0,
    "hy": 1280.0,
    "hz": 82.0
   }
  },
  {
   "type": "Feature",
   "geometry": {
    "type": "Point",
    "coordinates": [
     1.43747883353322e-05,
     0.00020603863280509594
    ]
   },
   "properties": {
    "classname": "info_player_teamspawn",
    "team": "2",
    "targetname": "spawn_red_third",
    "hx": 84.0,
    "hy": 1204.0,
    "hz": 82.0
   }
  },
  {
   "type": "Feature",
   "geometry": {
    "type": "Point",
    "coordinates": [
     -0.00014977348659199846,
     -0.00016909251760017754
    ]
   },
   "properties": {
    "classname": "item_healthkit_full",
    "team": "",
    "targetname": "",
    "hx": -875.211,
    "hy": -988.103,
    "hz": -46.7307
   }
  },
  {
   "type": "Feature",
   "geometry": {
    "type": "Point",
    "coordinates": [
     -0.00017523551494971992,
     -0.00046820739149064995
    ]
   },
   "properties": {
    "classname": "item_healthkit_full",
    "team": "",
    "targetname": "",
    "hx": -1024.0,
    "hy": -2736.0,
    "hz": -123.567
   }
  },
  {
   "type": "Feature",
   "geometry": {
    "type": "Point",
    "coordinates": [
     0.00016291426779950155,
     -7.050491421569729e-05
    ]
   },
   "properties": {
    "classname": "item_healthkit_medium",
    "team": "0",
    "targetname": "",
    "hx": 952.0,
    "hy": -412.0,
    "hz": 144.0
   }
  },
  {
   "type": "Feature",
   "geometry": {
    "type": "Point",
    "coordinates": [
     -8.299728979279685e-05,
     -6.057946512707971e-05
    ]
   },
   "properties": {
    "classname": "item_healthkit_medium",
    "team": "0",
    "targetname": "",
    "hx": -485.0,
    "hy": -354.0,
    "hz": 144.0
   }
  }
 ]
}
