{
 "type": "FeatureCollection",
 "note": "pseudo-WGS84 via crs.local_to_wgs84 ((0,0)m maps to (0,0)deg); viewing only, not survey",
 "features": [
  {
   "type": "Feature",
   "geometry": {
    "type": "Point",
    "coordinates": [
     -1.2321247146060273e-05,
     0.0009145103436133163
    ]
   },
   "properties": {
    "classname": "info_player_teamspawn",
    "team": "2",
    "targetname": "spawn_red_1",
    "hx": -72.0,
    "hy": 5344.0,
    "hz": -80.0
   }
  },
  {
   "type": "Feature",
   "geometry": {
    "type": "Point",
    "coordinates": [
     -1.3690325945263412e-06,
     0.0009145103436133163
    ]
   },
   "properties": {
    "classname": "info_player_teamspawn",
    "team": "2",
    "targetname": "spawn_red_1",
    "hx": -8.00003,
    "hy": 5344.0,
    "hz": -80.0
   }
  },
  {
   "type": "Feature",
   "geometry": {
    "type": "Point",
    "coordinates": [
     9.583192224713545e-06,
     0.0009145103436133163
    ]
   },
   "properties": {
    "classname": "info_player_teamspawn",
    "team": "2",
    "targetname": "spawn_red_1",
    "hx": 56.0,
    "hy": 5344.0,
    "hz": -80.0
   }
  },
  {
   "type": "Feature",
   "geometry": {
    "type": "Point",
    "coordinates": [
     2.0535411910100452e-05,
     0.0009145103436133163
    ]
   },
   "properties": {
    "classname": "info_player_teamspawn",
    "team": "2",
    "targetname": "spawn_red_1",
    "hx": 120.0,
    "hy": 5344.0,
    "hz": -80.0
   }
  },
  {
   "type": "Feature",
   "geometry": {
    "type": "Point",
    "coordinates": [
     -1.2321247146117168e-05,
     0.000930938673139304
    ]
   },
   "properties": {
    "classname": "info_player_teamspawn",
    "team": "2",
    "targetname": "spawn_red_1",
    "hx": -72.0,
    "hy": 5440.0,
    "hz": -80.0
   }
  },
  {
   "type": "Feature",
   "geometry": {
    "type": "Point",
    "coordinates": [
     -1.3690308832483368e-06,
     0.000930938673139304
    ]
   },
   "properties": {
    "classname": "info_player_teamspawn",
    "team": "2",
    "targetname": "spawn_red_1",
    "hx": -8.00002,
    "hy": 5440.0,
    "hz": -80.0
   }
  },
  {
   "type": "Feature",
   "geometry": {
    "type": "Point",
    "coordinates": [
     9.583192224757795e-06,
     0.000930938673139304
    ]
   },
   "properties": {
    "classname": "info_player_teamspawn",
    "team": "2",
    "targetname": "spawn_red_1",
    "hx": 56.0,
    "hy": 5440.0,
    "hz": -80.0
   }
  },
  {
   "type": "Feature",
   "geometry": {
    "type": "Point",
    "coordinates": [
     2.0535411910195276e-05,
     0.000930938673139304
    ]
   },
   "properties": {
    "classname": "info_player_teamspawn",
    "team": "2",
    "targetname": "spawn_red_1",
    "hx": 120.0,
    "hy": 5440.0,
    "hz": -80.0
   }
  },
  {
   "type": "Feature",
   "geometry": {
    "type": "Point",
    "coordinates": [
     9.583192224802835e-06,
     0.0009473670026652918
    ]
   },
   "properties": {
    "classname": "info_player_teamspawn",
    "team": "2",
    "targetname": "spawn_red_1",
    "hx": 56.0,
    "hy": 5536.0,
    "hz": -80.0
   }
  },
  {
   "type": "Feature",
   "geometry": {
    "type": "Point",
    "coordinates": [
     -1.3690291719704454e-06,
     0.0009473670026652918
    ]
   },
   "properties": {
    "classname": "info_player_teamspawn",
    "team": "2",
    "targetname": "spawn_red_1",
    "hx": -8.00001,
    "hy": 5536.0,
    "hz": -80.0
   }
  },
  {
   "type": "Feature",
   "geometry": {
    "type": "Point",
    "coordinates": [
     -1.2321247146175076e-05,
     0.0009473670026652918
    ]
   },
   "properties": {
    "classname": "info_player_teamspawn",
    "team": "2",
    "targetname": "spawn_red_1",
    "hx": -72.0,
    "hy": 5536.0,
    "hz": -80.0
   }
  },
  {
   "type": "Feature",
   "geometry": {
    "type": "Point",
    "coordinates": [
     2.0535411910291794e-05,
     0.0009473670026652918
    ]
   },
   "properties": {
    "classname": "info_player_teamspawn",
    "team": "2",
    "targetname": "spawn_red_1",
    "hx": 120.0,
    "hy": 5536.0,
    "hz": -80.0
   }
  },
  {
   "type": "Feature",
   "geometry": {
    "type": "Point",
    "coordinates": [
     2.0535411910389995e-05,
     0.0009637953321912795
    ]
   },
   "properties": {
    "classname": "info_player_teamspawn",
    "team": "2",
    "targetname": "spawn_red_1",
    "hx": 120.0,
    "hy": 5632.0,
    "hz": -80.0
   }
  },
  {
   "type": "Feature",
   "geometry": {
    "type": "Point",
    "coordinates": [
     9.583192224848663e-06,
     0.0009637953321912795
    ]
   },
   "properties": {
    "classname": "info_player_teamspawn",
    "team": "2",
    "targetname": "spawn_red_1",
    "hx": 56.0,
    "hy": 5632.0,
    "hz": -80.0
   }
  },
  {
   "type": "Feature",
   "geometry": {
    "type": "Point",
    "coordinates": [
     -1.3690274606926663e-06,
     0.0009637953321912795
    ]
   },
   "properties": {
    "classname": "info_player_teamspawn",
    "team": "2",
    "targetname": "spawn_red_1",
    "hx": -8.0,
    "hy": 5632.0,
    "hz": -80.0
   }
  },
  {
   "type": "Feature",
   "geometry": {
    "type": "Point",
    "coordinates": [
     -1.2321247146233998e-05,
     0.0009637953321912795
    ]
   },
   "properties": {
    "classname": "info_player_teamspawn",
    "team": "2",
    "targetname": "spawn_red_1",
    "hx": -72.0,
    "hy": 5632.0,
    "hz": -80.0
   }
  },
  {
   "type": "Feature",
   "geometry": {
    "type": "Point",
    "coordinates": [
     5.476109842412124e-06,
     0.0007064181696174719
    ]
   },
   "properties": {
    "classname": "team_control_point",
    "team": "",
    "targetname": "cap_red_1",
    "hx": 32.0,
    "hy": 4128.0,
    "hz": -83.75
   }
  },
  {
   "type": "Feature",
   "geometry": {
    "type": "Point",
    "coordinates": [
     3.2856659052433536e-05,
     0.0003025550687702738
    ]
   },
   "properties": {
    "classname": "team_control_point",
    "team": "",
    "targetname": "cap_red_2",
    "hx": 192.0,
    "hy": 1768.0,
    "hz": -35.75
   }
  },
  {
   "type": "Feature",
   "geometry": {
    "type": "Point",
    "coordinates": [
     -0.00015333107557961737,
     0.00039975601846570116
    ]
   },
   "properties": {
    "classname": "info_player_teamspawn",
    "team": "2",
    "targetname": "spawn_red_2",
    "hx": -896.0,
    "hy": 2336.0,
    "hz": 8.0
   }
  },
  {
   "type": "Feature",
   "geometry": {
    "type": "Point",
    "coordinates": [
     -0.000142378855895359,
     0.00039975601846570116
    ]
   },
   "properties": {
    "classname": "info_player_teamspawn",
    "team": "2",
    "targetname": "spawn_red_2",
    "hx": -832.0,
    "hy": 2336.0,
    "hz": 8.0
   }
  },
  {
   "type": "Feature",
   "geometry": {
    "type": "Point",
    "coordinates": [
     -0.00013142663621110062,
     0.00039975601846570116
    ]
   },
   "properties": {
    "classname": "info_player_teamspawn",
    "team": "2",
    "targetname": "spawn_red_2",
    "hx": -768.0,
    "hy": 2336.0,
    "hz": 8.0
   }
  },
  {
   "type": "Feature",
   "geometry": {
    "type": "Point",
    "coordinates": [
     -0.00012047441652684223,
     0.00039975601846570116
    ]
   },
   "properties": {
    "classname": "info_player_teamspawn",
    "team": "2",
    "targetname": "spawn_red_2",
    "hx": -704.0,
    "hy": 2336.0,
    "hz": 8.0
   }
  },
  {
   "type": "Feature",
   "geometry": {
    "type": "Point",
    "coordinates": [
     -0.00015333107557931693,
     0.0003833276889397134
    ]
   },
   "properties": {
    "classname": "info_player_teamspawn",
    "team": "2",
    "targetname": "spawn_red_2",
    "hx": -896.0,
    "hy": 2240.0,
    "hz": 8.0
   }
  },
  {
   "type": "Feature",
   "geometry": {
    "type": "Point",
    "coordinates": [
     -0.00014237885589508001,
     0.0003833276889397134
    ]
   },
   "properties": {
    "classname": "info_player_teamspawn",
    "team": "2",
    "targetname": "spawn_red_2",
    "hx": -832.0,
    "hy": 2240.0,
    "hz": 8.0
   }
  },
  {
   "type": "Feature",
   "geometry": {
    "type": "Point",
    "coordinates": [
     -0.0001314266362108431,
     0.0003833276889397134
    ]
   },
   "properties": {
    "classname": "info_player_teamspawn",
    "team": "2",
    "targetname": "spawn_red_2",
    "hx": -768.0,
    "hy": 2240.0,
    "hz": 8.0
   }
  },
  {
   "type": "Feature",
   "geometry": {
    "type": "Point",
    "coordinates": [
     -0.00012047441652660617,
     0.0003833276889397134
    ]
   },
   "properties": {
    "classname": "info_player_teamspawn",
    "team": "2",
    "targetname": "spawn_red_2",
    "hx": -704.0,
    "hy": 2240.0,
    "hz": 8.0
   }
  },
  {
   "type": "Feature",
   "geometry": {
    "type": "Point",
    "coordinates": [
     -0.00015333107557879887,
     0.00035320908480873593
    ]
   },
   "properties": {
    "classname": "info_player_teamspawn",
    "team": "2",
    "targetname": "spawn_red_2",
    "hx": -896.0,
    "hy": 2064.0,
    "hz": 8.0
   }
  },
  {
   "type": "Feature",
   "geometry": {
    "type": "Point",
    "coordinates": [
     -0.00014237885589459898,
     0.00035320908480873593
    ]
   },
   "properties": {
    "classname": "info_player_teamspawn",
    "team": "2",
    "targetname": "spawn_red_2",
    "hx": -832.0,
    "hy": 2064.0,
    "hz": 8.0
   }
  },
  {
   "type": "Feature",
   "geometry": {
    "type": "Point",
    "coordinates": [
     -0.00013142663621039906,
     0.00035320908480873593
    ]
   },
   "properties": {
    "classname": "info_player_teamspawn",
    "team": "2",
    "targetname": "spawn_red_2",
    "hx": -768.0,
    "hy": 2064.0,
    "hz": 8.0
   }
  },
  {
   "type": "Feature",
   "geometry": {
    "type": "Point",
    "coordinates": [
     -0.00012047441652619914,
     0.00035320908480873593
    ]
   },
   "properties": {
    "classname": "info_player_teamspawn",
    "team": "2",
    "targetname": "spawn_red_2",
    "hx": -704.0,
    "hy": 2064.0,
    "hz": 8.0
   }
  },
  {
   "type": "Feature",
   "geometry": {
    "type": "Point",
    "coordinates": [
     -0.00012047441652641703,
     0.0003696374143347237
    ]
   },
   "properties": {
    "classname": "info_player_teamspawn",
    "team": "2",
    "targetname": "spawn_red_2",
    "hx": -704.0,
    "hy": 2160.0,
    "hz": 8.0
   }
  },
  {
   "type": "Feature",
   "geometry": {
    "type": "Point",
    "coordinates": [
     -0.00013142663621063677,
     0.0003696374143347237
    ]
   },
   "properties": {
    "classname": "info_player_teamspawn",
    "team": "2",
    "targetname": "spawn_red_2",
    "hx": -768.0,
    "hy": 2160.0,
    "hz": 8.0
   }
  },
  {
   "type": "Feature",
   "geometry": {
    "type": "Point",
    "coordinates": [
     -0.00014237885589485648,
     0.0003696374143347237
    ]
   },
   "properties": {
    "classname": "info_player_teamspawn",
    "team": "2",
    "targetname": "spawn_red_2",
    "hx": -832.0,
    "hy": 2160.0,
    "hz": 8.0
   }
  },
  {
   "type": "Feature",
   "geometry": {
    "type": "Point",
    "coordinates": [
     -0.00015333107557907621,
     0.0003696374143347237
    ]
   },
   "properties": {
    "classname": "info_player_teamspawn",
    "team": "2",
    "targetname": "spawn_red_2",
    "hx": -896.0,
    "hy": 2160.0,
    "hz": 8.0
   }
  },
  {
   "type": "Feature",
   "geometry": {
    "type": "Point",
    "coordinates": [
     -4.360352461694339e-07,
     -8.76177574719345e-05
    ]
   },
   "properties": {
    "classname": "team_control_point",
    "team": "",
    "targetname": "cap_center",
    "hx": -2.548,
    "hy": -512.0,
    "hz": -75.75
   }
  },
  {
   "type": "Feature",
   "geometry": {
    "type": "Point",
    "coordinates": [
     -1.779735698650816e-05,
     8.898678493243347e-05
    ]
   },
   "properties": {
    "classname": "info_player_teamspawn",
    "team": "2",
    "targetname": "spawn_red_3",
    "hx": -104.0,
    "hy": 520.0,
    "hz": 8.0
   }
  },
  {
   "type": "Feature",
   "geometry": {
    "type": "Point",
    "coordinates": [
     4.1070823815018835e-06,
     8.898678493243347e-05
    ]
   },
   "properties": {
    "classname": "info_player_teamspawn",
    "team": "2",
    "targetname": "spawn_red_3",
    "hx": 24.0,
    "hy": 520.0,
    "hz": 8.0
   }
  },
  {
   "type": "Feature",
   "geometry": {
    "type": "Point",
    "coordinates": [
     -6.8451373025031375e-06,
     8.898678493243347e-05
    ]
   },
   "properties": {
    "classname": "info_player_teamspawn",
    "team": "2",
    "targetname": "spawn_red_3",
    "hx": -40.0,
    "hy": 520.0,
    "hz": 8.0
   }
  },
  {
   "type": "Feature",
   "geometry": {
    "type": "Point",
    "coordinates": [
     1.5059302065506904e-05,
     8.898678493243347e-05
    ]
   },
   "properties": {
    "classname": "info_player_teamspawn",
    "team": "2",
    "targetname": "spawn_red_3",
    "hx": 88.0,
    "hy": 520.0,
    "hz": 8.0
   }
  },
  {
   "type": "Feature",
   "geometry": {
    "type": "Point",
    "coordinates": [
     -1.7797356986502065e-05,
     7.529651032744371e-05
    ]
   },
   "properties": {
    "classname": "info_player_teamspawn",
    "team": "2",
    "targetname": "spawn_red_3",
    "hx": -104.0,
    "hy": 440.0,
    "hz": 8.0
   }
  },
  {
   "type": "Feature",
   "geometry": {
    "type": "Point",
    "coordinates": [
     -6.845137302500794e-06,
     7.529651032744371e-05
    ]
   },
   "properties": {
    "classname": "info_player_teamspawn",
    "team": "2",
    "targetname": "spawn_red_3",
    "hx": -40.0,
    "hy": 440.0,
    "hz": 8.0
   }
  },
  {
   "type": "Feature",
   "geometry": {
    "type": "Point",
    "coordinates": [
     4.107082381500477e-06,
     7.529651032744371e-05
    ]
   },
   "properties": {
    "classname": "info_player_teamspawn",
    "team": "2",
    "targetname": "spawn_red_3",
    "hx": 24.0,
    "hy": 440.0,
    "hz": 8.0
   }
  },
  {
   "type": "Feature",
   "geometry": {
    "type": "Point",
    "coordinates": [
     1.5059302065501746e-05,
     7.529651032744371e-05
    ]
   },
   "properties": {
    "classname": "info_player_teamspawn",
    "team": "2",
    "targetname": "spawn_red_3",
    "hx": 88.0,
    "hy": 440.0,
    "hz": 8.0
   }
  },
  {
   "type": "Feature",
   "geometry": {
    "type": "Point",
    "coordinates": [
     -1.7797356986497447e-05,
     6.297526318295293e-05
    ]
   },
   "properties": {
    "classname": "info_player_teamspawn",
    "team": "2",
    "targetname": "spawn_red_3",
    "hx": -104.0,
    "hy": 368.0,
    "hz": 8.0
   }
  },
  {
   "type": "Feature",
   "geometry": {
    "type": "Point",
    "coordinates": [
     4.107082381499411e-06,
     6.297526318295293e-05
    ]
   },
   "properties": {
    "classname": "info_player_teamspawn",
    "team": "2",
    "targetname": "spawn_red_3",
    "hx": 24.0,
    "hy": 368.0,
    "hz": 8.0
   }
  },
  {
   "type": "Feature",
   "geometry": {
    "type": "Point",
    "coordinates": [
     -6.8451373024990175e-06,
     6.297526318295293e-05
    ]
   },
   "properties": {
    "classname": "info_player_teamspawn",
    "team": "2",
    "targetname": "spawn_red_3",
    "hx": -40.0,
    "hy": 368.0,
    "hz": 8.0
   }
  },
  {
   "type": "Feature",
   "geometry": {
    "type": "Point",
    "coordinates": [
     1.505930206549784e-05,
     6.297526318295293e-05
    ]
   },
   "properties": {
    "classname": "info_player_teamspawn",
    "team": "2",
    "targetname": "spawn_red_3",
    "hx": 88.0,
    "hy": 368.0,
    "hz": 8.0
   }
  },
  {
   "type": "Feature",
   "geometry": {
    "type": "Point",
    "coordinates": [
     -1.7797356986492568e-05,
     4.65469336569652e-05
    ]
   },
   "properties": {
    "classname": "info_player_teamspawn",
    "team": "2",
    "targetname": "spawn_red_3",
    "hx": -104.0,
    "hy": 272.0,
    "hz": 8.0
   }
  },
  {
   "type": "Feature",
   "geometry": {
    "type": "Point",
    "coordinates": [
     -6.8451373024971405e-06,
     4.65469336569652e-05
    ]
   },
   "properties": {
    "classname": "info_player_teamspawn",
    "team": "2",
    "targetname": "spawn_red_3",
    "hx": -40.0,
    "hy": 272.0,
    "hz": 8.0
   }
  },
  {
   "type": "Feature",
   "geometry": {
    "type": "Point",
    "coordinates": [
     4.107082381498285e-06,
     4.65469336569652e-05
    ]
   },
   "properties": {
    "classname": "info_player_teamspawn",
    "team": "2",
    "targetname": "spawn_red_3",
    "hx": 24.0,
    "hy": 272.0,
    "hz": 8.0
   }
  },
  {
   "type": "Feature",
   "geometry": {
    "type": "Point",
    "coordinates": [
     1.5059302065493711e-05,
     4.65469336569652e-05
    ]
   },
   "properties": {
    "classname": "info_player_teamspawn",
    "team": "2",
    "targetname": "spawn_red_3",
    "hx": 88.0,
    "hy": 272.0,
    "hz": 8.0
   }
  },
  {
   "type": "Feature",
   "geometry": {
    "type": "Point",
    "coordinates": [
     5.4761098420364265e-06,
     -0.0002204134211403352
    ]
   },
   "properties": {
    "classname": "info_player_teamspawn",
    "team": "3",
    "targetname": "spawn_blue_3",
    "hx": 32.0,
    "hy": -1288.0,
    "hz": 8.0
   }
  },
  {
   "type": "Feature",
   "geometry": {
    "type": "Point",
    "coordinates": [
     1.642832952610928e-05,
     -0.0002204134211403352
    ]
   },
   "properties": {
    "classname": "info_player_teamspawn",
    "team": "3",
    "targetname": "spawn_blue_3",
    "hx": 96.0,
    "hy": -1288.0,
    "hz": 8.0
   }
  },
  {
   "type": "Feature",
   "geometry": {
    "type": "Point",
    "coordinates": [
     1.6428329526128077e-05,
     -0.00023684175066632294
    ]
   },
   "properties": {
    "classname": "info_player_teamspawn",
    "team": "3",
    "targetname": "spawn_blue_3",
    "hx": 96.0,
    "hy": -1384.0,
    "hz": 8.0
   }
  },
  {
   "type": "Feature",
   "geometry": {
    "type": "Point",
    "coordinates": [
     5.476109842042691e-06,
     -0.00023684175066632294
    ]
   },
   "properties": {
    "classname": "info_player_teamspawn",
    "team": "3",
    "targetname": "spawn_blue_3",
    "hx": 32.0,
    "hy": -1384.0,
    "hz": 8.0
   }
  },
  {
   "type": "Feature",
   "geometry": {
    "type": "Point",
    "coordinates": [
     -5.476109842042691e-06,
     -0.00023684175066632294
    ]
   },
   "properties": {
    "classname": "info_player_teamspawn",
    "team": "3",
    "targetname": "spawn_blue_3",
    "hx": -32.0,
    "hy": -1384.0,
    "hz": 8.0
   }
  },
  {
   "type": "Feature",
   "geometry": {
    "type": "Point",
    "coordinates": [
     -1.6428329526128077e-05,
     -0.00023684175066632294
    ]
   },
   "properties": {
    "classname": "info_player_teamspawn",
    "team": "3",
    "targetname": "spawn_blue_3",
    "hx": -96.0,
    "hy": -1384.0,
    "hz": 8.0
   }
  },
  {
   "type": "Feature",
   "geometry": {
    "type": "Point",
    "coordinates": [
     -5.4761098420364265e-06,
     -0.0002204134211403352
    ]
   },
   "properties": {
    "classname": "info_player_teamspawn",
    "team": "3",
    "targetname": "spawn_blue_3",
    "hx": -32.0,
    "hy": -1288.0,
    "hz": 8.0
   }
  },
  {
   "type": "Feature",
   "geometry": {
    "type": "Point",
    "coordinates": [
     -1.642832952610928e-05,
     -0.0002204134211403352
    ]
   },
   "properties": {
    "classname": "info_player_teamspawn",
    "team": "3",
    "targetname": "spawn_blue_3",
    "hx": -96.0,
    "hy": -1288.0,
    "hz": 8.0
   }
  },
  {
   "type": "Feature",
   "geometry": {
    "type": "Point",
    "coordinates": [
     1.6428329526144774e-05,
     -0.0002505320252713127
    ]
   },
   "properties": {
    "classname": "info_player_teamspawn",
    "team": "3",
    "targetname": "spawn_blue_3",
    "hx": 96.0,
    "hy": -1464.0,
    "hz": 8.0
   }
  },
  {
   "type": "Feature",
   "geometry": {
    "type": "Point",
    "coordinates": [
     1.6428329526162406e-05,
     -0.00026422229987630244
    ]
   },
   "properties": {
    "classname": "info_player_teamspawn",
    "team": "3",
    "targetname": "spawn_blue_3",
    "hx": 96.0,
    "hy": -1544.0,
    "hz": 8.0
   }
  },
  {
   "type": "Feature",
   "geometry": {
    "type": "Point",
    "coordinates": [
     5.476109842054135e-06,
     -0.00026422229987630244
    ]
   },
   "properties": {
    "classname": "info_player_teamspawn",
    "team": "3",
    "targetname": "spawn_blue_3",
    "hx": 32.0,
    "hy": -1544.0,
    "hz": 8.0
   }
  },
  {
   "type": "Feature",
   "geometry": {
    "type": "Point",
    "coordinates": [
     5.476109842048257e-06,
     -0.0002505320252713127
    ]
   },
   "properties": {
    "classname": "info_player_teamspawn",
    "team": "3",
    "targetname": "spawn_blue_3",
    "hx": 32.0,
    "hy": -1464.0,
    "hz": 8.0
   }
  },
  {
   "type": "Feature",
   "geometry": {
    "type": "Point",
    "coordinates": [
     -5.476109842054135e-06,
     -0.00026422229987630244
    ]
   },
   "properties": {
    "classname": "info_player_teamspawn",
    "team": "3",
    "targetname": "spawn_blue_3",
    "hx": -32.0,
    "hy": -1544.0,
    "hz": 8.0
   }
  },
  {
   "type": "Feature",
   "geometry": {
    "type": "Point",
    "coordinates": [
     -5.476109842048257e-06,
     -0.0002505320252713127
    ]
   },
   "properties": {
    "classname": "info_player_teamspawn",
    "team": "3",
    "targetname": "spawn_blue_3",
    "hx": -32.0,
    "hy": -1464.0,
    "hz": 8.0
   }
  },
  {
   "type": "Feature",
   "geometry": {
    "type": "Point",
    "coordinates": [
     -1.6428329526162406e-05,
     -0.00026422229987630244
    ]
   },
   "properties": {
    "classname": "info_player_teamspawn",
    "team": "3",
    "targetname": "spawn_blue_3",
    "hx": -96.0,
    "hy": -1544.0,
    "hz": 8.0
   }
  },
  {
   "type": "Feature",
   "geometry": {
    "type": "Point",
    "coordinates": [
     -1.6428329526144774e-05,
     -0.0002505320252713127
    ]
   },
   "properties": {
    "classname": "info_player_teamspawn",
    "team": "3",
    "targetname": "spawn_blue_3",
    "hx": -96.0,
    "hy": -1464.0,
    "hz": 8.0
   }
  },
  {
   "type": "Feature",
   "geometry": {
    "type": "Point",
    "coordinates": [
     0.0001519620481226075,
     -0.0005585632038835824
    ]
   },
   "properties": {
    "classname": "info_player_teamspawn",
    "team": "3",
    "targetname": "spawn_blue_2",
    "hx": 888.0,
    "hy": -3264.0,
    "hz": 8.0
   }
  },
  {
   "type": "Feature",
   "geometry": {
    "type": "Point",
    "coordinates": [
     0.00015196204812225787,
     -0.0005448729292785926
    ]
   },
   "properties": {
    "classname": "info_player_teamspawn",
    "team": "3",
    "targetname": "spawn_blue_2",
    "hx": 888.0,
    "hy": -3184.0,
    "hz": 8.0
   }
  },
  {
   "type": "Feature",
   "geometry": {
    "type": "Point",
    "coordinates": [
     0.00015196204812292958,
     -0.0005708844510280732
    ]
   },
   "properties": {
    "classname": "info_player_teamspawn",
    "team": "3",
    "targetname": "spawn_blue_2",
    "hx": 888.0,
    "hy": -3336.0,
    "hz": 8.0
   }
  },
  {
   "type": "Feature",
   "geometry": {
    "type": "Point",
    "coordinates": [
     0.00014100982843839413,
     -0.0005708844510280732
    ]
   },
   "properties": {
    "classname": "info_player_teamspawn",
    "team": "3",
    "targetname": "spawn_blue_2",
    "hx": 824.0,
    "hy": -3336.0,
    "hz": 8.0
   }
  },
  {
   "type": "Feature",
   "geometry": {
    "type": "Point",
    "coordinates": [
     0.00014100982843809527,
     -0.0005585632038835824
    ]
   },
   "properties": {
    "classname": "info_player_teamspawn",
    "team": "3",
    "targetname": "spawn_blue_2",
    "hx": 824.0,
    "hy": -3264.0,
    "hz": 8.0
   }
  },
  {
   "type": "Feature",
   "geometry": {
    "type": "Point",
    "coordinates": [
     0.00014100982843777082,
     -0.0005448729292785926
    ]
   },
   "properties": {
    "classname": "info_player_teamspawn",
    "team": "3",
    "targetname": "spawn_blue_2",
    "hx": 824.0,
    "hy": -3184.0,
    "hz": 8.0
   }
  },
  {
   "type": "Feature",
   "geometry": {
    "type": "Point",
    "coordinates": [
     0.00015196204812191689,
     -0.0005311826546736028
    ]
   },
   "properties": {
    "classname": "info_player_teamspawn",
    "team": "3",
    "targetname": "spawn_blue_2",
    "hx": 888.0,
    "hy": -3104.0,
    "hz": 8.0
   }
  },
  {
   "type": "Feature",
   "geometry": {
    "type": "Point",
    "coordinates": [
     0.00014100982843745442,
     -0.0005311826546736028
    ]
   },
   "properties": {
    "classname": "info_player_teamspawn",
    "team": "3",
    "targetname": "spawn_blue_2",
    "hx": 824.0,
    "hy": -3104.0,
    "hz": 8.0
   }
  },
  {
   "type": "Feature",
   "geometry": {
    "type": "Point",
    "coordinates": [
     0.00013005760875299194,
     -0.0005311826546736028
    ]
   },
   "properties": {
    "classname": "info_player_teamspawn",
    "team": "3",
    "targetname": "spawn_blue_2",
    "hx": 760.0,
    "hy": -3104.0,
    "hz": 8.0
   }
  },
  {
   "type": "Feature",
   "geometry": {
    "type": "Point",
    "coordinates": [
     0.00011910538906852946,
     -0.0005311826546736028
    ]
   },
   "properties": {
    "classname": "info_player_teamspawn",
    "team": "3",
    "targetname": "spawn_blue_2",
    "hx": 696.0,
    "hy": -3104.0,
    "hz": 8.0
   }
  },
  {
   "type": "Feature",
   "geometry": {
    "type": "Point",
    "coordinates": [
     0.00011910538906879672,
     -0.0005448729292785926
    ]
   },
   "properties": {
    "classname": "info_player_teamspawn",
    "team": "3",
    "targetname": "spawn_blue_2",
    "hx": 696.0,
    "hy": -3184.0,
    "hz": 8.0
   }
  },
  {
   "type": "Feature",
   "geometry": {
    "type": "Point",
    "coordinates": [
     0.00013005760875328378,
     -0.0005448729292785926
    ]
   },
   "properties": {
    "classname": "info_player_teamspawn",
    "team": "3",
    "targetname": "spawn_blue_2",
    "hx": 760.0,
    "hy": -3184.0,
    "hz": 8.0
   }
  },
  {
   "type": "Feature",
   "geometry": {
    "type": "Point",
    "coordinates": [
     0.00013005760875385867,
     -0.0005708844510280732
    ]
   },
   "properties": {
    "classname": "info_player_teamspawn",
    "team": "3",
    "targetname": "spawn_blue_2",
    "hx": 760.0,
    "hy": -3336.0,
    "hz": 8.0
   }
  },
  {
   "type": "Feature",
   "geometry": {
    "type": "Point",
    "coordinates": [
     0.00013005760875358302,
     -0.0005585632038835824
    ]
   },
   "properties": {
    "classname": "info_player_teamspawn",
    "team": "3",
    "targetname": "spawn_blue_2",
    "hx": 760.0,
    "hy": -3264.0,
    "hz": 8.0
   }
  },
  {
   "type": "Feature",
   "geometry": {
    "type": "Point",
    "coordinates": [
     0.00011910538906907076,
     -0.0005585632038835824
    ]
   },
   "properties": {
    "classname": "info_player_teamspawn",
    "team": "3",
    "targetname": "spawn_blue_2",
    "hx": 696.0,
    "hy": -3264.0,
    "hz": 8.0
   }
  },
  {
   "type": "Feature",
   "geometry": {
    "type": "Point",
    "coordinates": [
     0.0001191053890693232,
     -0.0005708844510280732
    ]
   },
   "properties": {
    "classname": "info_player_teamspawn",
    "team": "3",
    "targetname": "spawn_blue_2",
    "hx": 696.0,
    "hy": -3336.0,
    "hz": 8.0
   }
  },
  {
   "type": "Feature",
   "geometry": {
    "type": "Point",
    "coordinates": [
     1.095221968595292e-05,
     -0.0010842697487151894
    ]
   },
   "properties": {
    "classname": "info_player_teamspawn",
    "team": "3",
    "targetname": "spawn_blue_1",
    "hx": 64.0,
    "hy": -6336.0,
    "hz": -80.0
   }
  },
  {
   "type": "Feature",
   "geometry": {
    "type": "Point",
    "coordinates": [
     1.0952219686012797e-05,
     -0.001100698078241177
    ]
   },
   "properties": {
    "classname": "info_player_teamspawn",
    "team": "3",
    "targetname": "spawn_blue_1",
    "hx": 64.0,
    "hy": -6432.0,
    "hz": -80.0
   }
  },
  {
   "type": "Feature",
   "geometry": {
    "type": "Point",
    "coordinates": [
     1.0952219686073577e-05,
     -0.0011171264077671648
    ]
   },
   "properties": {
    "classname": "info_player_teamspawn",
    "team": "3",
    "targetname": "spawn_blue_1",
    "hx": 64.0,
    "hy": -6528.0,
    "hz": -80.0
   }
  },
  {
   "type": "Feature",
   "geometry": {
    "type": "Point",
    "coordinates": [
     1.0952219686135255e-05,
     -0.0011335547372931525
    ]
   },
   "properties": {
    "classname": "info_player_teamspawn",
    "team": "3",
    "targetname": "spawn_blue_1",
    "hx": 64.0,
    "hy": -6624.0,
    "hz": -80.0
   }
  },
  {
   "type": "Feature",
   "geometry": {
    "type": "Point",
    "coordinates": [
     5.0592238684208455e-12,
     -0.0011335547372931525
    ]
   },
   "properties": {
    "classname": "info_player_teamspawn",
    "team": "3",
    "targetname": "spawn_blue_1",
    "hx": 2.95639e-05,
    "hy": -6624.0,
    "hz": -80.0
   }
  },
  {
   "type": "Feature",
   "geometry": {
    "type": "Point",
    "coordinates": [
     3.427223345264574e-12,
     -0.0011171264077671648
    ]
   },
   "properties": {
    "classname": "info_player_teamspawn",
    "team": "3",
    "targetname": "spawn_blue_1",
    "hx": 2.00272e-05,
    "hy": -6528.0,
    "hz": -80.0
   }
  },
  {
   "type": "Feature",
   "geometry": {
    "type": "Point",
    "coordinates": [
     1.6320073682560265e-12,
     -0.001100698078241177
    ]
   },
   "properties": {
    "classname": "info_player_teamspawn",
    "team": "3",
    "targetname": "spawn_blue_1",
    "hx": 9.53674e-06,
    "hy": -6432.0,
    "hz": -80.0
   }
  },
  {
   "type": "Feature",
   "geometry": {
    "type": "Point",
    "coordinates": [
     0.0,
     -0.0010842697487151894
    ]
   },
   "properties": {
    "classname": "info_player_teamspawn",
    "team": "3",
    "targetname": "spawn_blue_1",
    "hx": 0.0,
    "hy": -6336.0,
    "hz": -80.0
   }
  },
  {
   "type": "Feature",
   "geometry": {
    "type": "Point",
    "coordinates": [
     -1.095221968595292e-05,
     -0.0010842697487151894
    ]
   },
   "properties": {
    "classname": "info_player_teamspawn",
    "team": "3",
    "targetname": "spawn_blue_1",
    "hx": -64.0,
    "hy": -6336.0,
    "hz": -80.0
   }
  },
  {
   "type": "Feature",
   "geometry": {
    "type": "Point",
    "coordinates": [
     -1.0952219686012797e-05,
     -0.001100698078241177
    ]
   },
   "properties": {
    "classname": "info_player_teamspawn",
    "team": "3",
    "targetname": "spawn_blue_1",
    "hx": -64.0,
    "hy": -6432.0,
    "hz": -80.0
   }
  },
  {
   "type": "Feature",
   "geometry": {
    "type": "Point",
    "coordinates": [
     -1.0952219686073577e-05,
     -0.0011171264077671648
    ]
   },
   "properties": {
    "classname": "info_player_teamspawn",
    "team": "3",
    "targetname": "spawn_blue_1",
    "hx": -64.0,
    "hy": -6528.0,
    "hz": -80.0
   }
  },
  {
   "type": "Feature",
   "geometry": {
    "type": "Point",
    "coordinates": [
     -1.0952219686135255e-05,
     -0.0011335547372931525
    ]
   },
   "properties": {
    "classname": "info_player_teamspawn",
    "team": "3",
    "targetname": "spawn_blue_1",
    "hx": -64.0,
    "hy": -6624.0,
    "hz": -80.0
   }
  },
  {
   "type": "Feature",
   "geometry": {
    "type": "Point",
    "coordinates": [
     -2.190443937227051e-05,
     -0.0011335547372931525
    ]
   },
   "properties": {
    "classname": "info_player_teamspawn",
    "team": "3",
    "targetname": "spawn_blue_1",
    "hx": -128.0,
    "hy": -6624.0,
    "hz": -80.0
   }
  },
  {
   "type": "Feature",
   "geometry": {
    "type": "Point",
    "coordinates": [
     -2.1904439372147154e-05,
     -0.0011171264077671648
    ]
   },
   "properties": {
    "classname": "info_player_teamspawn",
    "team": "3",
    "targetname": "spawn_blue_1",
    "hx": -128.0,
    "hy": -6528.0,
    "hz": -80.0
   }
  },
  {
   "type": "Feature",
   "geometry": {
    "type": "Point",
    "coordinates": [
     -2.1904439372025595e-05,
     -0.001100698078241177
    ]
   },
   "properties": {
    "classname": "info_player_teamspawn",
    "team": "3",
    "targetname": "spawn_blue_1",
    "hx": -128.0,
    "hy": -6432.0,
    "hz": -80.0
   }
  },
  {
   "type": "Feature",
   "geometry": {
    "type": "Point",
    "coordinates": [
     -2.190443937190584e-05,
     -0.0010842697487151894
    ]
   },
   "properties": {
    "classname": "info_player_teamspawn",
    "team": "3",
    "targetname": "spawn_blue_1",
    "hx": -128.0,
    "hy": -6336.0,
    "hz": -80.0
   }
  },
  {
   "type": "Feature",
   "geometry": {
    "type": "Point",
    "coordinates": [
     -8.214164763964838e-06,
     -0.0008809691708310914
    ]
   },
   "properties": {
    "classname": "team_control_point",
    "team": "",
    "targetname": "cap_blue_1",
    "hx": -48.0,
    "hy": -5148.0,
    "hz": -84.0
   }
  },
  {
   "type": "Feature",
   "geometry": {
    "type": "Point",
    "coordinates": [
     -3.285665905312441e-05,
     -0.00047915961117464176
    ]
   },
   "properties": {
    "classname": "team_control_point",
    "team": "",
    "targetname": "cap_blue_2",
    "hx": -192.0,
    "hy": -2800.0,
    "hz": -36.0
   }
  },
  {
   "type": "Feature",
   "geometry": {
    "type": "Point",
    "coordinates": [
     4.9284988580786864e-05,
     0.0006133243023035414
    ]
   },
   "properties": {
    "classname": "item_ammopack_medium",
    "team": "",
    "targetname": "",
    "hx": 288.0,
    "hy": 3584.0,
    "hz": 152.256
   }
  },
  {
   "type": "Feature",
   "geometry": {
    "type": "Point",
    "coordinates": [
     4.928498858088861e-05,
     0.0006242765219875333
    ]
   },
   "properties": {
    "classname": "item_healthkit_medium",
    "team": "",
    "targetname": "",
    "hx": 288.0,
    "hy": 3648.0,
    "hz": 152.256
   }
  },
  {
   "type": "Feature",
   "geometry": {
    "type": "Point",
    "coordinates": [
     1.5059302066651155e-05,
     -0.0007118942794594677
    ]
   },
   "properties": {
    "classname": "item_ammopack_medium",
    "team": "",
    "targetname": "",
    "hx": 88.0,
    "hy": -4160.0,
    "hz": -151.744
   }
  },
  {
   "type": "Feature",
   "geometry": {
    "type": "Point",
    "coordinates": [
     6.845137303023252e-06,
     -0.0007118942794594677
    ]
   },
   "properties": {
    "classname": "item_healthkit_small",
    "team": "",
    "targetname": "",
    "hx": 40.0,
    "hy": -4160.0,
    "hz": -151.744
   }
  },
  {
   "type": "Feature",
   "geometry": {
    "type": "Point",
    "coordinates": [
     -1.505930206615608e-05,
     0.0005393968194365967
    ]
   },
   "properties": {
    "classname": "item_ammopack_medium",
    "team": "",
    "targetname": "",
    "hx": -88.0,
    "hy": 3152.0,
    "hz": -151.744
   }
  },
  {
   "type": "Feature",
   "geometry": {
    "type": "Point",
    "coordinates": [
     -6.845137302798218e-06,
     0.0005393968194365967
    ]
   },
   "properties": {
    "classname": "item_healthkit_small",
    "team": "",
    "targetname": "",
    "hx": -40.0,
    "hy": 3152.0,
    "hz": -151.744
   }
  },
  {
   "type": "Feature",
   "geometry": {
    "type": "Point",
    "coordinates": [
     0.00014374788335591533,
     0.00040112504592620013
    ]
   },
   "properties": {
    "classname": "item_ammopack_medium",
    "team": "",
    "targetname": "",
    "hx": 840.0,
    "hy": 2344.0,
    "hz": -215.744
   }
  },
  {
   "type": "Feature",
   "geometry": {
    "type": "Point",
    "coordinates": [
     0.0001547001030401755,
     0.00040112504592620013
    ]
   },
   "properties": {
    "classname": "item_healthkit_medium",
    "team": "",
    "targetname": "",
    "hx": 904.0,
    "hy": 2344.0,
    "hz": -215.744
   }
  },
  {
   "type": "Feature",
   "geometry": {
    "type": "Point",
    "coordinates": [
     -0.00015606913050477973,
     -0.0005763605608700692
    ]
   },
   "properties": {
    "classname": "item_ammopack_medium",
    "team": "",
    "targetname": "",
    "hx": -912.0,
    "hy": -3368.0,
    "hz": -215.744
   }
  },
  {
   "type": "Feature",
   "geometry": {
    "type": "Point",
    "coordinates": [
     -0.0001451169108202338,
     -0.0005763605608700692
    ]
   },
   "properties": {
    "classname": "item_healthkit_medium",
    "team": "",
    "targetname": "",
    "hx": -848.0,
    "hy": -3368.0,
    "hz": -215.744
   }
  },
  {
   "type": "Feature",
   "geometry": {
    "type": "Point",
    "coordinates": [
     4.51779061984278e-05,
     -0.0005339207095946009
    ]
   },
   "properties": {
    "classname": "item_ammopack_medium",
    "team": "",
    "targetname": "",
    "hx": 264.0,
    "hy": -3120.0,
    "hz": 0.256157
   }
  },
  {
   "type": "Feature",
   "geometry": {
    "type": "Point",
    "coordinates": [
     5.476109842233672e-05,
     -0.0005339207095946009
    ]
   },
   "properties": {
    "classname": "item_healthkit_medium",
    "team": "",
    "targetname": "",
    "hx": 320.0,
    "hy": -3120.0,
    "hz": 0.256157
   }
  },
  {
   "type": "Feature",
   "geometry": {
    "type": "Point",
    "coordinates": [
     -5.464301980256144e-05,
     0.0003586304335523118
    ]
   },
   "properties": {
    "classname": "item_ammopack_medium",
    "team": "",
    "targetname": "",
    "hx": -319.31,
    "hy": 2095.68,
    "hz": 0.256157
   }
  },
  {
   "type": "Feature",
   "geometry": {
    "type": "Point",
    "coordinates": [
     -4.5059827578880875e-05,
     0.0003586304335523118
    ]
   },
   "properties": {
    "classname": "item_healthkit_medium",
    "team": "",
    "targetname": "",
    "hx": -263.31,
    "hy": 2095.68,
    "hz": 0.256157
   }
  },
  {
   "type": "Feature",
   "geometry": {
    "type": "Point",
    "coordinates": [
     -9.993900461687106e-05,
     0.00017112843256237206
    ]
   },
   "properties": {
    "classname": "item_ammopack_medium",
    "team": "",
    "targetname": "",
    "hx": -584.0,
    "hy": 1000.0,
    "hz": 0.256157
   }
  },
  {
   "type": "Feature",
   "geometry": {
    "type": "Point",
    "coordinates": [
     -9.993900461692238e-05,
     0.0001807116247858649
    ]
   },
   "properties": {
    "classname": "item_healthkit_medium",
    "team": "",
    "targetname": "",
    "hx": -584.0,
    "hy": 1056.0,
    "hz": 0.256157
   }
  },
  {
   "type": "Feature",
   "geometry": {
    "type": "Point",
    "coordinates": [
     9.808996190437407e-05,
     -0.00034567601120734034
    ]
   },
   "properties": {
    "classname": "item_healthkit_medium",
    "team": "",
    "targetname": "",
    "hx": 573.195,
    "hy": -2019.98,
    "hz": 0.256157
   }
  },
  {
   "type": "Feature",
   "geometry": {
    "type": "Point",
    "coordinates": [
     9.808996190447442e-05,
     -0.0003552592034308332
    ]
   },
   "properties": {
    "classname": "item_ammopack_medium",
    "team": "",
    "targetname": "",
    "hx": 573.195,
    "hy": -2075.98,
    "hz": 0.256157
   }
  },
  {
   "type": "Feature",
   "geometry": {
    "type": "Point",
    "coordinates": [
     -0.0001364175969468436,
     -0.000396122961842402
    ]
   },
   "properties": {
    "classname": "item_healthkit_medium",
    "team": "",
    "targetname": "",
    "hx": -797.165,
    "hy": -2314.77,
    "hz": 0.256157
   }
  },
  {
   "type": "Feature",
   "geometry": {
    "type": "Point",
    "coordinates": [
     -0.00013641759694700325,
     -0.00040570615406589484
    ]
   },
   "properties": {
    "classname": "item_ammopack_medium",
    "team": "",
    "targetname": "",
    "hx": -797.165,
    "hy": -2370.77,
    "hz": 0.256157
   }
  },
  {
   "type": "Feature",
   "geometry": {
    "type": "Point",
    "coordinates": [
     0.00013742965049484956,
     0.00022844618976481298
    ]
   },
   "properties": {
    "classname": "item_healthkit_medium",
    "team": "",
    "targetname": "",
    "hx": 803.079,
    "hy": 1334.94,
    "hz": 0.256157
   }
  },
  {
   "type": "Feature",
   "geometry": {
    "type": "Point",
    "coordinates": [
     0.00013742965049475984,
     0.00021886299754132014
    ]
   },
   "properties": {
    "classname": "item_ammopack_medium",
    "team": "",
    "targetname": "",
    "hx": 803.079,
    "hy": 1278.94,
    "hz": 0.256157
   }
  },
  {
   "type": "Feature",
   "geometry": {
    "type": "Point",
    "coordinates": [
     -0.0001423788558921283,
     -0.00010404608699792221
    ]
   },
   "properties": {
    "classname": "item_healthkit_medium",
    "team": "",
    "targetname": "",
    "hx": -832.0,
    "hy": -608.0,
    "hz": -79.7438
   }
  },
  {
   "type": "Feature",
   "geometry": {
    "type": "Point",
    "coordinates": [
     -0.00013279566366861966,
     -0.00010404608699792221
    ]
   },
   "properties": {
    "classname": "item_ammopack_medium",
    "team": "",
    "targetname": "",
    "hx": -776.0,
    "hy": -608.0,
    "hz": -79.7438
   }
  },
  {
   "type": "Feature",
   "geometry": {
    "type": "Point",
    "coordinates": [
     0.00014237885589200345,
     -7.118942794594677e-05
    ]
   },
   "properties": {
    "classname": "item_ammopack_medium",
    "team": "",
    "targetname": "",
    "hx": 832.0,
    "hy": -416.0,
    "hz": -79.7438
   }
  },
  {
   "type": "Feature",
   "geometry": {
    "type": "Point",
    "coordinates": [
     0.00013279566366850322,
     -7.118942794594677e-05
    ]
   },
   "properties": {
    "classname": "item_healthkit_medium",
    "team": "",
    "targetname": "",
    "hx": 776.0,
    "hy": -416.0,
    "hz": -79.7438
   }
  },
  {
   "type": "Feature",
   "geometry": {
    "type": "Point",
    "coordinates": [
     0.00016017621288041592,
     -0.00028886479416528405
    ]
   },
   "properties": {
    "classname": "item_ammopack_medium",
    "team": "",
    "targetname": "",
    "hx": 936.0,
    "hy": -1688.0,
    "hz": 0.256157
   }
  },
  {
   "type": "Feature",
   "geometry": {
    "type": "Point",
    "coordinates": [
     -0.00016115643654045718,
     0.00012104838128672414
    ]
   },
   "properties": {
    "classname": "item_ammopack_medium",
    "team": "",
    "targetname": "",
    "hx": -941.728,
    "hy": 707.354,
    "hz": 0.256157
   }
  },
  {
   "type": "Feature",
   "geometry": {
    "type": "Point",
    "coordinates": [
     -1.5037876785749903e-05,
     -8.857813023547452e-05
    ]
   },
   "properties": {
    "classname": "item_healthkit_small",
    "team": "",
    "targetname": "",
    "hx": -87.8748,
    "hy": -517.612,
    "hz": 371.928
   }
  },
  {
   "type": "Feature",
   "geometry": {
    "type": "Point",
    "coordinates": [
     -0.00016775600454411663,
     -0.00029683082270106243
    ]
   },
   "properties": {
    "classname": "item_healthkit_small",
    "team": "",
    "targetname": "",
    "hx": -980.293,
    "hy": -1734.55,
    "hz": 0.235199
   }
  },
  {
   "type": "Feature",
   "geometry": {
    "type": "Point",
    "coordinates": [
     0.00016881768533785817,
     0.00012089727488077155
    ]
   },
   "properties": {
    "classname": "item_healthkit_small",
    "team": "",
    "targetname": "",
    "hx": 986.497,
    "hy": 706.471,
    "hz": 0.235199
   }
  },
  {
   "type": "Feature",
   "geometry": {
    "type": "Point",
    "coordinates": [
     -0.0002025955287421765,
     -8.734686116318826e-05
    ]
   },
   "properties": {
    "classname": "item_healthkit_small",
    "team": "",
    "targetname": "",
    "hx": -1183.88,
    "hy": -510.417,
    "hz": -194.792
   }
  },
  {
   "type": "Feature",
   "geometry": {
    "type": "Point",
    "coordinates": [
     0.0002028299746948175,
     -9.279387917164855e-05
    ]
   },
   "properties": {
    "classname": "item_healthkit_small",
    "team": "",
    "targetname": "",
    "hx": 1185.25,
    "hy": -542.247,
    "hz": -192.157
   }
  },
  {
   "type": "Feature",
   "geometry": {
    "type": "Point",
    "coordinates": [
     0.0001109064547338735,
     -0.00041848944797830395
    ]
   },
   "properties": {
    "classname": "item_healthkit_small",
    "team": "",
    "targetname": "",
    "hx": 648.089,
    "hy": -2445.47,
    "hz": 0.235199
   }
  },
  {
   "type": "Feature",
   "geometry": {
    "type": "Point",
    "coordinates": [
     -0.00011113165974916818,
     0.00024317692523978193
    ]
   },
   "properties": {
    "classname": "item_healthkit_small",
    "team": "",
    "targetname": "",
    "hx": -649.405,
    "hy": 1421.02,
    "hz": 0.235199
   }
  },
  {
   "type": "Feature",
   "geometry": {
    "type": "Point",
    "coordinates": [
     -8.797233558498964e-05,
     -0.00024218609161524583
    ]
   },
   "properties": {
    "classname": "item_ammopack_full",
    "team": "",
    "targetname": "",
    "hx": -514.072,
    "hy": -1415.23,
    "hz": -7.78936
   }
  },
  {
   "type": "Feature",
   "geometry": {
    "type": "Point",
    "coordinates": [
     8.752192554975819e-05,
     6.631825711305885e-05
    ]
   },
   "properties": {
    "classname": "item_ammopack_full",
    "team": "",
    "targetname": "",
    "hx": 511.44,
    "hy": 387.535,
    "hz": -7.78936
   }
  },
  {
   "type": "Feature",
   "geometry": {
    "type": "Point",
    "coordinates": [
     7.853289124411642e-05,
     6.664579693298324e-05
    ]
   },
   "properties": {
    "classname": "item_healthkit_small",
    "team": "",
    "targetname": "",
    "hx": 458.912,
    "hy": 389.449,
    "hz": -7.76482
   }
  },
  {
   "type": "Feature",
   "geometry": {
    "type": "Point",
    "coordinates": [
     -7.726842325655499e-05,
     -0.00024302462093480146
    ]
   },
   "properties": {
    "classname": "item_healthkit_small",
    "team": "",
    "targetname": "",
    "hx": -451.523,
    "hy": -1420.13,
    "hz": -7.76482
   }
  },
  {
   "type": "Feature",
   "geometry": {
    "type": "Point",
    "coordinates": [
     -1.3690274606046505e-06,
     -0.0007118942794594677
    ]
   },
   "properties": {
    "classname": "item_ammopack_medium",
    "team": "",
    "targetname": "",
    "hx": -8.0,
    "hy": -4160.0,
    "hz": -151.744
   }
  },
  {
   "type": "Feature",
   "geometry": {
    "type": "Point",
    "coordinates": [
     -0.0001500332595605562,
     -0.0006127664236133881
    ]
   },
   "properties": {
    "classname": "item_healthkit_medium",
    "team": "",
    "targetname": "",
    "hx": -876.729,
    "hy": -3580.74,
    "hz": 152.256
   }
  },
  {
   "type": "Feature",
   "geometry": {
    "type": "Point",
    "coordinates": [
     -0.00015003325956086566,
     -0.00062371864329738
    ]
   },
   "properties": {
    "classname": "item_ammopack_medium",
    "team": "",
    "targetname": "",
    "hx": -876.729,
    "hy": -3644.74,
    "hz": 152.256
   }
  },
  {
   "type": "Feature",
   "geometry": {
    "type": "Point",
    "coordinates": [
     0.00014921612129108062,
     0.00044940551060502213
    ]
   },
   "properties": {
    "classname": "item_healthkit_medium",
    "team": "",
    "targetname": "",
    "hx": 871.954,
    "hy": 2626.13,
    "hz": 152.256
   }
  },
  {
   "type": "Feature",
   "geometry": {
    "type": "Point",
    "coordinates": [
     0.00014921612129085963,
     0.0004384532909210304
    ]
   },
   "properties": {
    "classname": "item_ammopack_medium",
    "team": "",
    "targetname": "",
    "hx": 871.954,
    "hy": 2562.13,
    "hz": 152.256
   }
  },
  {
   "type": "Feature",
   "geometry": {
    "type": "Point",
    "coordinates": [
     1.3690274605596438e-06,
     0.0005393968194365967
    ]
   },
   "properties": {
    "classname": "item_ammopack_medium",
    "team": "",
    "targetname": "",
    "hx": 8.0,
    "hy": 3152.0,
    "hz": -151.744
   }
  },
  {
   "type": "Feature",
   "geometry": {
    "type": "Point",
    "coordinates": [
     -4.928498858276148e-05,
     -0.0007995120369314023
    ]
   },
   "properties": {
    "classname": "item_healthkit_medium",
    "team": "",
    "targetname": "",
    "hx": -288.0,
    "hy": -4672.0,
    "hz": 152.256
   }
  },
  {
   "type": "Feature",
   "geometry": {
    "type": "Point",
    "coordinates": [
     -4.928498858263092e-05,
     -0.0007885598172474106
    ]
   },
   "properties": {
    "classname": "item_ammopack_medium",
    "team": "",
    "targetname": "",
    "hx": -288.0,
    "hy": -4608.0,
    "hz": 152.256
   }
  }
 ]
}
