{
 "type": "FeatureCollection",
 "note": "pseudo-WGS84 via crs.local_to_wgs84 ((0,0)m maps to (0,0)deg); viewing only, not survey",
 "features": [
  {
   "type": "Feature",
   "geometry": {
    "type": "Point",
    "coordinates": [
     -0.0010295805242454333,
     0.00023318473606246507
    ]
   },
   "properties": {
    "classname": "team_control_point",
    "team": "",
    "targetname": "control_point_3",
    "hx": -6016.42,
    "hy": 1362.63,
    "hz": -82.75
   }
  },
  {
   "type": "Feature",
   "geometry": {
    "type": "Point",
    "coordinates": [
     -0.0010295805243233506,
     0.0007424629513680843
    ]
   },
   "properties": {
    "classname": "team_control_point",
    "team": "",
    "targetname": "control_point_2",
    "hx": -6016.42,
    "hy": 4338.63,
    "hz": 61.25
   }
  },
  {
   "type": "Feature",
   "geometry": {
    "type": "Point",
    "coordinates": [
     -0.0010705794743126958,
     0.0011143883528461668
    ]
   },
   "properties": {
    "classname": "item_ammopack_full",
    "team": "",
    "targetname": "",
    "hx": -6256.0,
    "hy": 6512.0,
    "hz": -48.0
   }
  },
  {
   "type": "Feature",
   "geometry": {
    "type": "Point",
    "coordinates": [
     -0.0010815316939987592,
     0.0011143883528461668
    ]
   },
   "properties": {
    "classname": "item_healthkit_medium",
    "team": "",
    "targetname": "",
    "hx": -6320.0,
    "hy": 6512.0,
    "hz": -48.0
   }
  },
  {
   "type": "Feature",
   "geometry": {
    "type": "Point",
    "coordinates": [
     -0.001169833964996584,
     3.422568651247441e-05
    ]
   },
   "properties": {
    "classname": "info_player_teamspawn",
    "team": "2",
    "targetname": "spawns_red_stage1_cap3",
    "hx": -6836.0,
    "hy": 200.0,
    "hz": 172.0
   }
  },
  {
   "type": "Feature",
   "geometry": {
    "type": "Point",
    "coordinates": [
     -0.0011931194108157038,
     5.583578497645075e-05
    ]
   },
   "properties": {
    "classname": "info_player_teamspawn",
    "team": "2",
    "targetname": "spawns_red_stage1_cap3",
    "hx": -6972.07,
    "hy": 326.28,
    "hz": 172.0
   }
  },
  {
   "type": "Feature",
   "geometry": {
    "type": "Point",
    "coordinates": [
     -0.0012287021457992203,
     8.615050229114472e-05
    ]
   },
   "properties": {
    "classname": "info_player_teamspawn",
    "team": "2",
    "targetname": "spawns_red_stage1_cap3",
    "hx": -7180.0,
    "hy": 503.426,
    "hz": 172.0
   }
  },
  {
   "type": "Feature",
   "geometry": {
    "type": "Point",
    "coordinates": [
     -0.0012164784418614535,
     9.152821328441726e-05
    ]
   },
   "properties": {
    "classname": "info_player_teamspawn",
    "team": "2",
    "targetname": "spawns_red_stage1_cap3",
    "hx": -7108.57,
    "hy": 534.851,
    "hz": 172.0
   }
  },
  {
   "type": "Feature",
   "geometry": {
    "type": "Point",
    "coordinates": [
     -0.0012013215965882029,
     4.380887873596725e-05
    ]
   },
   "properties": {
    "classname": "info_player_teamspawn",
    "team": "2",
    "targetname": "spawns_red_stage1_cap3",
    "hx": -7020.0,
    "hy": 256.0,
    "hz": 172.0
   }
  },
  {
   "type": "Feature",
   "geometry": {
    "type": "Point",
    "coordinates": [
     -0.0012026906240491418,
     6.571331810395088e-05
    ]
   },
   "properties": {
    "classname": "info_player_teamspawn",
    "team": "2",
    "targetname": "spawns_red_stage1_cap3",
    "hx": -7028.0,
    "hy": 384.0,
    "hz": 172.0
   }
  },
  {
   "type": "Feature",
   "geometry": {
    "type": "Point",
    "coordinates": [
     -0.0011561436903915314,
     2.8749576670478505e-05
    ]
   },
   "properties": {
    "classname": "info_player_teamspawn",
    "team": "2",
    "targetname": "spawns_red_stage1_cap3",
    "hx": -6756.0,
    "hy": 168.0,
    "hz": 172.0
   }
  },
  {
   "type": "Feature",
   "geometry": {
    "type": "Point",
    "coordinates": [
     -0.0011731316098918532,
     2.053541190748465e-06
    ]
   },
   "properties": {
    "classname": "info_player_teamspawn",
    "team": "2",
    "targetname": "spawns_red_stage1_cap3",
    "hx": -6855.27,
    "hy": 12.0,
    "hz": 172.0
   }
  },
  {
   "type": "Feature",
   "geometry": {
    "type": "Point",
    "coordinates": [
     -0.0012122738162729484,
     7.735005151819216e-05
    ]
   },
   "properties": {
    "classname": "info_player_teamspawn",
    "team": "2",
    "targetname": "spawns_red_stage1_cap3",
    "hx": -7084.0,
    "hy": 452.0,
    "hz": 172.0
   }
  },
  {
   "type": "Feature",
   "geometry": {
    "type": "Point",
    "coordinates": [
     -0.0012150118711934533,
     5.749915334095701e-05
    ]
   },
   "properties": {
    "classname": "info_player_teamspawn",
    "team": "2",
    "targetname": "spawns_red_stage1_cap3",
    "hx": -7100.0,
    "hy": 336.0,
    "hz": 172.0
   }
  },
  {
   "type": "Feature",
   "geometry": {
    "type": "Point",
    "coordinates": [
     -0.0011581972315821642,
     1.3005760874740277e-05
    ]
   },
   "properties": {
    "classname": "info_player_teamspawn",
    "team": "2",
    "targetname": "spawns_red_stage1_cap3",
    "hx": -6768.0,
    "hy": 76.0,
    "hz": 172.0
   }
  },
  {
   "type": "Feature",
   "geometry": {
    "type": "Point",
    "coordinates": [
     -0.0012259640908777259,
     6.913588675519832e-05
    ]
   },
   "properties": {
    "classname": "info_player_teamspawn",
    "team": "2",
    "targetname": "spawns_red_stage1_cap3",
    "hx": -7164.0,
    "hy": 404.0,
    "hz": 172.0
   }
  },
  {
   "type": "Feature",
   "geometry": {
    "type": "Point",
    "coordinates": [
     -0.0011759945885686913,
     1.9850898177235157e-05
    ]
   },
   "properties": {
    "classname": "info_player_teamspawn",
    "team": "2",
    "targetname": "spawns_red_stage1_cap3",
    "hx": -6872.0,
    "hy": 116.0,
    "hz": 172.0
   }
  },
  {
   "type": "Feature",
   "geometry": {
    "type": "Point",
    "coordinates": [
     -0.001183524239601733,
     4.5177906196466225e-05
    ]
   },
   "properties": {
    "classname": "info_player_teamspawn",
    "team": "2",
    "targetname": "spawns_red_stage1_cap3",
    "hx": -6916.0,
    "hy": 264.0,
    "hz": 172.0
   }
  },
  {
   "type": "Feature",
   "geometry": {
    "type": "Point",
    "coordinates": [
     -0.001188315835713291,
     3.1487631591476464e-05
    ]
   },
   "properties": {
    "classname": "info_player_teamspawn",
    "team": "2",
    "targetname": "spawns_red_stage1_cap3",
    "hx": -6944.0,
    "hy": 184.0,
    "hz": 172.0
   }
  },
  {
   "type": "Feature",
   "geometry": {
    "type": "Point",
    "coordinates": [
     -0.0009644610220784195,
     0.0013916027233226047
    ]
   },
   "properties": {
    "classname": "info_player_teamspawn",
    "team": "3",
    "targetname": "spawns_blue_stage1_cap1",
    "hx": -5635.89,
    "hy": 8131.92,
    "hz": -176.0
   }
  },
  {
   "type": "Feature",
   "geometry": {
    "type": "Point",
    "coordinates": [
     -0.0009670998225022478,
     0.001374269124388362
    ]
   },
   "properties": {
    "classname": "info_player_teamspawn",
    "team": "3",
    "targetname": "spawns_blue_stage1_cap1",
    "hx": -5651.31,
    "hy": 8030.63,
    "hz": -176.0
   }
  },
  {
   "type": "Feature",
   "geometry": {
    "type": "Point",
    "coordinates": [
     -0.0009227245086460729,
     0.0013854557900249641
    ]
   },
   "properties": {
    "classname": "info_player_teamspawn",
    "team": "3",
    "targetname": "spawns_blue_stage1_cap1",
    "hx": -5392.0,
    "hy": 8096.0,
    "hz": -176.0
   }
  },
  {
   "type": "Feature",
   "geometry": {
    "type": "Point",
    "coordinates": [
     -0.0009802236619959662,
     0.0013662894055779785
    ]
   },
   "properties": {
    "classname": "info_player_teamspawn",
    "team": "3",
    "targetname": "spawns_blue_stage1_cap1",
    "hx": -5728.0,
    "hy": 7984.0,
    "hz": -176.0
   }
  },
  {
   "type": "Feature",
   "geometry": {
    "type": "Point",
    "coordinates": [
     -0.0009976582267129358,
     0.001372436338875619
    ]
   },
   "properties": {
    "classname": "info_player_teamspawn",
    "team": "3",
    "targetname": "spawns_blue_stage1_cap1",
    "hx": -5829.88,
    "hy": 8019.92,
    "hz": -176.0
   }
  },
  {
   "type": "Feature",
   "geometry": {
    "type": "Point",
    "coordinates": [
     -0.0009950177150049961,
     0.0013897682265255362
    ]
   },
   "properties": {
    "classname": "info_player_teamspawn",
    "team": "3",
    "targetname": "spawns_blue_stage1_cap1",
    "hx": -5814.45,
    "hy": 8121.2,
    "hz": -176.0
   }
  },
  {
   "type": "Feature",
   "geometry": {
    "type": "Point",
    "coordinates": [
     -0.0009807900971209958,
     0.0013979823912885299
    ]
   },
   "properties": {
    "classname": "info_player_teamspawn",
    "team": "3",
    "targetname": "spawns_blue_stage1_cap1",
    "hx": -5731.31,
    "hy": 8169.2,
    "hz": -176.0
   }
  },
  {
   "type": "Feature",
   "geometry": {
    "type": "Point",
    "coordinates": [
     -0.0009810587687535677,
     0.001382019531099112
    ]
   },
   "properties": {
    "classname": "info_player_teamspawn",
    "team": "3",
    "targetname": "spawns_blue_stage1_cap1",
    "hx": -5732.88,
    "hy": 8075.92,
    "hz": -176.0
   }
  },
  {
   "type": "Feature",
   "geometry": {
    "type": "Point",
    "coordinates": [
     -0.0008891183070420135,
     0.0013649546038039919
    ]
   },
   "properties": {
    "classname": "info_player_teamspawn",
    "team": "3",
    "targetname": "spawns_blue_stage1_cap1",
    "hx": -5195.62,
    "hy": 7976.2,
    "hz": -176.0
   }
  },
  {
   "type": "Feature",
   "geometry": {
    "type": "Point",
    "coordinates": [
     -0.0008741565481802992,
     0.0013689641429789285
    ]
   },
   "properties": {
    "classname": "info_player_teamspawn",
    "team": "3",
    "targetname": "spawns_blue_stage1_cap1",
    "hx": -5108.19,
    "hy": 7999.63,
    "hz": -176.0
   }
  },
  {
   "type": "Feature",
   "geometry": {
    "type": "Point",
    "coordinates": [
     -0.0009057160537245695,
     0.0013745377960274847
    ]
   },
   "properties": {
    "classname": "info_player_teamspawn",
    "team": "3",
    "targetname": "spawns_blue_stage1_cap1",
    "hx": -5292.61,
    "hy": 8032.2,
    "hz": -176.0
   }
  },
  {
   "type": "Feature",
   "geometry": {
    "type": "Point",
    "coordinates": [
     -0.0008903880800193339,
     0.0013846583315292235
    ]
   },
   "properties": {
    "classname": "info_player_teamspawn",
    "team": "3",
    "targetname": "spawns_blue_stage1_cap1",
    "hx": -5203.04,
    "hy": 8091.34,
    "hz": -176.0
   }
  },
  {
   "type": "Feature",
   "geometry": {
    "type": "Point",
    "coordinates": [
     -0.0008754280324418454,
     0.0013886678707041601
    ]
   },
   "properties": {
    "classname": "info_player_teamspawn",
    "team": "3",
    "targetname": "spawns_blue_stage1_cap1",
    "hx": -5115.62,
    "hy": 8114.77,
    "hz": -176.0
   }
  },
  {
   "type": "Feature",
   "geometry": {
    "type": "Point",
    "coordinates": [
     -0.0008920257791245734,
     0.001398251062927653
    ]
   },
   "properties": {
    "classname": "info_player_teamspawn",
    "team": "3",
    "targetname": "spawns_blue_stage1_cap1",
    "hx": -5212.61,
    "hy": 8170.77,
    "hz": -176.0
   }
  },
  {
   "type": "Feature",
   "geometry": {
    "type": "Point",
    "coordinates": [
     -0.0009083565654464009,
     0.0013918713949617274
    ]
   },
   "properties": {
    "classname": "info_player_teamspawn",
    "team": "3",
    "targetname": "spawns_blue_stage1_cap1",
    "hx": -5308.04,
    "hy": 8133.49,
    "hz": -176.0
   }
  },
  {
   "type": "Feature",
   "geometry": {
    "type": "Point",
    "coordinates": [
     -0.0009747475519931956,
     0.0008912368767848337
    ]
   },
   "properties": {
    "classname": "info_player_teamspawn",
    "team": "3",
    "targetname": "spawns_blue_stage2_cap1",
    "hx": -5696.0,
    "hy": 5208.0,
    "hz": 320.0
   }
  },
  {
   "type": "Feature",
   "geometry": {
    "type": "Point",
    "coordinates": [
     -0.0009583192224652204,
     0.0008912368767848337
    ]
   },
   "properties": {
    "classname": "info_player_teamspawn",
    "team": "3",
    "targetname": "spawns_blue_stage2_cap1",
    "hx": -5600.0,
    "hy": 5208.0,
    "hz": 320.0
   }
  },
  {
   "type": "Feature",
   "geometry": {
    "type": "Point",
    "coordinates": [
     -0.0009555811675463908,
     0.0009008200690083265
    ]
   },
   "properties": {
    "classname": "info_player_teamspawn",
    "team": "3",
    "targetname": "spawns_blue_stage2_cap1",
    "hx": -5584.0,
    "hy": 5264.0,
    "hz": 320.0
   }
  },
  {
   "type": "Feature",
   "geometry": {
    "type": "Point",
    "coordinates": [
     -0.0009528431126279354,
     0.0009117722886923184
    ]
   },
   "properties": {
    "classname": "info_player_teamspawn",
    "team": "3",
    "targetname": "spawns_blue_stage2_cap1",
    "hx": -5568.0,
    "hy": 5328.0,
    "hz": 320.0
   }
  },
  {
   "type": "Feature",
   "geometry": {
    "type": "Point",
    "coordinates": [
     -0.0009925449089818355,
     0.0008912368767848337
    ]
   },
   "properties": {
    "classname": "info_player_teamspawn",
    "team": "3",
    "targetname": "spawns_blue_stage2_cap1",
    "hx": -5800.0,
    "hy": 5208.0,
    "hz": 320.0
   }
  },
  {
   "type": "Feature",
   "geometry": {
    "type": "Point",
    "coordinates": [
     -0.0009587846918113235,
     0.0009269308452486933
    ]
   },
   "properties": {
    "classname": "info_player_teamspawn",
    "team": "3",
    "targetname": "spawns_blue_stage2_cap1",
    "hx": -5602.72,
    "hy": 5416.58,
    "hz": 320.0
   }
  },
  {
   "type": "Feature",
   "geometry": {
    "type": "Point",
    "coordinates": [
     -0.0009678271181852886,
     0.0009128675106607174
    ]
   },
   "properties": {
    "classname": "info_player_teamspawn",
    "team": "3",
    "targetname": "spawns_blue_stage2_cap1",
    "hx": -5655.56,
    "hy": 5334.4,
    "hz": 320.0
   }
  },
  {
   "type": "Feature",
   "geometry": {
    "type": "Point",
    "coordinates": [
     -0.0009808979078662127,
     0.0009134219667822197
    ]
   },
   "properties": {
    "classname": "info_player_teamspawn",
    "team": "3",
    "targetname": "spawns_blue_stage2_cap1",
    "hx": -5731.94,
    "hy": 5337.64,
    "hz": 320.0
   }
  },
  {
   "type": "Feature",
   "geometry": {
    "type": "Point",
    "coordinates": [
     -0.0009856997716810908,
     0.0009008200690083265
    ]
   },
   "properties": {
    "classname": "info_player_teamspawn",
    "team": "3",
    "targetname": "spawns_blue_stage2_cap1",
    "hx": -5760.0,
    "hy": 5264.0,
    "hz": 320.0
   }
  },
  {
   "type": "Feature",
   "geometry": {
    "type": "Point",
    "coordinates": [
     -0.0009720094970744089,
     0.0009008200690083265
    ]
   },
   "properties": {
    "classname": "info_player_teamspawn",
    "team": "3",
    "targetname": "spawns_blue_stage2_cap1",
    "hx": -5680.0,
    "hy": 5264.0,
    "hz": 320.0
   }
  },
  {
   "type": "Feature",
   "geometry": {
    "type": "Point",
    "coordinates": [
     -0.0009993900462877726,
     0.0009008200690083265
    ]
   },
   "properties": {
    "classname": "info_player_teamspawn",
    "team": "3",
    "targetname": "spawns_blue_stage2_cap1",
    "hx": -5840.0,
    "hy": 5264.0,
    "hz": 320.0
   }
  },
  {
   "type": "Feature",
   "geometry": {
    "type": "Point",
    "coordinates": [
     -0.0009856997716878471,
     0.0009254625632973082
    ]
   },
   "properties": {
    "classname": "info_player_teamspawn",
    "team": "3",
    "targetname": "spawns_blue_stage2_cap1",
    "hx": -5760.0,
    "hy": 5408.0,
    "hz": 320.0
   }
  },
  {
   "type": "Feature",
   "geometry": {
    "type": "Point",
    "coordinates": [
     -0.0009980210188339452,
     0.0009254625632973082
    ]
   },
   "properties": {
    "classname": "info_player_teamspawn",
    "team": "3",
    "targetname": "spawns_blue_stage2_cap1",
    "hx": -5832.0,
    "hy": 5408.0,
    "hz": 320.0
   }
  },
  {
   "type": "Feature",
   "geometry": {
    "type": "Point",
    "coordinates": [
     -0.0009732108186784575,
     0.000927796755117459
    ]
   },
   "properties": {
    "classname": "info_player_teamspawn",
    "team": "3",
    "targetname": "spawns_blue_stage2_cap1",
    "hx": -5687.02,
    "hy": 5421.64,
    "hz": 320.0
   }
  },
  {
   "type": "Feature",
   "geometry": {
    "type": "Point",
    "coordinates": [
     -0.0009980432655266255,
     0.0009127374530519701
    ]
   },
   "properties": {
    "classname": "info_player_teamspawn",
    "team": "3",
    "targetname": "spawns_blue_stage2_cap1",
    "hx": -5832.13,
    "hy": 5333.64,
    "hz": 320.0
   }
  },
  {
   "type": "Feature",
   "geometry": {
    "type": "Point",
    "coordinates": [
     -0.0010295788131066417,
     0.0009911827265385615
    ]
   },
   "properties": {
    "classname": "info_player_teamspawn",
    "team": "",
    "targetname": "",
    "hx": -6016.41,
    "hy": 5792.04,
    "hz": 97.0
   }
  },
  {
   "type": "Feature",
   "geometry": {
    "type": "Point",
    "coordinates": [
     -0.0007399422296366571,
     0.0008436665951011456
    ]
   },
   "properties": {
    "classname": "info_player_teamspawn",
    "team": "",
    "targetname": "",
    "hx": -4323.9,
    "hy": 4930.02,
    "hz": 33.0
   }
  },
  {
   "type": "Feature",
   "geometry": {
    "type": "Point",
    "coordinates": [
     -0.0007844527349892025,
     0.0010158183756902406
    ]
   },
   "properties": {
    "classname": "item_healthkit_medium",
    "team": "",
    "targetname": "",
    "hx": -4584.0,
    "hy": 5936.0,
    "hz": 82.2562
   }
  },
  {
   "type": "Feature",
   "geometry": {
    "type": "Point",
    "coordinates": [
     -0.0007844527349918752,
     0.0010267705953742325
    ]
   },
   "properties": {
    "classname": "item_ammopack_full",
    "team": "",
    "targetname": "",
    "hx": -4584.0,
    "hy": 6000.0,
    "hz": 82.2562
   }
  },
  {
   "type": "Feature",
   "geometry": {
    "type": "Point",
    "coordinates": [
     -0.001144506957003868,
     0.0003915418537027073
    ]
   },
   "properties": {
    "classname": "item_healthkit_medium",
    "team": "",
    "targetname": "",
    "hx": -6688.0,
    "hy": 2288.0,
    "hz": 96.2562
   }
  },
  {
   "type": "Feature",
   "geometry": {
    "type": "Point",
    "coordinates": [
     -0.000977485606943342,
     0.000993913936322257
    ]
   },
   "properties": {
    "classname": "item_ammopack_full",
    "team": "",
    "targetname": "",
    "hx": -5712.0,
    "hy": 5808.0,
    "hz": 112.0
   }
  },
  {
   "type": "Feature",
   "geometry": {
    "type": "Point",
    "coordinates": [
     -0.0007871907898250554,
     0.0005640393137255783
    ]
   },
   "properties": {
    "classname": "item_healthkit_medium",
    "team": "",
    "targetname": "",
    "hx": -4600.0,
    "hy": 3296.0,
    "hz": 40.2562
   }
  },
  {
   "type": "Feature",
   "geometry": {
    "type": "Point",
    "coordinates": [
     -0.0007776075976010982,
     0.0005640393137255783
    ]
   },
   "properties": {
    "classname": "item_ammopack_medium",
    "team": "",
    "targetname": "",
    "hx": -4544.0,
    "hy": 3296.0,
    "hz": 40.2562
   }
  },
  {
   "type": "Feature",
   "geometry": {
    "type": "Point",
    "coordinates": [
     -0.0010349847601957326,
     0.0006092172199220444
    ]
   },
   "properties": {
    "classname": "item_healthkit_medium",
    "team": "",
    "targetname": "",
    "hx": -6048.0,
    "hy": 3560.0,
    "hz": 48.2562
   }
  },
  {
   "type": "Feature",
   "geometry": {
    "type": "Point",
    "coordinates": [
     -0.0010240325405111218,
     0.0006092172199220444
    ]
   },
   "properties": {
    "classname": "item_ammopack_medium",
    "team": "",
    "targetname": "",
    "hx": -5984.0,
    "hy": 3560.0,
    "hz": 48.2562
   }
  },
  {
   "type": "Feature",
   "geometry": {
    "type": "Point",
    "coordinates": [
     -0.001034984760255984,
     0.0008679634099563511
    ]
   },
   "properties": {
    "classname": "item_ammopack_medium",
    "team": "",
    "targetname": "",
    "hx": -6048.0,
    "hy": 5072.0,
    "hz": -88.0
   }
  },
  {
   "type": "Feature",
   "geometry": {
    "type": "Point",
    "coordinates": [
     -0.0010240325405707353,
     0.0008679634099563511
    ]
   },
   "properties": {
    "classname": "item_healthkit_medium",
    "team": "",
    "targetname": "",
    "hx": -5984.0,
    "hy": 5072.0,
    "hz": -88.0
   }
  },
  {
   "type": "Feature",
   "geometry": {
    "type": "Point",
    "coordinates": [
     -0.0010276091247842646,
     0.0007603116468843398
    ]
   },
   "properties": {
    "classname": "item_healthkit_medium",
    "team": "",
    "targetname": "",
    "hx": -6004.9,
    "hy": 4442.93,
    "hz": -143.288
   }
  },
  {
   "type": "Feature",
   "geometry": {
    "type": "Point",
    "coordinates": [
     -0.0009377838104633148,
     0.00038811928505145984
    ]
   },
   "properties": {
    "classname": "item_ammopack_medium",
    "team": "",
    "targetname": "",
    "hx": -5480.0,
    "hy": 2268.0,
    "hz": 292.256
   }
  },
  {
   "type": "Feature",
   "geometry": {
    "type": "Point",
    "coordinates": [
     -0.0009377838104621176,
     0.00037716706536746803
    ]
   },
   "properties": {
    "classname": "item_healthkit_medium",
    "team": "",
    "targetname": "",
    "hx": -5480.0,
    "hy": 2204.0,
    "hz": 292.256
   }
  },
  {
   "type": "Feature",
   "geometry": {
    "type": "Point",
    "coordinates": [
     -0.0008775466021840126,
     0.00017660454240436797
    ]
   },
   "properties": {
    "classname": "item_healthkit_medium",
    "team": "",
    "targetname": "",
    "hx": -5128.0,
    "hy": 1032.0,
    "hz": 104.256
   }
  },
  {
   "type": "Feature",
   "geometry": {
    "type": "Point",
    "coordinates": [
     -0.0008775466021836339,
     0.0001683903776413741
    ]
   },
   "properties": {
    "classname": "item_ammopack_medium",
    "team": "",
    "targetname": "",
    "hx": -5128.0,
    "hy": 984.0,
    "hz": 104.256
   }
  },
  {
   "type": "Feature",
   "geometry": {
    "type": "Point",
    "coordinates": [
     -0.0009216772023820996,
     0.00030514424195494255
    ]
   },
   "properties": {
    "classname": "item_ammopack_medium",
    "team": "",
    "targetname": "",
    "hx": -5385.88,
    "hy": 1783.13,
    "hz": 288.256
   }
  },
  {
   "type": "Feature",
   "geometry": {
    "type": "Point",
    "coordinates": [
     -0.0009148320650795076,
     0.00030514424195494255
    ]
   },
   "properties": {
    "classname": "item_healthkit_small",
    "team": "",
    "targetname": "",
    "hx": -5345.88,
    "hy": 1783.13,
    "hz": 288.256
   }
  },
  {
   "type": "Feature",
   "geometry": {
    "type": "Point",
    "coordinates": [
     -0.0010256086333287377,
     0.0002725494094047875
    ]
   },
   "properties": {
    "classname": "info_player_teamspawn",
    "team": "",
    "targetname": "",
    "hx": -5993.21,
    "hy": 1592.66,
    "hz": -95.0
   }
  },
  {
   "type": "Feature",
   "geometry": {
    "type": "Point",
    "coordinates": [
     -0.0009528431125161005,
     0.0002464249428898158
    ]
   },
   "properties": {
    "classname": "item_ammopack_medium",
    "team": "",
    "targetname": "",
    "hx": -5568.0,
    "hy": 1440.0,
    "hz": -95.7438
   }
  },
  {
   "type": "Feature",
   "geometry": {
    "type": "Point",
    "coordinates": [
     -0.001029508650298409,
     0.00014237885589189354
    ]
   },
   "properties": {
    "classname": "item_healthkit_medium",
    "team": "",
    "targetname": "",
    "hx": -6016.0,
    "hy": 832.0,
    "hz": -95.7438
   }
  },
  {
   "type": "Feature",
   "geometry": {
    "type": "Point",
    "coordinates": [
     -0.0011061741880934038,
     0.0002464249428898158
    ]
   },
   "properties": {
    "classname": "item_ammopack_medium",
    "team": "",
    "targetname": "",
    "hx": -6464.0,
    "hy": 1440.0,
    "hz": -95.7438
   }
  },
  {
   "type": "Feature",
   "geometry": {
    "type": "Point",
    "coordinates": [
     -0.001180233439915339,
     0.0006335277250518551
    ]
   },
   "properties": {
    "classname": "info_player_teamspawn",
    "team": "",
    "targetname": "",
    "hx": -6896.77,
    "hy": 3702.06,
    "hz": 97.0
   }
  },
  {
   "type": "Feature",
   "geometry": {
    "type": "Point",
    "coordinates": [
     -0.001155459176688116,
     0.0003915418537027073
    ]
   },
   "properties": {
    "classname": "item_ammopack_medium",
    "team": "",
    "targetname": "",
    "hx": -6752.0,
    "hy": 2288.0,
    "hz": 96.2562
   }
  },
  {
   "type": "Feature",
   "geometry": {
    "type": "Point",
    "coordinates": [
     -0.0011965830503410386,
     0.0005281588152702257
    ]
   },
   "properties": {
    "classname": "item_ammopack_medium",
    "team": "",
    "targetname": "",
    "hx": -6992.31,
    "hy": 3086.33,
    "hz": 290.256
   }
  },
  {
   "type": "Feature",
   "geometry": {
    "type": "Point",
    "coordinates": [
     -0.0008818025663284726,
     0.00047889949595714696
    ]
   },
   "properties": {
    "classname": "item_ammopack_full",
    "team": "",
    "targetname": "",
    "hx": -5152.87,
    "hy": 2798.48,
    "hz": 36.2361
   }
  },
  {
   "type": "Feature",
   "geometry": {
    "type": "Point",
    "coordinates": [
     -0.000892754786012847,
     0.00047889949595714696
    ]
   },
   "properties": {
    "classname": "item_healthkit_medium",
    "team": "",
    "targetname": "",
    "hx": -5216.87,
    "hy": 2798.48,
    "hz": 36.2361
   }
  },
  {
   "type": "Feature",
   "geometry": {
    "type": "Point",
    "coordinates": [
     -0.0009774856070167968,
     0.00121706541238359
    ]
   },
   "properties": {
    "classname": "item_healthkit_small",
    "team": "",
    "targetname": "",
    "hx": -5712.0,
    "hy": 7112.0,
    "hz": 206.0
   }
  }
 ]
}
