{
 "type": "FeatureCollection",
 "note": "pseudo-WGS84 via crs.local_to_wgs84 ((0,0)m maps to (0,0)deg); viewing only, not survey",
 "features": [
  {
   "type": "Feature",
   "geometry": {
    "type": "Point",
    "coordinates": [
     0.000863514070714197,
     -0.00018430532186967472
    ]
   },
   "properties": {
    "classname": "info_player_teamspawn",
    "team": "3",
    "targetname": "spawn_blue_1",
    "hx": 5046.0,
    "hy": -1077.0,
    "hz": 330.0
   }
  },
  {
   "type": "Feature",
   "geometry": {
    "type": "Point",
    "coordinates": [
     0.0008635140707136818,
     -0.0001733531021856829
    ]
   },
   "properties": {
    "classname": "info_player_teamspawn",
    "team": "3",
    "targetname": "spawn_blue_1",
    "hx": 5046.0,
    "hy": -1013.0,
    "hz": 330.0
   }
  },
  {
   "type": "Feature",
   "geometry": {
    "type": "Point",
    "coordinates": [
     0.0008635140707132299,
     -0.00016314186861468618
    ]
   },
   "properties": {
    "classname": "info_player_teamspawn",
    "team": "3",
    "targetname": "spawn_blue_1",
    "hx": 5046.0,
    "hy": -953.33,
    "hz": 330.0
   }
  },
  {
   "type": "Feature",
   "geometry": {
    "type": "Point",
    "coordinates": [
     0.0008635140707147436,
     -0.00019525754155366653
    ]
   },
   "properties": {
    "classname": "info_player_teamspawn",
    "team": "3",
    "targetname": "spawn_blue_1",
    "hx": 5046.0,
    "hy": -1141.0,
    "hz": 330.0
   }
  },
  {
   "type": "Feature",
   "geometry": {
    "type": "Point",
    "coordinates": [
     0.000847941383350938,
     -0.00018424884948692915
    ]
   },
   "properties": {
    "classname": "info_player_teamspawn",
    "team": "3",
    "targetname": "spawn_blue_1",
    "hx": 4955.0,
    "hy": -1076.67,
    "hz": 330.0
   }
  },
  {
   "type": "Feature",
   "geometry": {
    "type": "Point",
    "coordinates": [
     0.0008479413833504322,
     -0.0001732966298029373
    ]
   },
   "properties": {
    "classname": "info_player_teamspawn",
    "team": "3",
    "targetname": "spawn_blue_1",
    "hx": 4955.0,
    "hy": -1012.67,
    "hz": 330.0
   }
  },
  {
   "type": "Feature",
   "geometry": {
    "type": "Point",
    "coordinates": [
     0.0004158420911352098,
     -0.0003694662859021613
    ]
   },
   "properties": {
    "classname": "info_player_teamspawn",
    "team": "3",
    "targetname": "spawn_blue_2",
    "hx": 2430.0,
    "hy": -2159.0,
    "hz": 191.0
   }
  },
  {
   "type": "Feature",
   "geometry": {
    "type": "Point",
    "coordinates": [
     0.00041584209113470485,
     -0.0003585140662181695
    ]
   },
   "properties": {
    "classname": "info_player_teamspawn",
    "team": "3",
    "targetname": "spawn_blue_2",
    "hx": 2430.0,
    "hy": -2095.0,
    "hz": 191.0
   }
  },
  {
   "type": "Feature",
   "geometry": {
    "type": "Point",
    "coordinates": [
     0.000415842091134215,
     -0.00034756184653417764
    ]
   },
   "properties": {
    "classname": "info_player_teamspawn",
    "team": "3",
    "targetname": "spawn_blue_2",
    "hx": 2430.0,
    "hy": -2031.0,
    "hz": 191.0
   }
  },
  {
   "type": "Feature",
   "geometry": {
    "type": "Point",
    "coordinates": [
     4.209776553881924e-05,
     8.202716270855436e-05
    ]
   },
   "properties": {
    "classname": "info_player_teamspawn",
    "team": "2",
    "targetname": "spawn_red_3",
    "hx": 246.001,
    "hy": 479.331,
    "hz": 72.0
   }
  },
  {
   "type": "Feature",
   "geometry": {
    "type": "Point",
    "coordinates": [
     2.2931381091820465e-05,
     9.275161044880566e-05
    ]
   },
   "properties": {
    "classname": "info_player_teamspawn",
    "team": "2",
    "targetname": "spawn_red_3",
    "hx": 134.001,
    "hy": 542.0,
    "hz": 72.0
   }
  },
  {
   "type": "Feature",
   "geometry": {
    "type": "Point",
    "coordinates": [
     3.388360077582662e-05,
     9.275161044880566e-05
    ]
   },
   "properties": {
    "classname": "info_player_teamspawn",
    "team": "2",
    "targetname": "spawn_red_3",
    "hx": 198.001,
    "hy": 542.0,
    "hz": 72.0
   }
  },
  {
   "type": "Feature",
   "geometry": {
    "type": "Point",
    "coordinates": [
     0.0004808606277948551,
     -8.613356057632104e-05
    ]
   },
   "properties": {
    "classname": "item_ammopack_small",
    "team": "",
    "targetname": "",
    "hx": 2809.94,
    "hy": -503.327,
    "hz": 489.261
   }
  },
  {
   "type": "Feature",
   "geometry": {
    "type": "Point",
    "coordinates": [
     0.000470945446412173,
     -8.556421628118603e-05
    ]
   },
   "properties": {
    "classname": "item_healthkit_small",
    "team": "",
    "targetname": "",
    "hx": 2752.0,
    "hy": -500.0,
    "hz": 488.235
   }
  },
  {
   "type": "Feature",
   "geometry": {
    "type": "Point",
    "coordinates": [
     2.481379385012977e-05,
     -0.00020137538301777134
    ]
   },
   "properties": {
    "classname": "item_healthkit_small",
    "team": "",
    "targetname": "",
    "hx": 145.001,
    "hy": -1176.75,
    "hz": 300.235
   }
  },
  {
   "type": "Feature",
   "geometry": {
    "type": "Point",
    "coordinates": [
     3.298791455995588e-05,
     -0.00020204620647341584
    ]
   },
   "properties": {
    "classname": "item_ammopack_small",
    "team": "",
    "targetname": "",
    "hx": 192.767,
    "hy": -1180.67,
    "hz": 300.261
   }
  },
  {
   "type": "Feature",
   "geometry": {
    "type": "Point",
    "coordinates": [
     -0.0002498475115410709,
     -1.4203522999930831e-05
    ]
   },
   "properties": {
    "classname": "item_ammopack_small",
    "team": "",
    "targetname": "",
    "hx": -1460.0,
    "hy": -82.9992,
    "hz": 489.261
   }
  },
  {
   "type": "Feature",
   "geometry": {
    "type": "Point",
    "coordinates": [
     -0.00023874127626777306,
     -1.4629769699757186e-05
    ]
   },
   "properties": {
    "classname": "item_healthkit_small",
    "team": "",
    "targetname": "",
    "hx": -1395.1,
    "hy": -85.49,
    "hz": 488.235
   }
  },
  {
   "type": "Feature",
   "geometry": {
    "type": "Point",
    "coordinates": [
     0.00020826330242873498,
     0.0001017189114435065
    ]
   },
   "properties": {
    "classname": "item_healthkit_small",
    "team": "",
    "targetname": "",
    "hx": 1217.0,
    "hy": 594.401,
    "hz": 300.235
   }
  },
  {
   "type": "Feature",
   "geometry": {
    "type": "Point",
    "coordinates": [
     0.0002000884972052218,
     0.00010239144618347663
    ]
   },
   "properties": {
    "classname": "item_ammopack_small",
    "team": "",
    "targetname": "",
    "hx": 1169.23,
    "hy": 598.331,
    "hz": 300.261
   }
  },
  {
   "type": "Feature",
   "geometry": {
    "type": "Point",
    "coordinates": [
     -0.0006210250817692234,
     6.297526318295293e-05
    ]
   },
   "properties": {
    "classname": "info_player_teamspawn",
    "team": "2",
    "targetname": "spawn_red_1",
    "hx": -3629.0,
    "hy": 368.0,
    "hz": 338.0
   }
  },
  {
   "type": "Feature",
   "geometry": {
    "type": "Point",
    "coordinates": [
     -0.00062102508176934,
     7.210171361993678e-05
    ]
   },
   "properties": {
    "classname": "info_player_teamspawn",
    "team": "2",
    "targetname": "spawn_red_1",
    "hx": -3629.0,
    "hy": 421.331,
    "hz": 338.0
   }
  },
  {
   "type": "Feature",
   "geometry": {
    "type": "Point",
    "coordinates": [
     -0.0006364266406999657,
     7.210171361993678e-05
    ]
   },
   "properties": {
    "classname": "info_player_teamspawn",
    "team": "2",
    "targetname": "spawn_red_1",
    "hx": -3719.0,
    "hy": 421.331,
    "hz": 338.0
   }
  },
  {
   "type": "Feature",
   "geometry": {
    "type": "Point",
    "coordinates": [
     -0.0006364266407001304,
     8.30539333039286e-05
    ]
   },
   "properties": {
    "classname": "info_player_teamspawn",
    "team": "2",
    "targetname": "spawn_red_1",
    "hx": -3719.0,
    "hy": 485.331,
    "hz": 338.0
   }
  },
  {
   "type": "Feature",
   "geometry": {
    "type": "Point",
    "coordinates": [
     -0.0006210250817695007,
     8.30539333039286e-05
    ]
   },
   "properties": {
    "classname": "info_player_teamspawn",
    "team": "2",
    "targetname": "spawn_red_1",
    "hx": -3629.0,
    "hy": 485.331,
    "hz": 338.0
   }
  },
  {
   "type": "Feature",
   "geometry": {
    "type": "Point",
    "coordinates": [
     -0.000621025081769671,
     9.326499574649278e-05
    ]
   },
   "properties": {
    "classname": "info_player_teamspawn",
    "team": "2",
    "targetname": "spawn_red_1",
    "hx": -3629.0,
    "hy": 545.0,
    "hz": 338.0
   }
  },
  {
   "type": "Feature",
   "geometry": {
    "type": "Point",
    "coordinates": [
     2.2931381091811816e-05,
     7.826233719218218e-05
    ]
   },
   "properties": {
    "classname": "info_player_teamspawn",
    "team": "2",
    "targetname": "spawn_red_3",
    "hx": 134.001,
    "hy": 457.331,
    "hz": 71.75
   }
  },
  {
   "type": "Feature",
   "geometry": {
    "type": "Point",
    "coordinates": [
     3.1145545854813336e-05,
     7.826233719218218e-05
    ]
   },
   "properties": {
    "classname": "info_player_teamspawn",
    "team": "2",
    "targetname": "spawn_red_3",
    "hx": 182.001,
    "hy": 457.331,
    "hz": 71.75
   }
  },
  {
   "type": "Feature",
   "geometry": {
    "type": "Point",
    "coordinates": [
     1.1636921655526595e-05,
     7.312848421531102e-05
    ]
   },
   "properties": {
    "classname": "info_player_teamspawn",
    "team": "2",
    "targetname": "spawn_red_3",
    "hx": 68.0011,
    "hy": 427.331,
    "hz": 71.75
   }
  },
  {
   "type": "Feature",
   "geometry": {
    "type": "Point",
    "coordinates": [
     0.0007625106472464589,
     -0.0001783158267299917
    ]
   },
   "properties": {
    "classname": "team_control_point",
    "team": "",
    "targetname": "cap_blue_1",
    "hx": 4455.78,
    "hy": -1042.0,
    "hz": 163.75
   }
  },
  {
   "type": "Feature",
   "geometry": {
    "type": "Point",
    "coordinates": [
     0.00021955777897851578,
     -0.00017226985920756308
    ]
   },
   "properties": {
    "classname": "info_player_teamspawn",
    "team": "3",
    "targetname": "spawn_blue_3",
    "hx": 1283.0,
    "hy": -1006.67,
    "hz": 58.1943
   }
  },
  {
   "type": "Feature",
   "geometry": {
    "type": "Point",
    "coordinates": [
     0.0002178464946530428,
     -0.00018561787694742812
    ]
   },
   "properties": {
    "classname": "info_player_teamspawn",
    "team": "3",
    "targetname": "spawn_blue_3",
    "hx": 1273.0,
    "hy": -1084.67,
    "hz": 58.1943
   }
  },
  {
   "type": "Feature",
   "geometry": {
    "type": "Point",
    "coordinates": [
     0.0002087766877270812,
     -0.00017620581315649767
    ]
   },
   "properties": {
    "classname": "info_player_teamspawn",
    "team": "3",
    "targetname": "spawn_blue_3",
    "hx": 1220.0,
    "hy": -1029.67,
    "hz": 58.1943
   }
  },
  {
   "type": "Feature",
   "geometry": {
    "type": "Point",
    "coordinates": [
     0.00020963232989008846,
     -0.00019246301424992302
    ]
   },
   "properties": {
    "classname": "info_player_teamspawn",
    "team": "3",
    "targetname": "spawn_blue_3",
    "hx": 1225.0,
    "hy": -1124.67,
    "hz": 58.1943
   }
  },
  {
   "type": "Feature",
   "geometry": {
    "type": "Point",
    "coordinates": [
     0.00019320400036388757,
     -0.0001815107945659312
    ]
   },
   "properties": {
    "classname": "info_player_teamspawn",
    "team": "3",
    "targetname": "spawn_blue_3",
    "hx": 1129.0,
    "hy": -1060.67,
    "hz": 58.1943
   }
  },
  {
   "type": "Feature",
   "geometry": {
    "type": "Point",
    "coordinates": [
     0.0001877278905219813,
     -0.00019246301424992302
    ]
   },
   "properties": {
    "classname": "info_player_teamspawn",
    "team": "3",
    "targetname": "spawn_blue_3",
    "hx": 1097.0,
    "hy": -1124.67,
    "hz": 58.1943
   }
  },
  {
   "type": "Feature",
   "geometry": {
    "type": "Point",
    "coordinates": [
     -0.00042787241993605846,
     7.427675599780452e-05
    ]
   },
   "properties": {
    "classname": "item_healthkit_small",
    "team": "",
    "targetname": "",
    "hx": -2500.3,
    "hy": 434.041,
    "hz": -30.7935
   }
  },
  {
   "type": "Feature",
   "geometry": {
    "type": "Point",
    "coordinates": [
     0.0006578467866064792,
     -0.0001783004251710611
    ]
   },
   "properties": {
    "classname": "item_healthkit_small",
    "team": "",
    "targetname": "",
    "hx": 3844.17,
    "hy": -1041.91,
    "hz": -30.818
   }
  },
  {
   "type": "Feature",
   "geometry": {
    "type": "Point",
    "coordinates": [
     -0.0001863588630621829,
     0.00024899186937825136
    ]
   },
   "properties": {
    "classname": "info_player_teamspawn",
    "team": "2",
    "targetname": "spawn_red_2",
    "hx": -1089.0,
    "hy": 1455.0,
    "hz": 185.0
   }
  },
  {
   "type": "Feature",
   "geometry": {
    "type": "Point",
    "coordinates": [
     -0.00018635886306200846,
     0.00023632836536863582
    ]
   },
   "properties": {
    "classname": "info_player_teamspawn",
    "team": "2",
    "targetname": "spawn_red_2",
    "hx": -1089.0,
    "hy": 1381.0,
    "hz": 185.0
   }
  },
  {
   "type": "Feature",
   "geometry": {
    "type": "Point",
    "coordinates": [
     -0.00023566267576598143,
     1.9214471536535698e-05
    ]
   },
   "properties": {
    "classname": "item_ammopack_small",
    "team": "",
    "targetname": "",
    "hx": -1377.11,
    "hy": 112.281,
    "hz": 48.2613
   }
  },
  {
   "type": "Feature",
   "geometry": {
    "type": "Point",
    "coordinates": [
     0.00046805508718670896,
     -0.00012075113119936329
    ]
   },
   "properties": {
    "classname": "item_ammopack_small",
    "team": "",
    "targetname": "",
    "hx": 2735.11,
    "hy": -705.617,
    "hz": 48.2613
   }
  },
  {
   "type": "Feature",
   "geometry": {
    "type": "Point",
    "coordinates": [
     -7.911763709815621e-05,
     4.75856832426188e-05
    ]
   },
   "properties": {
    "classname": "item_healthkit_small",
    "team": "",
    "targetname": "",
    "hx": -462.329,
    "hy": 278.07,
    "hz": 170.235
   }
  },
  {
   "type": "Feature",
   "geometry": {
    "type": "Point",
    "coordinates": [
     0.0005707133225982502,
     -0.00017752350208722787
    ]
   },
   "properties": {
    "classname": "item_ammopack_small",
    "team": "",
    "targetname": "",
    "hx": 3335.0,
    "hy": -1037.37,
    "hz": 161.261
   }
  },
  {
   "type": "Feature",
   "geometry": {
    "type": "Point",
    "coordinates": [
     -0.0003244081696087795,
     7.671020230884146e-05
    ]
   },
   "properties": {
    "classname": "item_healthkit_small",
    "team": "",
    "targetname": "",
    "hx": -1895.7,
    "hy": 448.261,
    "hz": 161.235
   }
  },
  {
   "type": "Feature",
   "geometry": {
    "type": "Point",
    "coordinates": [
     -0.0003311369395771389,
     7.683341478028636e-05
    ]
   },
   "properties": {
    "classname": "item_ammopack_small",
    "team": "",
    "targetname": "",
    "hx": -1935.02,
    "hy": 448.981,
    "hz": 161.261
   }
  },
  {
   "type": "Feature",
   "geometry": {
    "type": "Point",
    "coordinates": [
     0.0002949107616924263,
     -0.0003239461228405703
    ]
   },
   "properties": {
    "classname": "team_control_point",
    "team": "",
    "targetname": "cap_blue_2",
    "hx": 1723.33,
    "hy": -1893.0,
    "hz": 170.0
   }
  },
  {
   "type": "Feature",
   "geometry": {
    "type": "Point",
    "coordinates": [
     -6.126397885780316e-05,
     0.00022537614568464401
    ]
   },
   "properties": {
    "classname": "team_control_point",
    "team": "",
    "targetname": "cap_red_2",
    "hx": -358.0,
    "hy": 1317.0,
    "hz": 170.0
   }
  },
  {
   "type": "Feature",
   "geometry": {
    "type": "Point",
    "coordinates": [
     0.00012616169885404138,
     0.0003499764687176327
    ]
   },
   "properties": {
    "classname": "item_ammopack_medium",
    "team": "",
    "targetname": "",
    "hx": 737.234,
    "hy": 2045.11,
    "hz": 278.21
   }
  },
  {
   "type": "Feature",
   "geometry": {
    "type": "Point",
    "coordinates": [
     0.00010808129544109979,
     -0.0004515719965612618
    ]
   },
   "properties": {
    "classname": "item_ammopack_medium",
    "team": "",
    "targetname": "",
    "hx": 631.58,
    "hy": -2638.79,
    "hz": 278.21
   }
  },
  {
   "type": "Feature",
   "geometry": {
    "type": "Point",
    "coordinates": [
     0.00020193155042419784,
     -0.00013953196328778594
    ]
   },
   "properties": {
    "classname": "item_ammopack_small",
    "team": "",
    "targetname": "",
    "hx": 1180.0,
    "hy": -815.364,
    "hz": 256.261
   }
  },
  {
   "type": "Feature",
   "geometry": {
    "type": "Point",
    "coordinates": [
     2.9947475698422398e-05,
     3.9961055929802306e-05
    ]
   },
   "properties": {
    "classname": "item_ammopack_small",
    "team": "",
    "targetname": "",
    "hx": 175.0,
    "hy": 233.515,
    "hz": 256.261
   }
  },
  {
   "type": "Feature",
   "geometry": {
    "type": "Point",
    "coordinates": [
     5.38029503261776e-05,
     0.0001284733017187403
    ]
   },
   "properties": {
    "classname": "item_healthkit_medium",
    "team": "",
    "targetname": "",
    "hx": 314.401,
    "hy": 750.742,
    "hz": 256.236
   }
  },
  {
   "type": "Feature",
   "geometry": {
    "type": "Point",
    "coordinates": [
     5.399221837261668e-05,
     0.0001396408009708956
    ]
   },
   "properties": {
    "classname": "item_ammopack_medium",
    "team": "",
    "targetname": "",
    "hx": 315.507,
    "hy": 816.0,
    "hz": 256.256
   }
  },
  {
   "type": "Feature",
   "geometry": {
    "type": "Point",
    "coordinates": [
     0.00017949490163194718,
     -0.0002419756036431941
    ]
   },
   "properties": {
    "classname": "item_ammopack_medium",
    "team": "",
    "targetname": "",
    "hx": 1048.89,
    "hy": -1414.0,
    "hz": 256.256
   }
  },
  {
   "type": "Feature",
   "geometry": {
    "type": "Point",
    "coordinates": [
     0.00017917146889424623,
     -0.00022992473942215185
    ]
   },
   "properties": {
    "classname": "item_healthkit_medium",
    "team": "",
    "targetname": "",
    "hx": 1047.0,
    "hy": -1343.58,
    "hz": 256.236
   }
  },
  {
   "type": "Feature",
   "geometry": {
    "type": "Point",
    "coordinates": [
     0.00048788716123635885,
     -0.00011807861846803673
    ]
   },
   "properties": {
    "classname": "item_ammopack_small",
    "team": "",
    "targetname": "",
    "hx": 2851.0,
    "hy": -690.0,
    "hz": 296.0
   }
  },
  {
   "type": "Feature",
   "geometry": {
    "type": "Point",
    "coordinates": [
     -0.0002620660816260269,
     1.6074915087059905e-05
    ]
   },
   "properties": {
    "classname": "item_ammopack_small",
    "team": "",
    "targetname": "",
    "hx": -1531.4,
    "hy": 93.9348,
    "hz": 296.261
   }
  },
  {
   "type": "Feature",
   "geometry": {
    "type": "Point",
    "coordinates": [
     0.0005591792662434945,
     -0.00017764329199002155
    ]
   },
   "properties": {
    "classname": "item_healthkit_small",
    "team": "",
    "targetname": "",
    "hx": 3267.6,
    "hy": -1038.07,
    "hz": 161.235
   }
  },
  {
   "type": "Feature",
   "geometry": {
    "type": "Point",
    "coordinates": [
     -0.0004257350258155295,
     0.00019771152327661092
    ]
   },
   "properties": {
    "classname": "item_healthkit_small",
    "team": "",
    "targetname": "",
    "hx": -2487.81,
    "hy": 1155.34,
    "hz": 296.235
   }
  },
  {
   "type": "Feature",
   "geometry": {
    "type": "Point",
    "coordinates": [
     -0.0004418484790257101,
     0.0001981496120639706
    ]
   },
   "properties": {
    "classname": "item_ammopack_small",
    "team": "",
    "targetname": "",
    "hx": -2581.97,
    "hy": 1157.9,
    "hz": 296.261
   }
  },
  {
   "type": "Feature",
   "geometry": {
    "type": "Point",
    "coordinates": [
     0.0006569620526160542,
     -0.0003016994266074619
    ]
   },
   "properties": {
    "classname": "item_healthkit_small",
    "team": "",
    "targetname": "",
    "hx": 3839.0,
    "hy": -1763.0,
    "hz": 294.0
   }
  },
  {
   "type": "Feature",
   "geometry": {
    "type": "Point",
    "coordinates": [
     0.0006730481252771673,
     -0.0003021375153948216
    ]
   },
   "properties": {
    "classname": "item_ammopack_small",
    "team": "",
    "targetname": "",
    "hx": 3933.0,
    "hy": -1765.56,
    "hz": 296.261
   }
  },
  {
   "type": "Feature",
   "geometry": {
    "type": "Point",
    "coordinates": [
     -0.000385244327384678,
     -6.73321930759909e-05
    ]
   },
   "properties": {
    "classname": "item_ammopack_small",
    "team": "",
    "targetname": "",
    "hx": -2251.2,
    "hy": -393.46,
    "hz": 376.261
   }
  },
  {
   "type": "Feature",
   "geometry": {
    "type": "Point",
    "coordinates": [
     -0.0003853812301306583,
     -5.784141020608176e-05
    ]
   },
   "properties": {
    "classname": "item_healthkit_small",
    "team": "",
    "targetname": "",
    "hx": -2252.0,
    "hy": -338.0,
    "hz": 376.235
   }
  },
  {
   "type": "Feature",
   "geometry": {
    "type": "Point",
    "coordinates": [
     0.000618995498558829,
     -4.2513607629902656e-05
    ]
   },
   "properties": {
    "classname": "item_healthkit_small",
    "team": "",
    "targetname": "",
    "hx": 3617.14,
    "hy": -248.431,
    "hz": 376.235
   }
  },
  {
   "type": "Feature",
   "geometry": {
    "type": "Point",
    "coordinates": [
     0.0006188585958127114,
     -3.30228247599935e-05
    ]
   },
   "properties": {
    "classname": "item_ammopack_small",
    "team": "",
    "targetname": "",
    "hx": 3616.34,
    "hy": -192.971,
    "hz": 376.261
   }
  },
  {
   "type": "Feature",
   "geometry": {
    "type": "Point",
    "coordinates": [
     0.00031058954868011784,
     -0.00014831992168516143
    ]
   },
   "properties": {
    "classname": "item_healthkit_small",
    "team": "",
    "targetname": "",
    "hx": 1814.95,
    "hy": -866.717,
    "hz": 171.235
   }
  },
  {
   "type": "Feature",
   "geometry": {
    "type": "Point",
    "coordinates": [
     -0.00015155921178516967,
     3.8995035927987726e-05
    ]
   },
   "properties": {
    "classname": "item_ammopack_small",
    "team": "",
    "targetname": "",
    "hx": -885.646,
    "hy": 227.87,
    "hz": 491.261
   }
  },
  {
   "type": "Feature",
   "geometry": {
    "type": "Point",
    "coordinates": [
     0.0003824515113661274,
     -0.0001394819937854777
    ]
   },
   "properties": {
    "classname": "item_ammopack_small",
    "team": "",
    "targetname": "",
    "hx": 2234.88,
    "hy": -815.072,
    "hz": 491.261
   }
  },
  {
   "type": "Feature",
   "geometry": {
    "type": "Point",
    "coordinates": [
     -0.00021972890741119524,
     0.00018208065224636387
    ]
   },
   "properties": {
    "classname": "item_healthkit_medium",
    "team": "",
    "targetname": "",
    "hx": -1284.0,
    "hy": 1064.0,
    "hz": 160.236
   }
  },
  {
   "type": "Feature",
   "geometry": {
    "type": "Point",
    "coordinates": [
     -0.00023821077812802475,
     0.00018208065224636387
    ]
   },
   "properties": {
    "classname": "item_ammopack_medium",
    "team": "",
    "targetname": "",
    "hx": -1392.0,
    "hy": 1064.0,
    "hz": 160.256
   }
  },
  {
   "type": "Feature",
   "geometry": {
    "type": "Point",
    "coordinates": [
     0.00045177906197021506,
     -0.00028407319805353763
    ]
   },
   "properties": {
    "classname": "item_healthkit_medium",
    "team": "",
    "targetname": "",
    "hx": 2640.0,
    "hy": -1660.0,
    "hz": 160.236
   }
  },
  {
   "type": "Feature",
   "geometry": {
    "type": "Point",
    "coordinates": [
     0.0004709454464174642,
     -0.0002847577117837871
    ]
   },
   "properties": {
    "classname": "item_ammopack_medium",
    "team": "",
    "targetname": "",
    "hx": 2752.0,
    "hy": -1664.0,
    "hz": 160.256
   }
  },
  {
   "type": "Feature",
   "geometry": {
    "type": "Point",
    "coordinates": [
     -0.00018635886306236395,
     0.00026148424495530455
    ]
   },
   "properties": {
    "classname": "info_player_teamspawn",
    "team": "2",
    "targetname": "spawn_red_2",
    "hx": -1089.0,
    "hy": 1528.0,
    "hz": 185.0
   }
  },
  {
   "type": "Feature",
   "geometry": {
    "type": "Point",
    "coordinates": [
     -0.00018652999149517711,
     0.0002777414460487299
    ]
   },
   "properties": {
    "classname": "info_player_teamspawn",
    "team": "2",
    "targetname": "spawn_red_2",
    "hx": -1090.0,
    "hy": 1623.0,
    "hz": 185.0
   }
  },
  {
   "type": "Feature",
   "geometry": {
    "type": "Point",
    "coordinates": [
     0.0004153287058380151,
     -0.0003800762487210284
    ]
   },
   "properties": {
    "classname": "info_player_teamspawn",
    "team": "3",
    "targetname": "spawn_blue_2",
    "hx": 2427.0,
    "hy": -2221.0,
    "hz": 191.0
   }
  },
  {
   "type": "Feature",
   "geometry": {
    "type": "Point",
    "coordinates": [
     -9.976787618587426e-05,
     0.000363819047627603
    ]
   },
   "properties": {
    "classname": "item_ammopack_small",
    "team": "",
    "targetname": "",
    "hx": -583.0,
    "hy": 2126.0,
    "hz": 444.261
   }
  },
  {
   "type": "Feature",
   "geometry": {
    "type": "Point",
    "coordinates": [
     0.00021763600668686027,
     -0.00045994359948221304
    ]
   },
   "properties": {
    "classname": "item_healthkit_small",
    "team": "",
    "targetname": "",
    "hx": 1271.77,
    "hy": -2687.71,
    "hz": 287.235
   }
  },
  {
   "type": "Feature",
   "geometry": {
    "type": "Point",
    "coordinates": [
     0.0003331870582097964,
     -0.0004625601532160917
    ]
   },
   "properties": {
    "classname": "item_ammopack_small",
    "team": "",
    "targetname": "",
    "hx": 1947.0,
    "hy": -2703.0,
    "hz": 440.261
   }
  },
  {
   "type": "Feature",
   "geometry": {
    "type": "Point",
    "coordinates": [
     1.744363451671693e-05,
     0.0003559710977102926
    ]
   },
   "properties": {
    "classname": "item_healthkit_small",
    "team": "",
    "targetname": "",
    "hx": 101.933,
    "hy": 2080.14,
    "hz": 287.235
   }
  },
  {
   "type": "Feature",
   "geometry": {
    "type": "Point",
    "coordinates": [
     0.00027793995503053404,
     2.7412721355301255e-05
    ]
   },
   "properties": {
    "classname": "item_ammopack_medium",
    "team": "",
    "targetname": "",
    "hx": 1624.16,
    "hy": 160.188,
    "hz": 138.166
   }
  },
  {
   "type": "Feature",
   "geometry": {
    "type": "Point",
    "coordinates": [
     -0.0005281382798587996,
     7.735005151819216e-05
    ]
   },
   "properties": {
    "classname": "team_control_point",
    "team": "",
    "targetname": "cap_red_1",
    "hx": -3086.21,
    "hy": 452.0,
    "hz": 162.0
   }
  },
  {
   "type": "Feature",
   "geometry": {
    "type": "Point",
    "coordinates": [
     -4.744210648781967e-05,
     -0.00012924474869273152
    ]
   },
   "properties": {
    "classname": "item_ammopack_medium",
    "team": "",
    "targetname": "",
    "hx": -277.231,
    "hy": -755.25,
    "hz": 133.559
   }
  },
  {
   "type": "Feature",
   "geometry": {
    "type": "Point",
    "coordinates": [
     -0.0006466943466538854,
     8.316841822531282e-05
    ]
   },
   "properties": {
    "classname": "info_player_teamspawn",
    "team": "2",
    "targetname": "spawn_red_1",
    "hx": -3779.0,
    "hy": 486.0,
    "hz": 338.0
   }
  },
  {
   "type": "Feature",
   "geometry": {
    "type": "Point",
    "coordinates": [
     -0.0006466943466537178,
     7.221619854132101e-05
    ]
   },
   "properties": {
    "classname": "info_player_teamspawn",
    "team": "2",
    "targetname": "spawn_red_1",
    "hx": -3779.0,
    "hy": 422.0,
    "hz": 338.0
   }
  },
  {
   "type": "Feature",
   "geometry": {
    "type": "Point",
    "coordinates": [
     -0.0006600423643937644,
     8.316841822531282e-05
    ]
   },
   "properties": {
    "classname": "info_player_teamspawn",
    "team": "2",
    "targetname": "spawn_red_1",
    "hx": -3857.0,
    "hy": 486.0,
    "hz": 338.0
   }
  },
  {
   "type": "Feature",
   "geometry": {
    "type": "Point",
    "coordinates": [
     -0.0006600423643935934,
     7.221619854132101e-05
    ]
   },
   "properties": {
    "classname": "info_player_teamspawn",
    "team": "2",
    "targetname": "spawn_red_1",
    "hx": -3857.0,
    "hy": 422.0,
    "hz": 338.0
   }
  },
  {
   "type": "Feature",
   "geometry": {
    "type": "Point",
    "coordinates": [
     0.0008766909600210448,
     -0.0001733531021856829
    ]
   },
   "properties": {
    "classname": "info_player_teamspawn",
    "team": "3",
    "targetname": "spawn_blue_1",
    "hx": 5123.0,
    "hy": -1013.0,
    "hz": 330.0
   }
  },
  {
   "type": "Feature",
   "geometry": {
    "type": "Point",
    "coordinates": [
     0.0008766909600215678,
     -0.00018430532186967472
    ]
   },
   "properties": {
    "classname": "info_player_teamspawn",
    "team": "3",
    "targetname": "spawn_blue_1",
    "hx": 5123.0,
    "hy": -1077.0,
    "hz": 330.0
   }
  },
  {
   "type": "Feature",
   "geometry": {
    "type": "Point",
    "coordinates": [
     0.0008910657483563499,
     -0.0001733531021856829
    ]
   },
   "properties": {
    "classname": "info_player_teamspawn",
    "team": "3",
    "targetname": "spawn_blue_1",
    "hx": 5207.0,
    "hy": -1013.0,
    "hz": 330.0
   }
  },
  {
   "type": "Feature",
   "geometry": {
    "type": "Point",
    "coordinates": [
     0.0008910657483568815,
     -0.00018430532186967472
    ]
   },
   "properties": {
    "classname": "info_player_teamspawn",
    "team": "3",
    "targetname": "spawn_blue_1",
    "hx": 5207.0,
    "hy": -1077.0,
    "hz": 330.0
   }
  },
  {
   "type": "Feature",
   "geometry": {
    "type": "Point",
    "coordinates": [
     -0.0006081904493273083,
     8.299728979275044e-05
    ]
   },
   "properties": {
    "classname": "info_player_teamspawn",
    "team": "2",
    "targetname": "spawn_red_1",
    "hx": -3554.0,
    "hy": 485.0,
    "hz": 338.0
   }
  },
  {
   "type": "Feature",
   "geometry": {
    "type": "Point",
    "coordinates": [
     -0.0006081904493271511,
     7.204507010875865e-05
    ]
   },
   "properties": {
    "classname": "info_player_teamspawn",
    "team": "2",
    "targetname": "spawn_red_1",
    "hx": -3554.0,
    "hy": 421.0,
    "hz": 338.0
   }
  },
  {
   "type": "Feature",
   "geometry": {
    "type": "Point",
    "coordinates": [
     0.00033814978274377577,
     -0.00010130803207692427
    ]
   },
   "properties": {
    "classname": "item_healthkit_medium",
    "team": "",
    "targetname": "",
    "hx": 1976.0,
    "hy": -592.0,
    "hz": 488.236
   }
  },
  {
   "type": "Feature",
   "geometry": {
    "type": "Point",
    "coordinates": [
     -0.00010493612597567912,
     -4.1751743848134973e-07
    ]
   },
   "properties": {
    "classname": "item_healthkit_medium",
    "team": "",
    "targetname": "",
    "hx": -613.201,
    "hy": -2.43979,
    "hz": 488.236
   }
  },
  {
   "type": "Feature",
   "geometry": {
    "type": "Point",
    "coordinates": [
     0.00011608462997186619,
     -5.113026646628321e-05
    ]
   },
   "properties": {
    "classname": "team_control_point",
    "team": "",
    "targetname": "cap_center",
    "hx": 678.348,
    "hy": -298.783,
    "hz": 429.0
   }
  }
 ]
}
