{
 "type": "FeatureCollection",
 "note": "pseudo-WGS84 via crs.local_to_wgs84 ((0,0)m maps to (0,0)deg); viewing only, not survey",
 "features": [
  {
   "type": "Feature",
   "geometry": {
    "type": "Point",
    "coordinates": [
     -0.00025497965324400887,
     0.0005174923800686131
    ]
   },
   "properties": {
    "classname": "item_ammopack_small",
    "team": "0",
    "targetname": "",
    "hx": -1489.99,
    "hy": 3024.0,
    "hz": -119.0
   }
  },
  {
   "type": "Feature",
   "geometry": {
    "type": "Point",
    "coordinates": [
     -0.00022445205216704367,
     -0.000730376150176204
    ]
   },
   "properties": {
    "classname": "item_healthkit_medium",
    "team": "0",
    "targetname": "",
    "hx": -1311.6,
    "hy": -4268.0,
    "hz": 169.0
   }
  },
  {
   "type": "Feature",
   "geometry": {
    "type": "Point",
    "coordinates": [
     -0.0001793425973310089,
     -0.0004545171168856602
    ]
   },
   "properties": {
    "classname": "item_healthkit_medium",
    "team": "0",
    "targetname": "",
    "hx": -1048.0,
    "hy": -2656.0,
    "hz": 105.0
   }
  },
  {
   "type": "Feature",
   "geometry": {
    "type": "Point",
    "coordinates": [
     -0.00022452050354824862,
     -0.0008789156296403429
    ]
   },
   "properties": {
    "classname": "item_healthkit_medium",
    "team": "0",
    "targetname": "",
    "hx": -1312.0,
    "hy": -5136.0,
    "hz": -151.0
   }
  },
  {
   "type": "Feature",
   "geometry": {
    "type": "Point",
    "coordinates": [
     -0.0002628532724164161,
     -0.00012369984522084553
    ]
   },
   "properties": {
    "classname": "item_ammopack_medium",
    "team": "0",
    "targetname": "",
    "hx": -1536.0,
    "hy": -722.848,
    "hz": -49.736
   }
  },
  {
   "type": "Feature",
   "geometry": {
    "type": "Point",
    "coordinates": [
     -0.00013556161252408218,
     -9.228768126812906e-05
    ]
   },
   "properties": {
    "classname": "item_healthkit_medium",
    "team": "0",
    "targetname": "",
    "hx": -792.163,
    "hy": -539.289,
    "hz": -86.0287
   }
  },
  {
   "type": "Feature",
   "geometry": {
    "type": "Point",
    "coordinates": [
     -0.00036416130450053226,
     -0.00037511352417671955
    ]
   },
   "properties": {
    "classname": "team_control_point",
    "team": "",
    "targetname": "cp_b",
    "hx": -2128.0,
    "hy": -2192.0,
    "hz": 44.0
   }
  },
  {
   "type": "Feature",
   "geometry": {
    "type": "Point",
    "coordinates": [
     -0.00046546933657941043,
     -0.00037100644179522264
    ]
   },
   "properties": {
    "classname": "item_healthkit_medium",
    "team": "0",
    "targetname": "",
    "hx": -2720.0,
    "hy": -2168.0,
    "hz": -241.258
   }
  },
  {
   "type": "Feature",
   "geometry": {
    "type": "Point",
    "coordinates": [
     -0.0003285665905375442,
     -0.0005962268606062349
    ]
   },
   "properties": {
    "classname": "info_player_teamspawn",
    "team": "2",
    "targetname": "red_spawn1_spawns",
    "hx": -1920.0,
    "hy": -3484.09,
    "hz": 41.0
   }
  },
  {
   "type": "Feature",
   "geometry": {
    "type": "Point",
    "coordinates": [
     -0.0003614232495912986,
     -0.0005962268606062349
    ]
   },
   "properties": {
    "classname": "info_player_teamspawn",
    "team": "2",
    "targetname": "red_spawn1_spawns",
    "hx": -2112.0,
    "hy": -3484.09,
    "hz": 41.0
   }
  },
  {
   "type": "Feature",
   "geometry": {
    "type": "Point",
    "coordinates": [
     -0.0003504710299067138,
     -0.0005962268606062349
    ]
   },
   "properties": {
    "classname": "info_player_teamspawn",
    "team": "2",
    "targetname": "red_spawn1_spawns",
    "hx": -2048.0,
    "hy": -3484.09,
    "hz": 41.0
   }
  },
  {
   "type": "Feature",
   "geometry": {
    "type": "Point",
    "coordinates": [
     -0.000339518810222129,
     -0.0005962268606062349
    ]
   },
   "properties": {
    "classname": "info_player_teamspawn",
    "team": "2",
    "targetname": "red_spawn1_spawns",
    "hx": -1984.0,
    "hy": -3484.09,
    "hz": 41.0
   }
  },
  {
   "type": "Feature",
   "geometry": {
    "type": "Point",
    "coordinates": [
     -0.0003285665905390451,
     -0.0006208693548952164
    ]
   },
   "properties": {
    "classname": "info_player_teamspawn",
    "team": "2",
    "targetname": "red_spawn1_spawns",
    "hx": -1920.0,
    "hy": -3628.09,
    "hz": 41.0
   }
  },
  {
   "type": "Feature",
   "geometry": {
    "type": "Point",
    "coordinates": [
     -0.0003614232495929496,
     -0.0006208693548952164
    ]
   },
   "properties": {
    "classname": "info_player_teamspawn",
    "team": "2",
    "targetname": "red_spawn1_spawns",
    "hx": -2112.0,
    "hy": -3628.09,
    "hz": 41.0
   }
  },
  {
   "type": "Feature",
   "geometry": {
    "type": "Point",
    "coordinates": [
     -0.00035047102990831474,
     -0.0006208693548952164
    ]
   },
   "properties": {
    "classname": "info_player_teamspawn",
    "team": "2",
    "targetname": "red_spawn1_spawns",
    "hx": -2048.0,
    "hy": -3628.09,
    "hz": 41.0
   }
  },
  {
   "type": "Feature",
   "geometry": {
    "type": "Point",
    "coordinates": [
     -0.00033951881022367995,
     -0.0006208693548952164
    ]
   },
   "properties": {
    "classname": "info_player_teamspawn",
    "team": "2",
    "targetname": "red_spawn1_spawns",
    "hx": -1984.0,
    "hy": -3628.09,
    "hz": 41.0
   }
  },
  {
   "type": "Feature",
   "geometry": {
    "type": "Point",
    "coordinates": [
     -0.000328566590538287,
     -0.0006085481077507256
    ]
   },
   "properties": {
    "classname": "info_player_teamspawn",
    "team": "2",
    "targetname": "red_spawn1_spawns",
    "hx": -1920.0,
    "hy": -3556.09,
    "hz": 41.0
   }
  },
  {
   "type": "Feature",
   "geometry": {
    "type": "Point",
    "coordinates": [
     -0.0003614232495921158,
     -0.0006085481077507256
    ]
   },
   "properties": {
    "classname": "info_player_teamspawn",
    "team": "2",
    "targetname": "red_spawn1_spawns",
    "hx": -2112.0,
    "hy": -3556.09,
    "hz": 41.0
   }
  },
  {
   "type": "Feature",
   "geometry": {
    "type": "Point",
    "coordinates": [
     -0.0003504710299075062,
     -0.0006085481077507256
    ]
   },
   "properties": {
    "classname": "info_player_teamspawn",
    "team": "2",
    "targetname": "red_spawn1_spawns",
    "hx": -2048.0,
    "hy": -3556.09,
    "hz": 41.0
   }
  },
  {
   "type": "Feature",
   "geometry": {
    "type": "Point",
    "coordinates": [
     -0.0003395188102228966,
     -0.0006085481077507256
    ]
   },
   "properties": {
    "classname": "info_player_teamspawn",
    "team": "2",
    "targetname": "red_spawn1_spawns",
    "hx": -1984.0,
    "hy": -3556.09,
    "hz": 41.0
   }
  },
  {
   "type": "Feature",
   "geometry": {
    "type": "Point",
    "coordinates": [
     -6.857869258025362e-05,
     0.00037621559128242125
    ]
   },
   "properties": {
    "classname": "info_player_teamspawn",
    "team": "3",
    "targetname": "blu_spawn2_spawns",
    "hx": -400.744,
    "hy": 2198.44,
    "hz": -231.0
   }
  },
  {
   "type": "Feature",
   "geometry": {
    "type": "Point",
    "coordinates": [
     -0.00010015137500337746,
     0.0003747541544683386
    ]
   },
   "properties": {
    "classname": "info_player_teamspawn",
    "team": "3",
    "targetname": "blu_spawn2_spawns",
    "hx": -585.241,
    "hy": 2189.9,
    "hz": -231.0
   }
  },
  {
   "type": "Feature",
   "geometry": {
    "type": "Point",
    "coordinates": [
     -8.850933660748917e-05,
     0.0003758870246919015
    ]
   },
   "properties": {
    "classname": "info_player_teamspawn",
    "team": "3",
    "targetname": "blu_spawn2_spawns",
    "hx": -517.21,
    "hy": 2196.52,
    "hz": -231.0
   }
  },
  {
   "type": "Feature",
   "geometry": {
    "type": "Point",
    "coordinates": [
     -7.854401459387156e-05,
     0.00037605130798716135
    ]
   },
   "properties": {
    "classname": "info_player_teamspawn",
    "team": "3",
    "targetname": "blu_spawn2_spawns",
    "hx": -458.977,
    "hy": 2197.48,
    "hz": -231.0
   }
  },
  {
   "type": "Feature",
   "geometry": {
    "type": "Point",
    "coordinates": [
     -6.221100360463839e-05,
     0.0003990715047354517
    ]
   },
   "properties": {
    "classname": "info_player_teamspawn",
    "team": "3",
    "targetname": "blu_spawn2_spawns",
    "hx": -363.534,
    "hy": 2332.0,
    "hz": -231.0
   }
  },
  {
   "type": "Feature",
   "geometry": {
    "type": "Point",
    "coordinates": [
     -9.377341832190432e-05,
     0.00039855640815343883
    ]
   },
   "properties": {
    "classname": "info_player_teamspawn",
    "team": "3",
    "targetname": "blu_spawn2_spawns",
    "hx": -547.971,
    "hy": 2328.99,
    "hz": -231.0
   }
  },
  {
   "type": "Feature",
   "geometry": {
    "type": "Point",
    "coordinates": [
     -8.214164763192778e-05,
     0.0003987429381449319
    ]
   },
   "properties": {
    "classname": "info_player_teamspawn",
    "team": "3",
    "targetname": "blu_spawn2_spawns",
    "hx": -480.0,
    "hy": 2330.08,
    "hz": -231.0
   }
  },
  {
   "type": "Feature",
   "geometry": {
    "type": "Point",
    "coordinates": [
     -7.217632561828328e-05,
     0.00039890722144019175
    ]
   },
   "properties": {
    "classname": "info_player_teamspawn",
    "team": "3",
    "targetname": "blu_spawn2_spawns",
    "hx": -421.767,
    "hy": 2331.04,
    "hz": -231.0
   }
  },
  {
   "type": "Feature",
   "geometry": {
    "type": "Point",
    "coordinates": [
     -6.538971423947566e-05,
     0.00038811757376713417
    ]
   },
   "properties": {
    "classname": "info_player_teamspawn",
    "team": "3",
    "targetname": "blu_spawn2_spawns",
    "hx": -382.109,
    "hy": 2267.99,
    "hz": -231.0
   }
  },
  {
   "type": "Feature",
   "geometry": {
    "type": "Point",
    "coordinates": [
     -9.696239666264327e-05,
     0.0003866561369530515
    ]
   },
   "properties": {
    "classname": "info_player_teamspawn",
    "team": "3",
    "targetname": "blu_spawn2_spawns",
    "hx": -566.606,
    "hy": 2259.45,
    "hz": -231.0
   }
  },
  {
   "type": "Feature",
   "geometry": {
    "type": "Point",
    "coordinates": [
     -8.532035826673883e-05,
     0.00038778729589228887
    ]
   },
   "properties": {
    "classname": "info_player_teamspawn",
    "team": "3",
    "targetname": "blu_spawn2_spawns",
    "hx": -498.575,
    "hy": 2266.06,
    "hz": -231.0
   }
  },
  {
   "type": "Feature",
   "geometry": {
    "type": "Point",
    "coordinates": [
     -7.535503625310744e-05,
     0.0003879532904718744
    ]
   },
   "properties": {
    "classname": "info_player_teamspawn",
    "team": "3",
    "targetname": "blu_spawn2_spawns",
    "hx": -440.342,
    "hy": 2267.03,
    "hz": -231.0
   }
  },
  {
   "type": "Feature",
   "geometry": {
    "type": "Point",
    "coordinates": [
     -9.58319222365041e-05,
     -0.0003285665905197544
    ]
   },
   "properties": {
    "classname": "info_player_teamspawn",
    "team": "3",
    "targetname": "blu_spawn3_spawns",
    "hx": -560.0,
    "hy": -1920.0,
    "hz": 65.0
   }
  },
  {
   "type": "Feature",
   "geometry": {
    "type": "Point",
    "coordinates": [
     -6.297526318398841e-05,
     -0.0003285665905197544
    ]
   },
   "properties": {
    "classname": "info_player_teamspawn",
    "team": "3",
    "targetname": "blu_spawn3_spawns",
    "hx": -368.0,
    "hy": -1920.0,
    "hz": 65.0
   }
  },
  {
   "type": "Feature",
   "geometry": {
    "type": "Point",
    "coordinates": [
     -7.392748286816029e-05,
     -0.0003285665905197544
    ]
   },
   "properties": {
    "classname": "info_player_teamspawn",
    "team": "3",
    "targetname": "blu_spawn3_spawns",
    "hx": -432.0,
    "hy": -1920.0,
    "hz": 65.0
   }
  },
  {
   "type": "Feature",
   "geometry": {
    "type": "Point",
    "coordinates": [
     -8.48797025523322e-05,
     -0.0003285665905197544
    ]
   },
   "properties": {
    "classname": "info_player_teamspawn",
    "team": "3",
    "targetname": "blu_spawn3_spawns",
    "hx": -496.0,
    "hy": -1920.0,
    "hz": 65.0
   }
  },
  {
   "type": "Feature",
   "geometry": {
    "type": "Point",
    "coordinates": [
     -9.58319222362766e-05,
     -0.00030392409623077277
    ]
   },
   "properties": {
    "classname": "info_player_teamspawn",
    "team": "3",
    "targetname": "blu_spawn3_spawns",
    "hx": -560.0,
    "hy": -1776.0,
    "hz": 65.0
   }
  },
  {
   "type": "Feature",
   "geometry": {
    "type": "Point",
    "coordinates": [
     -6.297526318383891e-05,
     -0.00030392409623077277
    ]
   },
   "properties": {
    "classname": "info_player_teamspawn",
    "team": "3",
    "targetname": "blu_spawn3_spawns",
    "hx": -368.0,
    "hy": -1776.0,
    "hz": 65.0
   }
  },
  {
   "type": "Feature",
   "geometry": {
    "type": "Point",
    "coordinates": [
     -7.39274828679848e-05,
     -0.00030392409623077277
    ]
   },
   "properties": {
    "classname": "info_player_teamspawn",
    "team": "3",
    "targetname": "blu_spawn3_spawns",
    "hx": -432.0,
    "hy": -1776.0,
    "hz": 65.0
   }
  },
  {
   "type": "Feature",
   "geometry": {
    "type": "Point",
    "coordinates": [
     -8.48797025521307e-05,
     -0.00030392409623077277
    ]
   },
   "properties": {
    "classname": "info_player_teamspawn",
    "team": "3",
    "targetname": "blu_spawn3_spawns",
    "hx": -496.0,
    "hy": -1776.0,
    "hz": 65.0
   }
  },
  {
   "type": "Feature",
   "geometry": {
    "type": "Point",
    "coordinates": [
     -9.583192223638813e-05,
     -0.00031624534337526354
    ]
   },
   "properties": {
    "classname": "info_player_teamspawn",
    "team": "3",
    "targetname": "blu_spawn3_spawns",
    "hx": -560.0,
    "hy": -1848.0,
    "hz": 65.0
   }
  },
  {
   "type": "Feature",
   "geometry": {
    "type": "Point",
    "coordinates": [
     -6.29752631839122e-05,
     -0.00031624534337526354
    ]
   },
   "properties": {
    "classname": "info_player_teamspawn",
    "team": "3",
    "targetname": "blu_spawn3_spawns",
    "hx": -368.0,
    "hy": -1848.0,
    "hz": 65.0
   }
  },
  {
   "type": "Feature",
   "geometry": {
    "type": "Point",
    "coordinates": [
     -7.392748286807083e-05,
     -0.00031624534337526354
    ]
   },
   "properties": {
    "classname": "info_player_teamspawn",
    "team": "3",
    "targetname": "blu_spawn3_spawns",
    "hx": -432.0,
    "hy": -1848.0,
    "hz": 65.0
   }
  },
  {
   "type": "Feature",
   "geometry": {
    "type": "Point",
    "coordinates": [
     -8.487970255222948e-05,
     -0.00031624534337526354
    ]
   },
   "properties": {
    "classname": "info_player_teamspawn",
    "team": "3",
    "targetname": "blu_spawn3_spawns",
    "hx": -496.0,
    "hy": -1848.0,
    "hz": 65.0
   }
  },
  {
   "type": "Feature",
   "geometry": {
    "type": "Point",
    "coordinates": [
     -0.000179342597334788,
     -0.0005873127805540608
    ]
   },
   "properties": {
    "classname": "item_ammopack_small",
    "team": "0",
    "targetname": "",
    "hx": -1048.0,
    "hy": -3432.0,
    "hz": -273.283
   }
  },
  {
   "type": "Feature",
   "geometry": {
    "type": "Point",
    "coordinates": [
     -0.0001848187071770716,
     -0.0005873127805540608
    ]
   },
   "properties": {
    "classname": "item_healthkit_medium",
    "team": "0",
    "targetname": "",
    "hx": -1080.0,
    "hy": -3432.0,
    "hz": -273.283
   }
  },
  {
   "type": "Feature",
   "geometry": {
    "type": "Point",
    "coordinates": [
     2.738054921023843e-06,
     0.0002491629978108137
    ]
   },
   "properties": {
    "classname": "item_ammopack_medium",
    "team": "0",
    "targetname": "",
    "hx": 16.0,
    "hy": 1456.0,
    "hz": -349.993
   }
  },
  {
   "type": "Feature",
   "geometry": {
    "type": "Point",
    "coordinates": [
     -0.00014417827139063052,
     -0.0011754966048298644
    ]
   },
   "properties": {
    "classname": "info_player_teamspawn",
    "team": "2",
    "targetname": "red_spawn3_spawns",
    "hx": -842.515,
    "hy": -6869.09,
    "hz": 105.0
   }
  },
  {
   "type": "Feature",
   "geometry": {
    "type": "Point",
    "coordinates": [
     -0.00013324042649264455,
     -0.0011749216132964546
    ]
   },
   "properties": {
    "classname": "info_player_teamspawn",
    "team": "2",
    "targetname": "red_spawn3_spawns",
    "hx": -778.599,
    "hy": -6865.73,
    "hz": 105.0
   }
  },
  {
   "type": "Feature",
   "geometry": {
    "type": "Point",
    "coordinates": [
     -7.575633244165127e-05,
     -0.001174348333047371
    ]
   },
   "properties": {
    "classname": "info_player_teamspawn",
    "team": "2",
    "targetname": "red_spawn3_spawns",
    "hx": -442.687,
    "hy": -6862.38,
    "hz": 105.0
   }
  },
  {
   "type": "Feature",
   "geometry": {
    "type": "Point",
    "coordinates": [
     -6.482653058000943e-05,
     -0.0011734892683159077
    ]
   },
   "properties": {
    "classname": "info_player_teamspawn",
    "team": "2",
    "targetname": "red_spawn3_spawns",
    "hx": -378.818,
    "hy": -6857.36,
    "hz": 105.0
   }
  },
  {
   "type": "Feature",
   "geometry": {
    "type": "Point",
    "coordinates": [
     -0.00014477465397790202,
     -0.0011690382177849605
    ]
   },
   "properties": {
    "classname": "info_player_teamspawn",
    "team": "2",
    "targetname": "red_spawn3_spawns",
    "hx": -846.0,
    "hy": -6831.35,
    "hz": 105.0
   }
  },
  {
   "type": "Feature",
   "geometry": {
    "type": "Point",
    "coordinates": [
     -0.00013383698020837397,
     -0.0011684649375358763
    ]
   },
   "properties": {
    "classname": "info_player_teamspawn",
    "team": "2",
    "targetname": "red_spawn3_spawns",
    "hx": -782.085,
    "hy": -6828.0,
    "hz": 105.0
   }
  },
  {
   "type": "Feature",
   "geometry": {
    "type": "Point",
    "coordinates": [
     -7.630086311400964e-05,
     -0.0011681226806707517
    ]
   },
   "properties": {
    "classname": "info_player_teamspawn",
    "team": "2",
    "targetname": "red_spawn3_spawns",
    "hx": -445.869,
    "hy": -6826.0,
    "hz": 105.0
   }
  },
  {
   "type": "Feature",
   "geometry": {
    "type": "Point",
    "coordinates": [
     -6.537106125239197e-05,
     -0.001167261904654963
    ]
   },
   "properties": {
    "classname": "info_player_teamspawn",
    "team": "2",
    "targetname": "red_spawn3_spawns",
    "hx": -382.0,
    "hy": -6820.97,
    "hz": 105.0
   }
  },
  {
   "type": "Feature",
   "geometry": {
    "type": "Point",
    "coordinates": [
     -0.0001670064620420458,
     -0.00116972273151521
    ]
   },
   "properties": {
    "classname": "info_player_teamspawn",
    "team": "2",
    "targetname": "red_spawn3_spawns",
    "hx": -975.913,
    "hy": -6835.35,
    "hz": 105.0
   }
  },
  {
   "type": "Feature",
   "geometry": {
    "type": "Point",
    "coordinates": [
     -0.00015606913052937572,
     -0.0011691494512661258
    ]
   },
   "properties": {
    "classname": "info_player_teamspawn",
    "team": "2",
    "targetname": "red_spawn3_spawns",
    "hx": -912.0,
    "hy": -6832.0,
    "hz": 105.0
   }
  },
  {
   "type": "Feature",
   "geometry": {
    "type": "Point",
    "coordinates": [
     -5.473868060674301e-05,
     -0.0011718875061871238
    ]
   },
   "properties": {
    "classname": "info_player_teamspawn",
    "team": "2",
    "targetname": "red_spawn3_spawns",
    "hx": -319.869,
    "hy": -6848.0,
    "hz": 105.0
   }
  },
  {
   "type": "Feature",
   "geometry": {
    "type": "Point",
    "coordinates": [
     -4.380887874511726e-05,
     -0.0011710284414556606
    ]
   },
   "properties": {
    "classname": "info_player_teamspawn",
    "team": "2",
    "targetname": "red_spawn3_spawns",
    "hx": -256.0,
    "hy": -6842.98,
    "hz": 105.0
   }
  },
  {
   "type": "Feature",
   "geometry": {
    "type": "Point",
    "coordinates": [
     -0.0002717519509394466,
     -0.0008570111902723593
    ]
   },
   "properties": {
    "classname": "item_healthkit_medium",
    "team": "0",
    "targetname": "",
    "hx": -1588.0,
    "hy": -5008.0,
    "hz": 105.0
   }
  },
  {
   "type": "Feature",
   "geometry": {
    "type": "Point",
    "coordinates": [
     -0.00022452050354857884,
     -0.0008843917394823387
    ]
   },
   "properties": {
    "classname": "item_ammopack_medium",
    "team": "0",
    "targetname": "",
    "hx": -1312.0,
    "hy": -5168.0,
    "hz": -151.0
   }
  },
  {
   "type": "Feature",
   "geometry": {
    "type": "Point",
    "coordinates": [
     -0.0005417344338655779,
     0.000697822388449864
    ]
   },
   "properties": {
    "classname": "info_player_teamspawn",
    "team": "3",
    "targetname": "blu_spawn1_spawns",
    "hx": -3165.66,
    "hy": 4077.77,
    "hz": -234.053
   }
  },
  {
   "type": "Feature",
   "geometry": {
    "type": "Point",
    "coordinates": [
     -0.0005378600861534177,
     0.0007094385864521977
    ]
   },
   "properties": {
    "classname": "info_player_teamspawn",
    "team": "3",
    "targetname": "blu_spawn1_spawns",
    "hx": -3143.02,
    "hy": 4145.65,
    "hz": -234.053
   }
  },
  {
   "type": "Feature",
   "geometry": {
    "type": "Point",
    "coordinates": [
     -0.0005301165245784944,
     0.0007016950248787503
    ]
   },
   "properties": {
    "classname": "info_player_teamspawn",
    "team": "3",
    "targetname": "blu_spawn1_spawns",
    "hx": -3097.77,
    "hy": 4100.4,
    "hz": -234.053
   }
  },
  {
   "type": "Feature",
   "geometry": {
    "type": "Point",
    "coordinates": [
     -0.0005224756400631452,
     0.0006938949909225576
    ]
   },
   "properties": {
    "classname": "info_player_teamspawn",
    "team": "3",
    "targetname": "blu_spawn1_spawns",
    "hx": -3053.12,
    "hy": 4054.82,
    "hz": -234.053
   }
  },
  {
   "type": "Feature",
   "geometry": {
    "type": "Point",
    "coordinates": [
     -0.0005263482764910341,
     0.0006822787929202238
    ]
   },
   "properties": {
    "classname": "info_player_teamspawn",
    "team": "3",
    "targetname": "blu_spawn1_spawns",
    "hx": -3075.75,
    "hy": 3986.94,
    "hz": -234.053
   }
  },
  {
   "type": "Feature",
   "geometry": {
    "type": "Point",
    "coordinates": [
     -0.0005339891610063564,
     0.0006900788268764166
    ]
   },
   "properties": {
    "classname": "info_player_teamspawn",
    "team": "3",
    "targetname": "blu_spawn1_spawns",
    "hx": -3120.4,
    "hy": 4032.52,
    "hz": -234.053
   }
  },
  {
   "type": "Feature",
   "geometry": {
    "type": "Point",
    "coordinates": [
     -0.0005456053590090899,
     0.0006862061904475301
    ]
   },
   "properties": {
    "classname": "info_player_teamspawn",
    "team": "3",
    "targetname": "blu_spawn1_spawns",
    "hx": -3188.28,
    "hy": 4009.89,
    "hz": -234.053
   }
  },
  {
   "type": "Feature",
   "geometry": {
    "type": "Point",
    "coordinates": [
     -0.0005379644744937598,
     0.0006784061564913371
    ]
   },
   "properties": {
    "classname": "info_player_teamspawn",
    "team": "3",
    "targetname": "blu_spawn1_spawns",
    "hx": -3143.63,
    "hy": 3964.31,
    "hz": -234.053
   }
  },
  {
   "type": "Feature",
   "geometry": {
    "type": "Point",
    "coordinates": [
     -0.0005533489205839933,
     0.0006939497520209774
    ]
   },
   "properties": {
    "classname": "info_player_teamspawn",
    "team": "3",
    "targetname": "blu_spawn1_spawns",
    "hx": -3233.53,
    "hy": 4055.14,
    "hz": -234.053
   }
  },
  {
   "type": "Feature",
   "geometry": {
    "type": "Point",
    "coordinates": [
     -0.0005529245220695818,
     0.0006798983964232811
    ]
   },
   "properties": {
    "classname": "info_player_teamspawn",
    "team": "3",
    "targetname": "blu_spawn1_spawns",
    "hx": -3231.05,
    "hy": 3973.03,
    "hz": -234.053
   }
  },
  {
   "type": "Feature",
   "geometry": {
    "type": "Point",
    "coordinates": [
     -0.0005612088494896659,
     0.0006726014800588216
    ]
   },
   "properties": {
    "classname": "info_player_teamspawn",
    "team": "3",
    "targetname": "blu_spawn1_spawns",
    "hx": -3279.46,
    "hy": 3930.39,
    "hz": -234.053
   }
  },
  {
   "type": "Feature",
   "geometry": {
    "type": "Point",
    "coordinates": [
     -0.0005475955826783946,
     0.0006726322831766829
    ]
   },
   "properties": {
    "classname": "info_player_teamspawn",
    "team": "3",
    "targetname": "blu_spawn1_spawns",
    "hx": -3199.91,
    "hy": 3930.57,
    "hz": -234.053
   }
  },
  {
   "type": "Feature",
   "geometry": {
    "type": "Point",
    "coordinates": [
     -0.0005548308928069182,
     0.0006663381794270387
    ]
   },
   "properties": {
    "classname": "info_player_teamspawn",
    "team": "3",
    "targetname": "blu_spawn1_spawns",
    "hx": -3242.19,
    "hy": 3893.79,
    "hz": -234.053
   }
  },
  {
   "type": "Feature",
   "geometry": {
    "type": "Point",
    "coordinates": [
     -0.0005694110352637968,
     0.0006798590368837918
    ]
   },
   "properties": {
    "classname": "info_player_teamspawn",
    "team": "3",
    "targetname": "blu_spawn1_spawns",
    "hx": -3327.39,
    "hy": 3972.8,
    "hz": -234.053
   }
  },
  {
   "type": "Feature",
   "geometry": {
    "type": "Point",
    "coordinates": [
     -0.0005611284191280472,
     0.0006871542419639257
    ]
   },
   "properties": {
    "classname": "info_player_teamspawn",
    "team": "3",
    "targetname": "blu_spawn1_spawns",
    "hx": -3278.99,
    "hy": 4015.43,
    "hz": -234.053
   }
  },
  {
   "type": "Feature",
   "geometry": {
    "type": "Point",
    "coordinates": [
     -0.0005754107981074083,
     0.0006590001922387642
    ]
   },
   "properties": {
    "classname": "info_player_teamspawn",
    "team": "3",
    "targetname": "blu_spawn1_spawns",
    "hx": -3362.45,
    "hy": 3850.91,
    "hz": -234.053
   }
  },
  {
   "type": "Feature",
   "geometry": {
    "type": "Point",
    "coordinates": [
     -0.0005664727600740936,
     0.0006590806226020686
    ]
   },
   "properties": {
    "classname": "info_player_teamspawn",
    "team": "3",
    "targetname": "blu_spawn1_spawns",
    "hx": -3310.22,
    "hy": 3851.38,
    "hz": -234.053
   }
  },
  {
   "type": "Feature",
   "geometry": {
    "type": "Point",
    "coordinates": [
     -0.0005621158301795753,
     0.0006484313002437121
    ]
   },
   "properties": {
    "classname": "info_player_teamspawn",
    "team": "3",
    "targetname": "blu_spawn1_spawns",
    "hx": -3284.76,
    "hy": 3789.15,
    "hz": -234.053
   }
  },
  {
   "type": "Feature",
   "geometry": {
    "type": "Point",
    "coordinates": [
     -0.0005698166096448662,
     0.0006438929742121581
    ]
   },
   "properties": {
    "classname": "info_player_teamspawn",
    "team": "3",
    "targetname": "blu_spawn1_spawns",
    "hx": -3329.76,
    "hy": 3762.63,
    "hz": -234.053
   }
  },
  {
   "type": "Feature",
   "geometry": {
    "type": "Point",
    "coordinates": [
     -0.00010678414193004079,
     -0.0008268925861413817
    ]
   },
   "properties": {
    "classname": "item_healthkit_small",
    "team": "0",
    "targetname": "",
    "hx": -624.0,
    "hy": -4832.0,
    "hz": 169.0
   }
  },
  {
   "type": "Feature",
   "geometry": {
    "type": "Point",
    "coordinates": [
     -0.00025675083251122297,
     -0.0001232124714449079
    ]
   },
   "properties": {
    "classname": "item_healthkit_small",
    "team": "0",
    "targetname": "",
    "hx": -1500.34,
    "hy": -720.0,
    "hz": -49.736
   }
  },
  {
   "type": "Feature",
   "geometry": {
    "type": "Point",
    "coordinates": [
     -2.7380549210232773e-06,
     0.0002464249428898158
    ]
   },
   "properties": {
    "classname": "item_healthkit_medium",
    "team": "0",
    "targetname": "",
    "hx": -16.0,
    "hy": 1440.0,
    "hz": -349.993
   }
  },
  {
   "type": "Feature",
   "geometry": {
    "type": "Point",
    "coordinates": [
     -0.0001397854044965731,
     -8.731160870608042e-05
    ]
   },
   "properties": {
    "classname": "item_ammopack_medium",
    "team": "0",
    "targetname": "",
    "hx": -816.845,
    "hy": -510.211,
    "hz": -86.0287
   }
  },
  {
   "type": "Feature",
   "geometry": {
    "type": "Point",
    "coordinates": [
     -0.0002535062374455283,
     0.000649369084054154
    ]
   },
   "properties": {
    "classname": "item_healthkit_medium",
    "team": "0",
    "targetname": "",
    "hx": -1481.38,
    "hy": 3794.63,
    "hz": -119.0
   }
  },
  {
   "type": "Feature",
   "geometry": {
    "type": "Point",
    "coordinates": [
     -0.00022802692511839285,
     -0.0006201694396060363
    ]
   },
   "properties": {
    "classname": "item_ammopack_medium",
    "team": "0",
    "targetname": "",
    "hx": -1332.49,
    "hy": -3624.0,
    "hz": 41.0
   }
  },
  {
   "type": "Feature",
   "geometry": {
    "type": "Point",
    "coordinates": [
     -0.0003641613045070362,
     -0.0005079091878451203
    ]
   },
   "properties": {
    "classname": "item_ammopack_medium",
    "team": "0",
    "targetname": "",
    "hx": -2128.0,
    "hy": -2968.0,
    "hz": 41.0
   }
  },
  {
   "type": "Feature",
   "geometry": {
    "type": "Point",
    "coordinates": [
     -0.00017249746002289488,
     3.0118604130977485e-05
    ]
   },
   "properties": {
    "classname": "item_healthkit_medium",
    "team": "0",
    "targetname": "",
    "hx": -1008.0,
    "hy": 176.0,
    "hz": -128.0
   }
  },
  {
   "type": "Feature",
   "geometry": {
    "type": "Point",
    "coordinates": [
     -0.00017249746002290432,
     3.5594713972973386e-05
    ]
   },
   "properties": {
    "classname": "item_ammopack_medium",
    "team": "0",
    "targetname": "",
    "hx": -1008.0,
    "hy": 208.0,
    "hz": -128.0
   }
  },
  {
   "type": "Feature",
   "geometry": {
    "type": "Point",
    "coordinates": [
     -7.666553778967076e-05,
     0.00038469671640021245
    ]
   },
   "properties": {
    "classname": "item_healthkit_small",
    "team": "0",
    "targetname": "",
    "hx": -448.0,
    "hy": 2248.0,
    "hz": -55.0
   }
  },
  {
   "type": "Feature",
   "geometry": {
    "type": "Point",
    "coordinates": [
     -0.00038332768898651653,
     -0.0008953439591663306
    ]
   },
   "properties": {
    "classname": "item_ammopack_small",
    "team": "0",
    "targetname": "",
    "hx": -2240.0,
    "hy": -5232.0,
    "hz": -151.0
   }
  },
  {
   "type": "Feature",
   "geometry": {
    "type": "Point",
    "coordinates": [
     -6.160623572956752e-05,
     -0.0008707014648773491
    ]
   },
   "properties": {
    "classname": "item_healthkit_medium",
    "team": "0",
    "targetname": "",
    "hx": -360.0,
    "hy": -5088.0,
    "hz": 169.0
   }
  },
  {
   "type": "Feature",
   "geometry": {
    "type": "Point",
    "coordinates": [
     -0.00035047102991933707,
     -0.0007693934328004249
    ]
   },
   "properties": {
    "classname": "item_healthkit_medium",
    "team": "0",
    "targetname": "",
    "hx": -2048.0,
    "hy": -4496.0,
    "hz": 200.0
   }
  },
  {
   "type": "Feature",
   "geometry": {
    "type": "Point",
    "coordinates": [
     -0.00011033984849208385,
     0.0002868386335237456
    ]
   },
   "properties": {
    "classname": "item_healthkit_small",
    "team": "0",
    "targetname": "",
    "hx": -644.778,
    "hy": 1676.16,
    "hz": -224.0
   }
  },
  {
   "type": "Feature",
   "geometry": {
    "type": "Point",
    "coordinates": [
     -0.0001556960705142504,
     0.00012201457241697129
    ]
   },
   "properties": {
    "classname": "item_healthkit_small",
    "team": "0",
    "targetname": "",
    "hx": -909.82,
    "hy": 713.0,
    "hz": -34.0
   }
  },
  {
   "type": "Feature",
   "geometry": {
    "type": "Point",
    "coordinates": [
     -0.00030940020607999306,
     0.0003915418537027073
    ]
   },
   "properties": {
    "classname": "item_healthkit_medium",
    "team": "0",
    "targetname": "",
    "hx": -1808.0,
    "hy": 2288.0,
    "hz": -119.0
   }
  },
  {
   "type": "Feature",
   "geometry": {
    "type": "Point",
    "coordinates": [
     -0.0002573771625901412,
     0.0006454964476252674
    ]
   },
   "properties": {
    "classname": "item_ammopack_small",
    "team": "0",
    "targetname": "",
    "hx": -1504.0,
    "hy": 3772.0,
    "hz": -119.0
   }
  },
  {
   "type": "Feature",
   "geometry": {
    "type": "Point",
    "coordinates": [
     -0.00030392409623786925,
     0.0003915418537027073
    ]
   },
   "properties": {
    "classname": "item_ammopack_medium",
    "team": "0",
    "targetname": "",
    "hx": -1776.0,
    "hy": 2288.0,
    "hz": -119.0
   }
  },
  {
   "type": "Feature",
   "geometry": {
    "type": "Point",
    "coordinates": [
     -0.00033541172785535333,
     -0.0008049881467733982
    ]
   },
   "properties": {
    "classname": "item_ammopack_medium",
    "team": "0",
    "targetname": "",
    "hx": -1960.0,
    "hy": -4704.0,
    "hz": -120.0
   }
  },
  {
   "type": "Feature",
   "geometry": {
    "type": "Point",
    "coordinates": [
     -0.0001998780092342059,
     0.00021099622349642788
    ]
   },
   "properties": {
    "classname": "item_healthkit_medium",
    "team": "0",
    "targetname": "",
    "hx": -1168.0,
    "hy": 1232.97,
    "hz": -24.0
   }
  },
  {
   "type": "Feature",
   "geometry": {
    "type": "Point",
    "coordinates": [
     -0.00027791257451238114,
     -0.0008570111902723593
    ]
   },
   "properties": {
    "classname": "item_ammopack_medium",
    "team": "0",
    "targetname": "",
    "hx": -1624.0,
    "hy": -5008.0,
    "hz": 105.0
   }
  },
  {
   "type": "Feature",
   "geometry": {
    "type": "Point",
    "coordinates": [
     5.886818080153716e-05,
     9.514740850467887e-05
    ]
   },
   "properties": {
    "classname": "item_ammopack_medium",
    "team": "0",
    "targetname": "",
    "hx": 344.0,
    "hy": 556.0,
    "hz": -354.193
   }
  },
  {
   "type": "Feature",
   "geometry": {
    "type": "Point",
    "coordinates": [
     -7.66655377896219e-05,
     0.0003792206065582165
    ]
   },
   "properties": {
    "classname": "item_ammopack_medium",
    "team": "0",
    "targetname": "",
    "hx": -448.0,
    "hy": 2216.0,
    "hz": -55.0
   }
  },
  {
   "type": "Feature",
   "geometry": {
    "type": "Point",
    "coordinates": [
     -0.00011184355402897398,
     0.00028122904350435103
    ]
   },
   "properties": {
    "classname": "item_ammopack_small",
    "team": "0",
    "targetname": "",
    "hx": -653.565,
    "hy": 1643.38,
    "hz": -224.0
   }
  },
  {
   "type": "Feature",
   "geometry": {
    "type": "Point",
    "coordinates": [
     -0.00015569607051427458,
     0.00012612165479846822
    ]
   },
   "properties": {
    "classname": "item_ammopack_small",
    "team": "0",
    "targetname": "",
    "hx": -909.82,
    "hy": 737.0,
    "hz": -34.0
   }
  },
  {
   "type": "Feature",
   "geometry": {
    "type": "Point",
    "coordinates": [
     -0.00032309048071413256,
     -0.0008597492451933572
    ]
   },
   "properties": {
    "classname": "item_ammopack_small",
    "team": "0",
    "targetname": "",
    "hx": -1888.0,
    "hy": -5024.0,
    "hz": 200.0
   }
  },
  {
   "type": "Feature",
   "geometry": {
    "type": "Point",
    "coordinates": [
     -0.0002053541190762389,
     0.00021099622349642788
    ]
   },
   "properties": {
    "classname": "item_ammopack_medium",
    "team": "0",
    "targetname": "",
    "hx": -1200.0,
    "hy": 1232.97,
    "hz": -24.0
   }
  },
  {
   "type": "Feature",
   "geometry": {
    "type": "Point",
    "coordinates": [
     -5.2023043499252174e-05,
     0.0001916638444698567
    ]
   },
   "properties": {
    "classname": "team_control_point",
    "team": "",
    "targetname": "cp_a",
    "hx": -304.0,
    "hy": 1120.0,
    "hz": -224.0
   }
  },
  {
   "type": "Feature",
   "geometry": {
    "type": "Point",
    "coordinates": [
     -5.613012588693929e-05,
     -0.0008707014648773491
    ]
   },
   "properties": {
    "classname": "item_ammopack_medium",
    "team": "0",
    "targetname": "",
    "hx": -328.0,
    "hy": -5088.0,
    "hz": 169.0
   }
  },
  {
   "type": "Feature",
   "geometry": {
    "type": "Point",
    "coordinates": [
     -0.0001711284325677566,
     -0.0004545171168856602
    ]
   },
   "properties": {
    "classname": "item_ammopack_medium",
    "team": "0",
    "targetname": "",
    "hx": -1000.0,
    "hy": -2656.0,
    "hz": 105.0
   }
  },
  {
   "type": "Feature",
   "geometry": {
    "type": "Point",
    "coordinates": [
     -0.00010267705954811615,
     -0.0008268925861413817
    ]
   },
   "properties": {
    "classname": "item_ammopack_small",
    "team": "0",
    "targetname": "",
    "hx": -600.0,
    "hy": -4832.0,
    "hz": 169.0
   }
  },
  {
   "type": "Feature",
   "geometry": {
    "type": "Point",
    "coordinates": [
     -0.00022802692511821656,
     -0.0006160623572245393
    ]
   },
   "properties": {
    "classname": "item_healthkit_small",
    "team": "0",
    "targetname": "",
    "hx": -1332.49,
    "hy": -3600.0,
    "hz": 41.0
   }
  },
  {
   "type": "Feature",
   "geometry": {
    "type": "Point",
    "coordinates": [
     -0.0005311826546851537,
     -0.00037785157909771754
    ]
   },
   "properties": {
    "classname": "item_ammopack_small",
    "team": "0",
    "targetname": "",
    "hx": -3104.0,
    "hy": -2208.0,
    "hz": -39.0
   }
  },
  {
   "type": "Feature",
   "geometry": {
    "type": "Point",
    "coordinates": [
     -0.0003840122026739202,
     -0.00026011521749480553
    ]
   },
   "properties": {
    "classname": "item_ammopack_medium",
    "team": "0",
    "targetname": "",
    "hx": -2244.0,
    "hy": -1520.0,
    "hz": 169.0
   }
  },
  {
   "type": "Feature",
   "geometry": {
    "type": "Point",
    "coordinates": [
     -0.0002765435470255706,
     -0.0003367807552827482
    ]
   },
   "properties": {
    "classname": "item_healthkit_medium",
    "team": "0",
    "targetname": "",
    "hx": -1616.0,
    "hy": -1968.0,
    "hz": 153.0
   }
  },
  {
   "type": "Feature",
   "geometry": {
    "type": "Point",
    "coordinates": [
     -0.00026559132733936826,
     -0.0002519010527318117
    ]
   },
   "properties": {
    "classname": "item_healthkit_medium",
    "team": "0",
    "targetname": "",
    "hx": -1552.0,
    "hy": -1472.0,
    "hz": -7.0
   }
  },
  {
   "type": "Feature",
   "geometry": {
    "type": "Point",
    "coordinates": [
     -0.0005311826546848213,
     -0.0003723754692557216
    ]
   },
   "properties": {
    "classname": "item_healthkit_small",
    "team": "0",
    "targetname": "",
    "hx": -3104.0,
    "hy": -2176.0,
    "hz": -39.0
   }
  },
  {
   "type": "Feature",
   "geometry": {
    "type": "Point",
    "coordinates": [
     -0.00027038292345321873,
     -0.0003367807552827482
    ]
   },
   "properties": {
    "classname": "item_ammopack_full",
    "team": "0",
    "targetname": "",
    "hx": -1580.0,
    "hy": -1968.0,
    "hz": 153.0
   }
  },
  {
   "type": "Feature",
   "geometry": {
    "type": "Point",
    "coordinates": [
     -0.0003785360928318679,
     -0.00026011521749480553
    ]
   },
   "properties": {
    "classname": "item_healthkit_small",
    "team": "0",
    "targetname": "",
    "hx": -2212.0,
    "hy": -1520.0,
    "hz": 169.0
   }
  },
  {
   "type": "Feature",
   "geometry": {
    "type": "Point",
    "coordinates": [
     -0.0002710674371814171,
     -0.0002519010527318117
    ]
   },
   "properties": {
    "classname": "item_ammopack_medium",
    "team": "0",
    "targetname": "",
    "hx": -1584.0,
    "hy": -1472.0,
    "hz": -7.0
   }
  },
  {
   "type": "Feature",
   "geometry": {
    "type": "Point",
    "coordinates": [
     -0.00038606574390756093,
     -0.0008926059042453327
    ]
   },
   "properties": {
    "classname": "item_healthkit_small",
    "team": "0",
    "targetname": "",
    "hx": -2256.0,
    "hy": -5216.0,
    "hz": -151.0
   }
  },
  {
   "type": "Feature",
   "geometry": {
    "type": "Point",
    "coordinates": [
     -0.0001985089817958534,
     -0.0008816536845613408
    ]
   },
   "properties": {
    "classname": "team_control_point",
    "team": "",
    "targetname": "cp_c",
    "hx": -1160.0,
    "hy": -5152.0,
    "hz": 44.0
   }
  },
  {
   "type": "Feature",
   "geometry": {
    "type": "Point",
    "coordinates": [
     -0.00046546933657977386,
     -0.00037785157909771754
    ]
   },
   "properties": {
    "classname": "item_ammopack_medium",
    "team": "0",
    "targetname": "",
    "hx": -2720.0,
    "hy": -2208.0,
    "hz": -241.258
   }
  }
 ]
}
