{
 "type": "FeatureCollection",
 "note": "pseudo-WGS84 via crs.local_to_wgs84 ((0,0)m maps to (0,0)deg); viewing only, not survey",
 "features": [
  {
   "type": "Feature",
   "geometry": {
    "type": "Point",
    "coordinates": [
     -0.00011636733414585723,
     -0.0004408268422806704
    ]
   },
   "properties": {
    "classname": "info_player_teamspawn",
    "team": "0",
    "targetname": "",
    "hx": -680.0,
    "hy": -2576.0,
    "hz": -175.995
   }
  },
  {
   "type": "Feature",
   "geometry": {
    "type": "Point",
    "coordinates": [
     -0.00011636733414564664,
     -0.00042713656767568066
    ]
   },
   "properties": {
    "classname": "info_player_teamspawn",
    "team": "0",
    "targetname": "",
    "hx": -680.0,
    "hy": -2496.0,
    "hz": -175.995
   }
  },
  {
   "type": "Feature",
   "geometry": {
    "type": "Point",
    "coordinates": [
     -0.00011636733414544266,
     -0.00041344629307069086
    ]
   },
   "properties": {
    "classname": "info_player_teamspawn",
    "team": "0",
    "targetname": "",
    "hx": -680.0,
    "hy": -2416.0,
    "hz": -175.995
   }
  },
  {
   "type": "Feature",
   "geometry": {
    "type": "Point",
    "coordinates": [
     -0.00011636733414524533,
     -0.00039975601846570116
    ]
   },
   "properties": {
    "classname": "info_player_teamspawn",
    "team": "0",
    "targetname": "",
    "hx": -680.0,
    "hy": -2336.0,
    "hz": -175.995
   }
  },
  {
   "type": "Feature",
   "geometry": {
    "type": "Point",
    "coordinates": [
     -0.00013017192254352277,
     -0.00039975601846570116
    ]
   },
   "properties": {
    "classname": "info_player_teamspawn",
    "team": "0",
    "targetname": "",
    "hx": -760.668,
    "hy": -2336.0,
    "hz": -175.995
   }
  },
  {
   "type": "Feature",
   "geometry": {
    "type": "Point",
    "coordinates": [
     -0.0001301719225437435,
     -0.00041344629307069086
    ]
   },
   "properties": {
    "classname": "info_player_teamspawn",
    "team": "0",
    "targetname": "",
    "hx": -760.668,
    "hy": -2416.0,
    "hz": -175.995
   }
  },
  {
   "type": "Feature",
   "geometry": {
    "type": "Point",
    "coordinates": [
     -0.00013017192254397166,
     -0.00042713656767568066
    ]
   },
   "properties": {
    "classname": "info_player_teamspawn",
    "team": "0",
    "targetname": "",
    "hx": -760.668,
    "hy": -2496.0,
    "hz": -175.995
   }
  },
  {
   "type": "Feature",
   "geometry": {
    "type": "Point",
    "coordinates": [
     -0.00013017192254420723,
     -0.0004408268422806704
    ]
   },
   "properties": {
    "classname": "info_player_teamspawn",
    "team": "0",
    "targetname": "",
    "hx": -760.668,
    "hy": -2576.0,
    "hz": -175.995
   }
  },
  {
   "type": "Feature",
   "geometry": {
    "type": "Point",
    "coordinates": [
     -0.00014397651094255726,
     -0.0004408268422806704
    ]
   },
   "properties": {
    "classname": "info_player_teamspawn",
    "team": "0",
    "targetname": "",
    "hx": -841.336,
    "hy": -2576.0,
    "hz": -175.995
   }
  },
  {
   "type": "Feature",
   "geometry": {
    "type": "Point",
    "coordinates": [
     -0.0001439765109422967,
     -0.00042713656767568066
    ]
   },
   "properties": {
    "classname": "info_player_teamspawn",
    "team": "0",
    "targetname": "",
    "hx": -841.336,
    "hy": -2496.0,
    "hz": -175.995
   }
  },
  {
   "type": "Feature",
   "geometry": {
    "type": "Point",
    "coordinates": [
     -0.00014397651094204432,
     -0.00041344629307069086
    ]
   },
   "properties": {
    "classname": "info_player_teamspawn",
    "team": "0",
    "targetname": "",
    "hx": -841.336,
    "hy": -2416.0,
    "hz": -175.995
   }
  },
  {
   "type": "Feature",
   "geometry": {
    "type": "Point",
    "coordinates": [
     -0.00014397651094180019,
     -0.00039975601846570116
    ]
   },
   "properties": {
    "classname": "info_player_teamspawn",
    "team": "0",
    "targetname": "",
    "hx": -841.336,
    "hy": -2336.0,
    "hz": -175.995
   }
  },
  {
   "type": "Feature",
   "geometry": {
    "type": "Point",
    "coordinates": [
     -0.00015778109934007763,
     -0.00039975601846570116
    ]
   },
   "properties": {
    "classname": "info_player_teamspawn",
    "team": "0",
    "targetname": "",
    "hx": -922.004,
    "hy": -2336.0,
    "hz": -175.995
   }
  },
  {
   "type": "Feature",
   "geometry": {
    "type": "Point",
    "coordinates": [
     -0.00015778109934034518,
     -0.00041344629307069086
    ]
   },
   "properties": {
    "classname": "info_player_teamspawn",
    "team": "0",
    "targetname": "",
    "hx": -922.004,
    "hy": -2416.0,
    "hz": -175.995
   }
  },
  {
   "type": "Feature",
   "geometry": {
    "type": "Point",
    "coordinates": [
     -0.00015778109934062176,
     -0.00042713656767568066
    ]
   },
   "properties": {
    "classname": "info_player_teamspawn",
    "team": "0",
    "targetname": "",
    "hx": -922.004,
    "hy": -2496.0,
    "hz": -175.995
   }
  },
  {
   "type": "Feature",
   "geometry": {
    "type": "Point",
    "coordinates": [
     -0.00015778109934090728,
     -0.0004408268422806704
    ]
   },
   "properties": {
    "classname": "info_player_teamspawn",
    "team": "0",
    "targetname": "",
    "hx": -922.004,
    "hy": -2576.0,
    "hz": -175.995
   }
  },
  {
   "type": "Feature",
   "geometry": {
    "type": "Point",
    "coordinates": [
     -0.0004983259956275475,
     0.0002792816019417912
    ]
   },
   "properties": {
    "classname": "info_player_teamspawn",
    "team": "0",
    "targetname": "",
    "hx": -2912.0,
    "hy": 1632.0,
    "hz": 48.005
   }
  },
  {
   "type": "Feature",
   "geometry": {
    "type": "Point",
    "coordinates": [
     -0.0005120162702326999,
     0.0002792816019417912
    ]
   },
   "properties": {
    "classname": "info_player_teamspawn",
    "team": "0",
    "targetname": "",
    "hx": -2992.0,
    "hy": 1632.0,
    "hz": 48.005
   }
  },
  {
   "type": "Feature",
   "geometry": {
    "type": "Point",
    "coordinates": [
     -0.0005257065448378524,
     0.0002792816019417912
    ]
   },
   "properties": {
    "classname": "info_player_teamspawn",
    "team": "0",
    "targetname": "",
    "hx": -3072.0,
    "hy": 1632.0,
    "hz": 48.005
   }
  },
  {
   "type": "Feature",
   "geometry": {
    "type": "Point",
    "coordinates": [
     -0.0005393968194430047,
     0.0002792816019417912
    ]
   },
   "properties": {
    "classname": "info_player_teamspawn",
    "team": "0",
    "targetname": "",
    "hx": -3152.0,
    "hy": 1632.0,
    "hz": 48.005
   }
  },
  {
   "type": "Feature",
   "geometry": {
    "type": "Point",
    "coordinates": [
     -0.0005393968194422729,
     0.0002628532724158035
    ]
   },
   "properties": {
    "classname": "info_player_teamspawn",
    "team": "0",
    "targetname": "",
    "hx": -3152.0,
    "hy": 1536.0,
    "hz": 48.005
   }
  },
  {
   "type": "Feature",
   "geometry": {
    "type": "Point",
    "coordinates": [
     -0.0005257065448371392,
     0.0002628532724158035
    ]
   },
   "properties": {
    "classname": "info_player_teamspawn",
    "team": "0",
    "targetname": "",
    "hx": -3072.0,
    "hy": 1536.0,
    "hz": 48.005
   }
  },
  {
   "type": "Feature",
   "geometry": {
    "type": "Point",
    "coordinates": [
     -0.0005120162702320053,
     0.0002628532724158035
    ]
   },
   "properties": {
    "classname": "info_player_teamspawn",
    "team": "0",
    "targetname": "",
    "hx": -2992.0,
    "hy": 1536.0,
    "hz": 48.005
   }
  },
  {
   "type": "Feature",
   "geometry": {
    "type": "Point",
    "coordinates": [
     -0.0004983259956268715,
     0.0002628532724158035
    ]
   },
   "properties": {
    "classname": "info_player_teamspawn",
    "team": "0",
    "targetname": "",
    "hx": -2912.0,
    "hy": 1536.0,
    "hz": 48.005
   }
  },
  {
   "type": "Feature",
   "geometry": {
    "type": "Point",
    "coordinates": [
     -0.0004983259956262365,
     0.0002464249428898158
    ]
   },
   "properties": {
    "classname": "info_player_teamspawn",
    "team": "0",
    "targetname": "",
    "hx": -2912.0,
    "hy": 1440.0,
    "hz": 48.005
   }
  },
  {
   "type": "Feature",
   "geometry": {
    "type": "Point",
    "coordinates": [
     -0.0005120162702313528,
     0.0002464249428898158
    ]
   },
   "properties": {
    "classname": "info_player_teamspawn",
    "team": "0",
    "targetname": "",
    "hx": -2992.0,
    "hy": 1440.0,
    "hz": 48.005
   }
  },
  {
   "type": "Feature",
   "geometry": {
    "type": "Point",
    "coordinates": [
     -0.0005257065448364693,
     0.0002464249428898158
    ]
   },
   "properties": {
    "classname": "info_player_teamspawn",
    "team": "0",
    "targetname": "",
    "hx": -3072.0,
    "hy": 1440.0,
    "hz": 48.005
   }
  },
  {
   "type": "Feature",
   "geometry": {
    "type": "Point",
    "coordinates": [
     -0.0005393968194415856,
     0.0002464249428898158
    ]
   },
   "properties": {
    "classname": "info_player_teamspawn",
    "team": "0",
    "targetname": "",
    "hx": -3152.0,
    "hy": 1440.0,
    "hz": 48.005
   }
  },
  {
   "type": "Feature",
   "geometry": {
    "type": "Point",
    "coordinates": [
     -0.0005393968194409425,
     0.00022999661336382804
    ]
   },
   "properties": {
    "classname": "info_player_teamspawn",
    "team": "0",
    "targetname": "",
    "hx": -3152.0,
    "hy": 1344.0,
    "hz": 48.005
   }
  },
  {
   "type": "Feature",
   "geometry": {
    "type": "Point",
    "coordinates": [
     -0.0005257065448358426,
     0.00022999661336382804
    ]
   },
   "properties": {
    "classname": "info_player_teamspawn",
    "team": "0",
    "targetname": "",
    "hx": -3072.0,
    "hy": 1344.0,
    "hz": 48.005
   }
  },
  {
   "type": "Feature",
   "geometry": {
    "type": "Point",
    "coordinates": [
     -0.0005120162702307425,
     0.00022999661336382804
    ]
   },
   "properties": {
    "classname": "info_player_teamspawn",
    "team": "0",
    "targetname": "",
    "hx": -2992.0,
    "hy": 1344.0,
    "hz": 48.005
   }
  },
  {
   "type": "Feature",
   "geometry": {
    "type": "Point",
    "coordinates": [
     -0.0004983259956256425,
     0.00022999661336382804
    ]
   },
   "properties": {
    "classname": "info_player_teamspawn",
    "team": "0",
    "targetname": "",
    "hx": -2912.0,
    "hy": 1344.0,
    "hz": 48.005
   }
  },
  {
   "type": "Feature",
   "geometry": {
    "type": "Point",
    "coordinates": [
     0.0001615452403446586,
     0.0004846528338598939
    ]
   },
   "properties": {
    "classname": "info_player_teamspawn",
    "team": "0",
    "targetname": "",
    "hx": 944.0,
    "hy": 2832.1,
    "hz": 134.689
   }
  },
  {
   "type": "Feature",
   "geometry": {
    "type": "Point",
    "coordinates": [
     0.00016154524034498927,
     0.0004983259956216274
    ]
   },
   "properties": {
    "classname": "info_player_teamspawn",
    "team": "0",
    "targetname": "",
    "hx": 944.0,
    "hy": 2912.0,
    "hz": 116.0
   }
  },
  {
   "type": "Feature",
   "geometry": {
    "type": "Point",
    "coordinates": [
     0.00016154524034532963,
     0.0005120162702266172
    ]
   },
   "properties": {
    "classname": "info_player_teamspawn",
    "team": "0",
    "targetname": "",
    "hx": 944.0,
    "hy": 2992.0,
    "hz": 96.0
   }
  },
  {
   "type": "Feature",
   "geometry": {
    "type": "Point",
    "coordinates": [
     0.00016154524034567918,
     0.000525706544831607
    ]
   },
   "properties": {
    "classname": "info_player_teamspawn",
    "team": "0",
    "targetname": "",
    "hx": 944.0,
    "hy": 3072.0,
    "hz": 76.0
   }
  },
  {
   "type": "Feature",
   "geometry": {
    "type": "Point",
    "coordinates": [
     0.00014511691081899996,
     0.000525706544831607
    ]
   },
   "properties": {
    "classname": "info_player_teamspawn",
    "team": "0",
    "targetname": "",
    "hx": 848.0,
    "hy": 3072.0,
    "hz": 76.0
   }
  },
  {
   "type": "Feature",
   "geometry": {
    "type": "Point",
    "coordinates": [
     0.00014511691081868597,
     0.0005120162702266172
    ]
   },
   "properties": {
    "classname": "info_player_teamspawn",
    "team": "0",
    "targetname": "",
    "hx": 848.0,
    "hy": 2992.0,
    "hz": 96.0
   }
  },
  {
   "type": "Feature",
   "geometry": {
    "type": "Point",
    "coordinates": [
     0.00014511691081838023,
     0.0004983259956216274
    ]
   },
   "properties": {
    "classname": "info_player_teamspawn",
    "team": "0",
    "targetname": "",
    "hx": 848.0,
    "hy": 2912.0,
    "hz": 116.0
   }
  },
  {
   "type": "Feature",
   "geometry": {
    "type": "Point",
    "coordinates": [
     0.00014511691081808316,
     0.0004846528338598939
    ]
   },
   "properties": {
    "classname": "info_player_teamspawn",
    "team": "0",
    "targetname": "",
    "hx": 848.0,
    "hy": 2832.1,
    "hz": 134.689
   }
  },
  {
   "type": "Feature",
   "geometry": {
    "type": "Point",
    "coordinates": [
     0.0001286885812915077,
     0.0004846528338598939
    ]
   },
   "properties": {
    "classname": "info_player_teamspawn",
    "team": "0",
    "targetname": "",
    "hx": 752.0,
    "hy": 2832.1,
    "hz": 134.689
   }
  },
  {
   "type": "Feature",
   "geometry": {
    "type": "Point",
    "coordinates": [
     0.00012868858129177113,
     0.0004983259956216274
    ]
   },
   "properties": {
    "classname": "info_player_teamspawn",
    "team": "0",
    "targetname": "",
    "hx": 752.0,
    "hy": 2912.0,
    "hz": 116.0
   }
  },
  {
   "type": "Feature",
   "geometry": {
    "type": "Point",
    "coordinates": [
     0.00012868858129204226,
     0.0005120162702266172
    ]
   },
   "properties": {
    "classname": "info_player_teamspawn",
    "team": "0",
    "targetname": "",
    "hx": 752.0,
    "hy": 2992.0,
    "hz": 96.0
   }
  },
  {
   "type": "Feature",
   "geometry": {
    "type": "Point",
    "coordinates": [
     0.00012868858129232071,
     0.000525706544831607
    ]
   },
   "properties": {
    "classname": "info_player_teamspawn",
    "team": "0",
    "targetname": "",
    "hx": 752.0,
    "hy": 3072.0,
    "hz": 76.0
   }
  },
  {
   "type": "Feature",
   "geometry": {
    "type": "Point",
    "coordinates": [
     0.00011226025176564146,
     0.000525706544831607
    ]
   },
   "properties": {
    "classname": "info_player_teamspawn",
    "team": "0",
    "targetname": "",
    "hx": 656.0,
    "hy": 3072.0,
    "hz": 76.0
   }
  },
  {
   "type": "Feature",
   "geometry": {
    "type": "Point",
    "coordinates": [
     0.00011226025176539855,
     0.0005120162702266172
    ]
   },
   "properties": {
    "classname": "info_player_teamspawn",
    "team": "0",
    "targetname": "",
    "hx": 656.0,
    "hy": 2992.0,
    "hz": 96.0
   }
  },
  {
   "type": "Feature",
   "geometry": {
    "type": "Point",
    "coordinates": [
     0.00011226025176516205,
     0.0004983259956216274
    ]
   },
   "properties": {
    "classname": "info_player_teamspawn",
    "team": "0",
    "targetname": "",
    "hx": 656.0,
    "hy": 2912.0,
    "hz": 116.0
   }
  },
  {
   "type": "Feature",
   "geometry": {
    "type": "Point",
    "coordinates": [
     0.00011226025176493224,
     0.0004846528338598939
    ]
   },
   "properties": {
    "classname": "info_player_teamspawn",
    "team": "0",
    "targetname": "",
    "hx": 656.0,
    "hy": 2832.1,
    "hz": 134.689
   }
  },
  {
   "type": "Feature",
   "geometry": {
    "type": "Point",
    "coordinates": [
     0.0,
     0.0
    ]
   },
   "properties": {
    "classname": "team_control_point",
    "team": "",
    "targetname": "cp_1A",
    "hx": 0.0,
    "hy": 0.0,
    "hz": 36.25
   }
  },
  {
   "type": "Feature",
   "geometry": {
    "type": "Point",
    "coordinates": [
     9.035581239293287e-05,
     5.476109841995906e-06
    ]
   },
   "properties": {
    "classname": "item_healthkit_small",
    "team": "",
    "targetname": "",
    "hx": 528.0,
    "hy": 32.0,
    "hz": 33.2352
   }
  },
  {
   "type": "Feature",
   "geometry": {
    "type": "Point",
    "coordinates": [
     9.035581239293255e-05,
     -2.738054920997953e-06
    ]
   },
   "properties": {
    "classname": "item_ammopack_small",
    "team": "",
    "targetname": "",
    "hx": 528.0,
    "hy": -16.0,
    "hz": 33.2352
   }
  },
  {
   "type": "Feature",
   "geometry": {
    "type": "Point",
    "coordinates": [
     -0.00010130803207697529,
     -5.749915334095701e-05
    ]
   },
   "properties": {
    "classname": "item_healthkit_medium",
    "team": "",
    "targetname": "",
    "hx": -592.0,
    "hy": -336.0,
    "hz": 20.0
   }
  },
  {
   "type": "Feature",
   "geometry": {
    "type": "Point",
    "coordinates": [
     -0.00010952219683997326,
     -5.749915334095701e-05
    ]
   },
   "properties": {
    "classname": "item_ammopack_small",
    "team": "",
    "targetname": "",
    "hx": -640.0,
    "hy": -336.0,
    "hz": 20.0
   }
  },
  {
   "type": "Feature",
   "geometry": {
    "type": "Point",
    "coordinates": [
     1.0740807618424375e-05,
     0.0001108912243004171
    ]
   },
   "properties": {
    "classname": "item_ammopack_full",
    "team": "",
    "targetname": "",
    "hx": 62.7646,
    "hy": 648.0,
    "hz": 33.2352
   }
  },
  {
   "type": "Feature",
   "geometry": {
    "type": "Point",
    "coordinates": [
     1.0740807618427465e-05,
     0.00011910538906341096
    ]
   },
   "properties": {
    "classname": "item_healthkit_full",
    "team": "",
    "targetname": "",
    "hx": 62.7646,
    "hy": 696.0,
    "hz": 33.2352
   }
  },
  {
   "type": "Feature",
   "geometry": {
    "type": "Point",
    "coordinates": [
     -0.00047368350133593655,
     0.00021356828383784033
    ]
   },
   "properties": {
    "classname": "item_ammopack_small",
    "team": "",
    "targetname": "",
    "hx": -2768.0,
    "hy": 1248.0,
    "hz": 256.0
   }
  },
  {
   "type": "Feature",
   "geometry": {
    "type": "Point",
    "coordinates": [
     -0.0004731940740186116,
     0.00020719717229354323
    ]
   },
   "properties": {
    "classname": "item_healthkit_small",
    "team": "",
    "targetname": "",
    "hx": -2765.14,
    "hy": 1210.77,
    "hz": 256.0
   }
  },
  {
   "type": "Feature",
   "geometry": {
    "type": "Point",
    "coordinates": [
     -0.0003235850418507904,
     0.00024368688796881782
    ]
   },
   "properties": {
    "classname": "item_healthkit_full",
    "team": "",
    "targetname": "",
    "hx": -1890.89,
    "hy": 1424.0,
    "hz": 209.235
   }
  },
  {
   "type": "Feature",
   "geometry": {
    "type": "Point",
    "coordinates": [
     -0.00032322396085790244,
     0.00023614868051444532
    ]
   },
   "properties": {
    "classname": "item_ammopack_medium",
    "team": "",
    "targetname": "",
    "hx": -1888.78,
    "hy": 1379.95,
    "hz": 209.235
   }
  },
  {
   "type": "Feature",
   "geometry": {
    "type": "Point",
    "coordinates": [
     -0.0003176143708359076,
     5.476109841995906e-05
    ]
   },
   "properties": {
    "classname": "item_ammopack_medium",
    "team": "",
    "targetname": "",
    "hx": -1856.0,
    "hy": 320.0,
    "hz": 224.256
   }
  },
  {
   "type": "Feature",
   "geometry": {
    "type": "Point",
    "coordinates": [
     -0.00030940020607290997,
     5.476109841995906e-05
    ]
   },
   "properties": {
    "classname": "item_healthkit_small",
    "team": "",
    "targetname": "",
    "hx": -1808.0,
    "hy": 320.0,
    "hz": 224.256
   }
  },
  {
   "type": "Feature",
   "geometry": {
    "type": "Point",
    "coordinates": [
     -0.00047094544645056,
     0.0007365367737484494
    ]
   },
   "properties": {
    "classname": "team_control_point",
    "team": "",
    "targetname": "cp_2A",
    "hx": -2752.0,
    "hy": 4304.0,
    "hz": 164.25
   }
  },
  {
   "type": "Feature",
   "geometry": {
    "type": "Point",
    "coordinates": [
     -0.00047915961119905827,
     0.0005784141020608177
    ]
   },
   "properties": {
    "classname": "item_ammopack_full",
    "team": "",
    "targetname": "",
    "hx": -2800.0,
    "hy": 3380.0,
    "hz": 48.0
   }
  },
  {
   "type": "Feature",
   "geometry": {
    "type": "Point",
    "coordinates": [
     -0.0004791596111983697,
     0.0005701999372978237
    ]
   },
   "properties": {
    "classname": "item_healthkit_small",
    "team": "",
    "targetname": "",
    "hx": -2800.0,
    "hy": 3332.0,
    "hz": 48.0
   }
  },
  {
   "type": "Feature",
   "geometry": {
    "type": "Point",
    "coordinates": [
     -0.0003449949200611858,
     0.0005421348743575947
    ]
   },
   "properties": {
    "classname": "item_ammopack_full",
    "team": "",
    "targetname": "",
    "hx": -2016.0,
    "hy": 3168.0,
    "hz": 48.0
   }
  },
  {
   "type": "Feature",
   "geometry": {
    "type": "Point",
    "coordinates": [
     -0.00033678075529782424,
     0.0005421348743575947
    ]
   },
   "properties": {
    "classname": "item_healthkit_medium",
    "team": "",
    "targetname": "",
    "hx": -1968.0,
    "hy": 3168.0,
    "hz": 48.0
   }
  },
  {
   "type": "Feature",
   "geometry": {
    "type": "Point",
    "coordinates": [
     -0.00019440189940667926,
     0.0007310606639064534
    ]
   },
   "properties": {
    "classname": "item_healthkit_medium",
    "team": "",
    "targetname": "",
    "hx": -1136.0,
    "hy": 4272.0,
    "hz": 48.0
   }
  },
  {
   "type": "Feature",
   "geometry": {
    "type": "Point",
    "coordinates": [
     -3.4508390685091567e-05,
     0.0006205733027068836
    ]
   },
   "properties": {
    "classname": "item_ammopack_medium",
    "team": "",
    "targetname": "",
    "hx": -201.652,
    "hy": 3626.36,
    "hz": -110.744
   }
  },
  {
   "type": "Feature",
   "geometry": {
    "type": "Point",
    "coordinates": [
     -3.422654215668982e-05,
     0.0006274920252353803
    ]
   },
   "properties": {
    "classname": "item_healthkit_medium",
    "team": "",
    "targetname": "",
    "hx": -200.005,
    "hy": 3666.79,
    "hz": -110.744
   }
  },
  {
   "type": "Feature",
   "geometry": {
    "type": "Point",
    "coordinates": [
     -0.00019132158761013172,
     0.00043046843825767
    ]
   },
   "properties": {
    "classname": "item_ammopack_medium",
    "team": "",
    "targetname": "",
    "hx": -1118.0,
    "hy": 2515.47,
    "hz": -142.744
   }
  },
  {
   "type": "Feature",
   "geometry": {
    "type": "Point",
    "coordinates": [
     -0.0001841393272952719,
     0.0004298746225966786
    ]
   },
   "properties": {
    "classname": "item_healthkit_small",
    "team": "",
    "targetname": "",
    "hx": -1076.03,
    "hy": 2512.0,
    "hz": -142.744
   }
  },
  {
   "type": "Feature",
   "geometry": {
    "type": "Point",
    "coordinates": [
     -7.392748287168618e-05,
     0.0006489190162765148
    ]
   },
   "properties": {
    "classname": "item_ammopack_medium",
    "team": "",
    "targetname": "",
    "hx": -432.0,
    "hy": 3792.0,
    "hz": 56.0
   }
  },
  {
   "type": "Feature",
   "geometry": {
    "type": "Point",
    "coordinates": [
     -7.333366721076134e-05,
     0.0006561012765911575
    ]
   },
   "properties": {
    "classname": "item_healthkit_medium",
    "team": "",
    "targetname": "",
    "hx": -428.53,
    "hy": 3833.97,
    "hz": 56.0
   }
  },
  {
   "type": "Feature",
   "geometry": {
    "type": "Point",
    "coordinates": [
     1.779735698683544e-05,
     0.00035868519465073187
    ]
   },
   "properties": {
    "classname": "item_healthkit_medium",
    "team": "",
    "targetname": "",
    "hx": 104.0,
    "hy": 2096.0,
    "hz": -46.7438
   }
  },
  {
   "type": "Feature",
   "geometry": {
    "type": "Point",
    "coordinates": [
     -0.0004291901088866244,
     0.0005558251489625845
    ]
   },
   "properties": {
    "classname": "item_ammopack_medium",
    "team": "",
    "targetname": "",
    "hx": -2508.0,
    "hy": 3248.0,
    "hz": 224.211
   }
  },
  {
   "type": "Feature",
   "geometry": {
    "type": "Point",
    "coordinates": [
     -0.0006749305380722548,
     0.0006708234556444984
    ]
   },
   "properties": {
    "classname": "item_ammopack_full",
    "team": "",
    "targetname": "",
    "hx": -3944.0,
    "hy": 3920.0,
    "hz": 224.235
   }
  },
  {
   "type": "Feature",
   "geometry": {
    "type": "Point",
    "coordinates": [
     -0.0006749305380733947,
     0.0006790376204074924
    ]
   },
   "properties": {
    "classname": "item_healthkit_small",
    "team": "",
    "targetname": "",
    "hx": -3944.0,
    "hy": 3968.0,
    "hz": 224.235
   }
  },
  {
   "type": "Feature",
   "geometry": {
    "type": "Point",
    "coordinates": [
     -0.00041344629310717616,
     0.000761179268037431
    ]
   },
   "properties": {
    "classname": "item_healthkit_full",
    "team": "0",
    "targetname": "",
    "hx": -2416.0,
    "hy": 4448.0,
    "hz": 160.269
   }
  },
  {
   "type": "Feature",
   "geometry": {
    "type": "Point",
    "coordinates": [
     -0.0004216604578708949,
     0.000761179268037431
    ]
   },
   "properties": {
    "classname": "item_ammopack_medium",
    "team": "0",
    "targetname": "",
    "hx": -2464.0,
    "hy": 4448.0,
    "hz": 160.269
   }
  },
  {
   "type": "Feature",
   "geometry": {
    "type": "Point",
    "coordinates": [
     -0.0006188004121944105,
     0.0007201084442224617
    ]
   },
   "properties": {
    "classname": "item_healthkit_medium",
    "team": "0",
    "targetname": "",
    "hx": -3616.0,
    "hy": 4208.0,
    "hz": 48.2361
   }
  },
  {
   "type": "Feature",
   "geometry": {
    "type": "Point",
    "coordinates": [
     1.5059302066018368e-05,
     0.0004805286386351408
    ]
   },
   "properties": {
    "classname": "team_control_point",
    "team": "",
    "targetname": "cp_2B",
    "hx": 88.0,
    "hy": 2808.0,
    "hz": -44.0
   }
  },
  {
   "type": "Feature",
   "geometry": {
    "type": "Point",
    "coordinates": [
     9.58319222368062e-06,
     0.00035868519465073187
    ]
   },
   "properties": {
    "classname": "item_ammopack_medium",
    "team": "",
    "targetname": "",
    "hx": 56.0,
    "hy": 2096.0,
    "hz": -46.7438
   }
  },
  {
   "type": "Feature",
   "geometry": {
    "type": "Point",
    "coordinates": [
     -0.00018618773464301676,
     0.0007310606639064534
    ]
   },
   "properties": {
    "classname": "item_ammopack_medium",
    "team": "",
    "targetname": "",
    "hx": -1088.0,
    "hy": 4272.0,
    "hz": 48.0
   }
  },
  {
   "type": "Feature",
   "geometry": {
    "type": "Point",
    "coordinates": [
     -0.0005421348743594673,
     0.00015059302065488741
    ]
   },
   "properties": {
    "classname": "team_control_point",
    "team": "",
    "targetname": "cp_1B",
    "hx": -3168.0,
    "hy": 880.0,
    "hz": 260.0
   }
  },
  {
   "type": "Feature",
   "geometry": {
    "type": "Point",
    "coordinates": [
     -0.00024916299781116224,
     9.583192223492836e-05
    ]
   },
   "properties": {
    "classname": "item_healthkit_medium",
    "team": "",
    "targetname": "",
    "hx": -1456.0,
    "hy": 560.0,
    "hz": 35.2352
   }
  },
  {
   "type": "Feature",
   "geometry": {
    "type": "Point",
    "coordinates": [
     -0.00025327008019249874,
     6.98204004854478e-05
    ]
   },
   "properties": {
    "classname": "item_healthkit_small",
    "team": "",
    "targetname": "",
    "hx": -1480.0,
    "hy": 408.0,
    "hz": 32.2361
   }
  },
  {
   "type": "Feature",
   "geometry": {
    "type": "Point",
    "coordinates": [
     -0.0002532700801924704,
     6.43442906434519e-05
    ]
   },
   "properties": {
    "classname": "item_ammopack_small",
    "team": "",
    "targetname": "",
    "hx": -1480.0,
    "hy": 376.0,
    "hz": 32.2361
   }
  },
  {
   "type": "Feature",
   "geometry": {
    "type": "Point",
    "coordinates": [
     -0.0004873737759377323,
     3.608414129010178e-05
    ]
   },
   "properties": {
    "classname": "item_healthkit_small",
    "team": "",
    "targetname": "",
    "hx": -2848.0,
    "hy": 210.86,
    "hz": 176.0
   }
  },
  {
   "type": "Feature",
   "geometry": {
    "type": "Point",
    "coordinates": [
     -0.0004951139149425273,
     3.5594713972973386e-05
    ]
   },
   "properties": {
    "classname": "item_ammopack_small",
    "team": "",
    "targetname": "",
    "hx": -2893.23,
    "hy": 208.0,
    "hz": 176.0
   }
  },
  {
   "type": "Feature",
   "geometry": {
    "type": "Point",
    "coordinates": [
     3.833276889414506e-05,
     -0.00017249746002287103
    ]
   },
   "properties": {
    "classname": "item_healthkit_small",
    "team": "",
    "targetname": "",
    "hx": 224.0,
    "hy": -1008.0,
    "hz": -144.0
   }
  },
  {
   "type": "Feature",
   "geometry": {
    "type": "Point",
    "coordinates": [
     -0.00038606574386237876,
     0.0001683903776413741
    ]
   },
   "properties": {
    "classname": "item_ammopack_small",
    "team": "",
    "targetname": "",
    "hx": -2256.0,
    "hy": 984.0,
    "hz": 48.7441
   }
  },
  {
   "type": "Feature",
   "geometry": {
    "type": "Point",
    "coordinates": [
     -0.00037832560485755867,
     0.0001688798049585025
    ]
   },
   "properties": {
    "classname": "item_healthkit_small",
    "team": "",
    "targetname": "",
    "hx": -2210.77,
    "hy": 986.86,
    "hz": 48.7441
   }
  },
  {
   "type": "Feature",
   "geometry": {
    "type": "Point",
    "coordinates": [
     -0.0004750525287958028,
     0.0001916638444698567
    ]
   },
   "properties": {
    "classname": "item_healthkit_small",
    "team": "",
    "targetname": "",
    "hx": -2776.0,
    "hy": 1120.0,
    "hz": 192.235
   }
  }
 ]
}
