{
 "type": "FeatureCollection",
 "note": "pseudo-WGS84 via crs.local_to_wgs84 ((0,0)m maps to (0,0)deg); viewing only, not survey",
 "features": [
  {
   "type": "Feature",
   "geometry": {
    "type": "Point",
    "coordinates": [
     -0.000873439519820787,
     0.0004107082381496929
    ]
   },
   "properties": {
    "classname": "info_player_teamspawn",
    "team": "3",
    "targetname": "spawn_blue",
    "hx": -5104.0,
    "hy": 2400.0,
    "hz": -784.0
   }
  },
  {
   "type": "Feature",
   "geometry": {
    "type": "Point",
    "coordinates": [
     -0.0008871297944261286,
     0.0004107082381496929
    ]
   },
   "properties": {
    "classname": "info_player_teamspawn",
    "team": "3",
    "targetname": "spawn_blue",
    "hx": -5184.0,
    "hy": 2400.0,
    "hz": -784.0
   }
  },
  {
   "type": "Feature",
   "geometry": {
    "type": "Point",
    "coordinates": [
     -0.0008871297944273603,
     0.0004216604578336847
    ]
   },
   "properties": {
    "classname": "info_player_teamspawn",
    "team": "3",
    "targetname": "spawn_blue",
    "hx": -5184.0,
    "hy": 2464.0,
    "hz": -784.0
   }
  },
  {
   "type": "Feature",
   "geometry": {
    "type": "Point",
    "coordinates": [
     -0.0008871297944286245,
     0.00043261267751767654
    ]
   },
   "properties": {
    "classname": "info_player_teamspawn",
    "team": "3",
    "targetname": "spawn_blue",
    "hx": -5184.0,
    "hy": 2528.0,
    "hz": -784.0
   }
  },
  {
   "type": "Feature",
   "geometry": {
    "type": "Point",
    "coordinates": [
     -0.0008871297944299211,
     0.0004435648972016684
    ]
   },
   "properties": {
    "classname": "info_player_teamspawn",
    "team": "3",
    "targetname": "spawn_blue",
    "hx": -5184.0,
    "hy": 2592.0,
    "hz": -784.0
   }
  },
  {
   "type": "Feature",
   "geometry": {
    "type": "Point",
    "coordinates": [
     -0.0008867978052721775,
     0.0004554018508820077
    ]
   },
   "properties": {
    "classname": "info_player_teamspawn",
    "team": "3",
    "targetname": "spawn_blue",
    "hx": -5182.06,
    "hy": 2661.17,
    "hz": -784.0
   }
  },
  {
   "type": "Feature",
   "geometry": {
    "type": "Point",
    "coordinates": [
     -0.000884391739512214,
     0.00047094544641164795
    ]
   },
   "properties": {
    "classname": "info_player_teamspawn",
    "team": "3",
    "targetname": "spawn_blue",
    "hx": -5168.0,
    "hy": 2752.0,
    "hz": -784.0
   }
  },
  {
   "type": "Feature",
   "geometry": {
    "type": "Point",
    "coordinates": [
     -0.0008499863681448919,
     0.0004750696416364011
    ]
   },
   "properties": {
    "classname": "info_player_teamspawn",
    "team": "3",
    "targetname": "spawn_blue",
    "hx": -4966.95,
    "hy": 2776.1,
    "hz": -784.0
   }
  },
  {
   "type": "Feature",
   "geometry": {
    "type": "Point",
    "coordinates": [
     -0.0008485660021576399,
     0.0004994006821781192
    ]
   },
   "properties": {
    "classname": "info_player_teamspawn",
    "team": "3",
    "targetname": "spawn_blue",
    "hx": -4958.65,
    "hy": 2918.28,
    "hz": -784.0
   }
  },
  {
   "type": "Feature",
   "geometry": {
    "type": "Point",
    "coordinates": [
     -0.0008597492452258751,
     0.0004983259956216274
    ]
   },
   "properties": {
    "classname": "info_player_teamspawn",
    "team": "3",
    "targetname": "spawn_blue",
    "hx": -5024.0,
    "hy": 2912.0,
    "hz": -784.0
   }
  },
  {
   "type": "Feature",
   "geometry": {
    "type": "Point",
    "coordinates": [
     -0.0008482596822617536,
     0.00048693910971892723
    ]
   },
   "properties": {
    "classname": "info_player_teamspawn",
    "team": "3",
    "targetname": "spawn_blue",
    "hx": -4956.86,
    "hy": 2845.46,
    "hz": -784.0
   }
  },
  {
   "type": "Feature",
   "geometry": {
    "type": "Point",
    "coordinates": [
     -0.0008737817766939834,
     0.00047881735430951703
    ]
   },
   "properties": {
    "classname": "info_player_teamspawn",
    "team": "3",
    "targetname": "spawn_blue",
    "hx": -5106.0,
    "hy": 2798.0,
    "hz": -784.0
   }
  },
  {
   "type": "Feature",
   "geometry": {
    "type": "Point",
    "coordinates": [
     -0.000864809512973156,
     0.0004686489028466609
    ]
   },
   "properties": {
    "classname": "info_player_teamspawn",
    "team": "3",
    "targetname": "spawn_blue",
    "hx": -5053.57,
    "hy": 2738.58,
    "hz": -784.0
   }
  },
  {
   "type": "Feature",
   "geometry": {
    "type": "Point",
    "coordinates": [
     -0.0008726660193109987,
     0.00045761283023071353
    ]
   },
   "properties": {
    "classname": "info_player_teamspawn",
    "team": "3",
    "targetname": "spawn_blue",
    "hx": -5099.48,
    "hy": 2674.09,
    "hz": -784.0
   }
  },
  {
   "type": "Feature",
   "geometry": {
    "type": "Point",
    "coordinates": [
     -0.0008734395198245212,
     0.0004435648972016684
    ]
   },
   "properties": {
    "classname": "info_player_teamspawn",
    "team": "3",
    "targetname": "spawn_blue",
    "hx": -5104.0,
    "hy": 2592.0,
    "hz": -784.0
   }
  },
  {
   "type": "Feature",
   "geometry": {
    "type": "Point",
    "coordinates": [
     -0.0008734395198232445,
     0.00043261267751767654
    ]
   },
   "properties": {
    "classname": "info_player_teamspawn",
    "team": "3",
    "targetname": "spawn_blue",
    "hx": -5104.0,
    "hy": 2528.0,
    "hz": -784.0
   }
  },
  {
   "type": "Feature",
   "geometry": {
    "type": "Point",
    "coordinates": [
     -0.0008734395198219998,
     0.0004216604578336847
    ]
   },
   "properties": {
    "classname": "info_player_teamspawn",
    "team": "3",
    "targetname": "spawn_blue",
    "hx": -5104.0,
    "hy": 2464.0,
    "hz": -784.0
   }
  },
  {
   "type": "Feature",
   "geometry": {
    "type": "Point",
    "coordinates": [
     -0.0008620714580540253,
     0.00048430373185746667
    ]
   },
   "properties": {
    "classname": "info_player_teamspawn",
    "team": "3",
    "targetname": "spawn_blue",
    "hx": -5037.57,
    "hy": 2830.06,
    "hz": -784.0
   }
  },
  {
   "type": "Feature",
   "geometry": {
    "type": "Point",
    "coordinates": [
     0.0,
     0.00016702135018087513
    ]
   },
   "properties": {
    "classname": "team_control_point",
    "team": "",
    "targetname": "control_point_3",
    "hx": 0.0,
    "hy": 976.0,
    "hz": -1064.0
   }
  },
  {
   "type": "Feature",
   "geometry": {
    "type": "Point",
    "coordinates": [
     0.00015606913049820133,
     0.00023547272320582397
    ]
   },
   "properties": {
    "classname": "info_player_teamspawn",
    "team": "2",
    "targetname": "spawn_red",
    "hx": 912.0,
    "hy": 1376.0,
    "hz": -984.0
   }
  },
  {
   "type": "Feature",
   "geometry": {
    "type": "Point",
    "coordinates": [
     0.00014237885589323982,
     0.0002491629978108137
    ]
   },
   "properties": {
    "classname": "info_player_teamspawn",
    "team": "2",
    "targetname": "spawn_red",
    "hx": 832.0,
    "hy": 1456.0,
    "hz": -984.0
   }
  },
  {
   "type": "Feature",
   "geometry": {
    "type": "Point",
    "coordinates": [
     0.00015606913049835905,
     0.0002491629978108137
    ]
   },
   "properties": {
    "classname": "info_player_teamspawn",
    "team": "2",
    "targetname": "spawn_red",
    "hx": 912.0,
    "hy": 1456.0,
    "hz": -984.0
   }
  },
  {
   "type": "Feature",
   "geometry": {
    "type": "Point",
    "coordinates": [
     0.00015606913049805252,
     0.0002217824486008342
    ]
   },
   "properties": {
    "classname": "info_player_teamspawn",
    "team": "2",
    "targetname": "spawn_red",
    "hx": 912.0,
    "hy": 1296.0,
    "hz": -984.0
   }
  },
  {
   "type": "Feature",
   "geometry": {
    "type": "Point",
    "coordinates": [
     0.00014237885589309598,
     0.00023547272320582397
    ]
   },
   "properties": {
    "classname": "info_player_teamspawn",
    "team": "2",
    "targetname": "spawn_red",
    "hx": 832.0,
    "hy": 1376.0,
    "hz": -984.0
   }
  },
  {
   "type": "Feature",
   "geometry": {
    "type": "Point",
    "coordinates": [
     0.0001423788558929602,
     0.0002217824486008342
    ]
   },
   "properties": {
    "classname": "info_player_teamspawn",
    "team": "2",
    "targetname": "spawn_red",
    "hx": 832.0,
    "hy": 1296.0,
    "hz": -984.0
   }
  },
  {
   "type": "Feature",
   "geometry": {
    "type": "Point",
    "coordinates": [
     0.00015606913049763624,
     0.00017797356986486694
    ]
   },
   "properties": {
    "classname": "info_player_teamspawn",
    "team": "2",
    "targetname": "spawn_red",
    "hx": 912.0,
    "hy": 1040.0,
    "hz": -984.0
   }
  },
  {
   "type": "Feature",
   "geometry": {
    "type": "Point",
    "coordinates": [
     0.00014237885589238536,
     0.00015059302065488741
    ]
   },
   "properties": {
    "classname": "info_player_teamspawn",
    "team": "2",
    "targetname": "spawn_red",
    "hx": 832.0,
    "hy": 880.0,
    "hz": -984.0
   }
  },
  {
   "type": "Feature",
   "geometry": {
    "type": "Point",
    "coordinates": [
     0.0001560691304974224,
     0.00015059302065488741
    ]
   },
   "properties": {
    "classname": "info_player_teamspawn",
    "team": "2",
    "targetname": "spawn_red",
    "hx": 912.0,
    "hy": 880.0,
    "hz": -984.0
   }
  },
  {
   "type": "Feature",
   "geometry": {
    "type": "Point",
    "coordinates": [
     0.00015606913049752487,
     0.0001642832952598772
    ]
   },
   "properties": {
    "classname": "info_player_teamspawn",
    "team": "2",
    "targetname": "spawn_red",
    "hx": 912.0,
    "hy": 960.0,
    "hz": -984.0
   }
  },
  {
   "type": "Feature",
   "geometry": {
    "type": "Point",
    "coordinates": [
     0.00014237885589258044,
     0.00017797356986486694
    ]
   },
   "properties": {
    "classname": "info_player_teamspawn",
    "team": "2",
    "targetname": "spawn_red",
    "hx": 832.0,
    "hy": 1040.0,
    "hz": -984.0
   }
  },
  {
   "type": "Feature",
   "geometry": {
    "type": "Point",
    "coordinates": [
     0.00014237885589247882,
     0.0001642832952598772
    ]
   },
   "properties": {
    "classname": "info_player_teamspawn",
    "team": "2",
    "targetname": "spawn_red",
    "hx": 832.0,
    "hy": 960.0,
    "hz": -984.0
   }
  },
  {
   "type": "Feature",
   "geometry": {
    "type": "Point",
    "coordinates": [
     0.00012868858128812062,
     0.0002491629978108137
    ]
   },
   "properties": {
    "classname": "info_player_teamspawn",
    "team": "2",
    "targetname": "spawn_red",
    "hx": 752.0,
    "hy": 1456.0,
    "hz": -984.0
   }
  },
  {
   "type": "Feature",
   "geometry": {
    "type": "Point",
    "coordinates": [
     0.0001286885812878679,
     0.0002217824486008342
    ]
   },
   "properties": {
    "classname": "info_player_teamspawn",
    "team": "2",
    "targetname": "spawn_red",
    "hx": 752.0,
    "hy": 1296.0,
    "hz": -984.0
   }
  },
  {
   "type": "Feature",
   "geometry": {
    "type": "Point",
    "coordinates": [
     0.0001286885812874328,
     0.0001642832952598772
    ]
   },
   "properties": {
    "classname": "info_player_teamspawn",
    "team": "2",
    "targetname": "spawn_red",
    "hx": 752.0,
    "hy": 960.0,
    "hz": -984.0
   }
  },
  {
   "type": "Feature",
   "geometry": {
    "type": "Point",
    "coordinates": [
     0.00012868858128752464,
     0.00017797356986486694
    ]
   },
   "properties": {
    "classname": "info_player_teamspawn",
    "team": "2",
    "targetname": "spawn_red",
    "hx": 752.0,
    "hy": 1040.0,
    "hz": -984.0
   }
  },
  {
   "type": "Feature",
   "geometry": {
    "type": "Point",
    "coordinates": [
     -0.0001533310755820078,
     0.0005120162702266172
    ]
   },
   "properties": {
    "classname": "item_ammopack_medium",
    "team": "",
    "targetname": "",
    "hx": -896.0,
    "hy": 2992.0,
    "hz": -763.0
   }
  },
  {
   "type": "Feature",
   "geometry": {
    "type": "Point",
    "coordinates": [
     -0.00014237885589757867,
     0.0005120162702266172
    ]
   },
   "properties": {
    "classname": "item_healthkit_medium",
    "team": "",
    "targetname": "",
    "hx": -832.0,
    "hy": 2992.0,
    "hz": -759.0
   }
  },
  {
   "type": "Feature",
   "geometry": {
    "type": "Point",
    "coordinates": [
     6.571331810426304e-05,
     0.00017660454240436797
    ]
   },
   "properties": {
    "classname": "item_ammopack_medium",
    "team": "",
    "targetname": "",
    "hx": 384.0,
    "hy": 1032.0,
    "hz": -1063.74
   }
  },
  {
   "type": "Feature",
   "geometry": {
    "type": "Point",
    "coordinates": [
     6.571331810423468e-05,
     0.0001683903776413741
    ]
   },
   "properties": {
    "classname": "item_healthkit_medium",
    "team": "",
    "targetname": "",
    "hx": 384.0,
    "hy": 984.0,
    "hz": -1063.74
   }
  },
  {
   "type": "Feature",
   "geometry": {
    "type": "Point",
    "coordinates": [
     -0.00011773636160445115,
     0.00029297187654678096
    ]
   },
   "properties": {
    "classname": "item_healthkit_small",
    "team": "",
    "targetname": "",
    "hx": -688.0,
    "hy": 1712.0,
    "hz": -959.744
   }
  },
  {
   "type": "Feature",
   "geometry": {
    "type": "Point",
    "coordinates": [
     -0.00011773636160451657,
     0.00029913250011902635
    ]
   },
   "properties": {
    "classname": "item_ammopack_small",
    "team": "",
    "targetname": "",
    "hx": -688.0,
    "hy": 1748.0,
    "hz": -959.744
   }
  },
  {
   "type": "Feature",
   "geometry": {
    "type": "Point",
    "coordinates": [
     -0.0007871907897987988,
     0.0003148763159147646
    ]
   },
   "properties": {
    "classname": "item_ammopack_small",
    "team": "0",
    "targetname": "",
    "hx": -4600.0,
    "hy": 1840.0,
    "hz": -823.744
   }
  },
  {
   "type": "Feature",
   "geometry": {
    "type": "Point",
    "coordinates": [
     -0.000781714679957239,
     0.0003217214532172595
    ]
   },
   "properties": {
    "classname": "item_healthkit_small",
    "team": "0",
    "targetname": "",
    "hx": -4568.0,
    "hy": 1880.0,
    "hz": -810.744
   }
  },
  {
   "type": "Feature",
   "geometry": {
    "type": "Point",
    "coordinates": [
     -0.0001759200286758465,
     0.00025395459392256014
    ]
   },
   "properties": {
    "classname": "item_healthkit_medium",
    "team": "",
    "targetname": "",
    "hx": -1028.0,
    "hy": 1484.0,
    "hz": -631.744
   }
  },
  {
   "type": "Feature",
   "geometry": {
    "type": "Point",
    "coordinates": [
     -0.00017592002867599876,
     0.00026490681360655195
    ]
   },
   "properties": {
    "classname": "item_ammopack_medium",
    "team": "",
    "targetname": "",
    "hx": -1028.0,
    "hy": 1548.0,
    "hz": -631.744
   }
  },
  {
   "type": "Feature",
   "geometry": {
    "type": "Point",
    "coordinates": [
     -0.0003833276889476906,
     0.0003696374143347237
    ]
   },
   "properties": {
    "classname": "team_control_point",
    "team": "",
    "targetname": "control_point_1",
    "hx": -2240.0,
    "hy": 2160.0,
    "hz": -1016.0
   }
  },
  {
   "type": "Feature",
   "geometry": {
    "type": "Point",
    "coordinates": [
     -0.00015751003191000134,
     0.0006753806058036344
    ]
   },
   "properties": {
    "classname": "team_control_point",
    "team": "",
    "targetname": "control_point_2",
    "hx": -920.42,
    "hy": 3946.63,
    "hz": -1038.75
   }
  },
  {
   "type": "Feature",
   "geometry": {
    "type": "Point",
    "coordinates": [
     -0.00019953575236969907,
     0.000254810236085372
    ]
   },
   "properties": {
    "classname": "item_ammopack_medium",
    "team": "",
    "targetname": "",
    "hx": -1166.0,
    "hy": 1489.0,
    "hz": -951.744
   }
  },
  {
   "type": "Feature",
   "geometry": {
    "type": "Point",
    "coordinates": [
     -0.0001995357523695739,
     0.00024659607132237815
    ]
   },
   "properties": {
    "classname": "item_healthkit_medium",
    "team": "",
    "targetname": "",
    "hx": -1166.0,
    "hy": 1441.0,
    "hz": -951.744
   }
  },
  {
   "type": "Feature",
   "geometry": {
    "type": "Point",
    "coordinates": [
     -0.0006557641535911822,
     0.000349102002427239
    ]
   },
   "properties": {
    "classname": "item_healthkit_medium",
    "team": "0",
    "targetname": "",
    "hx": -3832.0,
    "hy": 2040.0,
    "hz": -663.739
   }
  },
  {
   "type": "Feature",
   "geometry": {
    "type": "Point",
    "coordinates": [
     -0.00047642155627001956,
     0.00047505252879314486
    ]
   },
   "properties": {
    "classname": "item_healthkit_medium",
    "team": "0",
    "targetname": "",
    "hx": -2784.0,
    "hy": 2776.0,
    "hz": -1071.76
   }
  },
  {
   "type": "Feature",
   "geometry": {
    "type": "Point",
    "coordinates": [
     -0.0006776685929606811,
     0.00036416130449272774
    ]
   },
   "properties": {
    "classname": "item_healthkit_medium",
    "team": "0",
    "targetname": "",
    "hx": -3960.0,
    "hy": 2128.0,
    "hz": -895.744
   }
  },
  {
   "type": "Feature",
   "geometry": {
    "type": "Point",
    "coordinates": [
     -0.0006776685929615168,
     0.00037511352417671955
    ]
   },
   "properties": {
    "classname": "item_ammopack_medium",
    "team": "0",
    "targetname": "",
    "hx": -3960.0,
    "hy": 2192.0,
    "hz": -895.744
   }
  },
  {
   "type": "Feature",
   "geometry": {
    "type": "Point",
    "coordinates": [
     -0.0003066621511584876,
     0.0003792206065582165
    ]
   },
   "properties": {
    "classname": "item_healthkit_small",
    "team": "0",
    "targetname": "",
    "hx": -1792.0,
    "hy": 2216.0,
    "hz": -871.765
   }
  },
  {
   "type": "Feature",
   "geometry": {
    "type": "Point",
    "coordinates": [
     -0.0003066621511581998,
     0.00037100644179522264
    ]
   },
   "properties": {
    "classname": "item_ammopack_small",
    "team": "0",
    "targetname": "",
    "hx": -1792.0,
    "hy": 2168.0,
    "hz": -891.765
   }
  },
  {
   "type": "Feature",
   "geometry": {
    "type": "Point",
    "coordinates": [
     -0.00042713656770616354,
     0.0006845137302494882
    ]
   },
   "properties": {
    "classname": "item_ammopack_full",
    "team": "0",
    "targetname": "",
    "hx": -2496.0,
    "hy": 4000.0,
    "hz": -1079.79
   }
  },
  {
   "type": "Feature",
   "geometry": {
    "type": "Point",
    "coordinates": [
     -0.0006475499888280358,
     0.000349102002427239
    ]
   },
   "properties": {
    "classname": "item_ammopack_medium",
    "team": "0",
    "targetname": "",
    "hx": -3784.0,
    "hy": 2040.0,
    "hz": -663.744
   }
  },
  {
   "type": "Feature",
   "geometry": {
    "type": "Point",
    "coordinates": [
     -0.000588396023553163,
     0.00048387077692308393
    ]
   },
   "properties": {
    "classname": "item_healthkit_medium",
    "team": "0",
    "targetname": "",
    "hx": -3438.33,
    "hy": 2827.53,
    "hz": -895.739
   }
  },
  {
   "type": "Feature",
   "geometry": {
    "type": "Point",
    "coordinates": [
     -0.000251901052738112,
     0.0004052321283076971
    ]
   },
   "properties": {
    "classname": "item_healthkit_medium",
    "team": "",
    "targetname": "",
    "hx": -1472.0,
    "hy": 2368.0,
    "hz": -887.557
   }
  },
  {
   "type": "Feature",
   "geometry": {
    "type": "Point",
    "coordinates": [
     -7.25584554064789e-05,
     5.476109841995906e-05
    ]
   },
   "properties": {
    "classname": "item_ammopack_small",
    "team": "",
    "targetname": "",
    "hx": -424.0,
    "hy": 320.0,
    "hz": -983.739
   }
  },
  {
   "type": "Feature",
   "geometry": {
    "type": "Point",
    "coordinates": [
     -7.25584554064726e-05,
     4.928498857796316e-05
    ]
   },
   "properties": {
    "classname": "item_healthkit_small",
    "team": "",
    "targetname": "",
    "hx": -424.0,
    "hy": 288.0,
    "hz": -975.739
   }
  },
  {
   "type": "Feature",
   "geometry": {
    "type": "Point",
    "coordinates": [
     -0.0002402643193321781,
     0.0006318061730202776
    ]
   },
   "properties": {
    "classname": "item_healthkit_small",
    "team": "0",
    "targetname": "",
    "hx": -1404.0,
    "hy": 3692.0,
    "hz": -1064.54
   }
  },
  {
   "type": "Feature",
   "geometry": {
    "type": "Point",
    "coordinates": [
     -0.0003710064418001639,
     0.0002957099314677789
    ]
   },
   "properties": {
    "classname": "item_healthkit_small",
    "team": "0",
    "targetname": "",
    "hx": -2168.0,
    "hy": 1728.0,
    "hz": -873.765
   }
  },
  {
   "type": "Feature",
   "geometry": {
    "type": "Point",
    "coordinates": [
     -0.0005174923800719945,
     0.0002071235870675414
    ]
   },
   "properties": {
    "classname": "item_healthkit_full",
    "team": "0",
    "targetname": "",
    "hx": -3024.0,
    "hy": 1210.34,
    "hz": -1015.74
   }
  },
  {
   "type": "Feature",
   "geometry": {
    "type": "Point",
    "coordinates": [
     -0.0005038021054669153,
     0.0002071235870675414
    ]
   },
   "properties": {
    "classname": "item_ammopack_full",
    "team": "0",
    "targetname": "",
    "hx": -2944.0,
    "hy": 1210.34,
    "hz": -1015.74
   }
  },
  {
   "type": "Feature",
   "geometry": {
    "type": "Point",
    "coordinates": [
     -0.00021186042208562274,
     0.0003838684547866105
    ]
   },
   "properties": {
    "classname": "info_player_teamspawn",
    "team": "",
    "targetname": "",
    "hx": -1238.02,
    "hy": 2243.16,
    "hz": -766.995
   }
  },
  {
   "type": "Feature",
   "geometry": {
    "type": "Point",
    "coordinates": [
     -0.0003162453433871592,
     0.0004969569681611285
    ]
   },
   "properties": {
    "classname": "item_ammopack_small",
    "team": "0",
    "targetname": "",
    "hx": -1848.0,
    "hy": 2904.0,
    "hz": -783.789
   }
  },
  {
   "type": "Feature",
   "geometry": {
    "type": "Point",
    "coordinates": [
     6.845137302506168e-05,
     0.00010404608699792221
    ]
   },
   "properties": {
    "classname": "item_ammopack_small",
    "team": "",
    "targetname": "",
    "hx": 400.0,
    "hy": 608.0,
    "hz": -807.739
   }
  }
 ]
}
