{
 "type": "FeatureCollection",
 "note": "pseudo-WGS84 via crs.local_to_wgs84 ((0,0)m maps to (0,0)deg); viewing only, not survey",
 "features": [
  {
   "type": "Feature",
   "geometry": {
    "type": "Point",
    "coordinates": [
     0.0001878990189539373,
     0.00012577939793334347
    ]
   },
   "properties": {
    "classname": "info_player_teamspawn",
    "team": "0",
    "targetname": "",
    "hx": 1098.0,
    "hy": 735.0,
    "hz": 771.0
   }
  },
  {
   "type": "Feature",
   "geometry": {
    "type": "Point",
    "coordinates": [
     0.00017763131300062572,
     0.0001807116247858649
    ]
   },
   "properties": {
    "classname": "info_player_teamspawn",
    "team": "0",
    "targetname": "",
    "hx": 1038.0,
    "hy": 1056.0,
    "hz": 769.0
   }
  },
  {
   "type": "Feature",
   "geometry": {
    "type": "Point",
    "coordinates": [
     0.00016560936948417957,
     0.00012218433182207314
    ]
   },
   "properties": {
    "classname": "info_player_teamspawn",
    "team": "0",
    "targetname": "",
    "hx": 967.749,
    "hy": 713.992,
    "hz": 798.0
   }
  },
  {
   "type": "Feature",
   "geometry": {
    "type": "Point",
    "coordinates": [
     0.00015007963535769767,
     0.00014751133984130423
    ]
   },
   "properties": {
    "classname": "info_player_teamspawn",
    "team": "0",
    "targetname": "",
    "hx": 877.0,
    "hy": 861.992,
    "hz": 798.0
   }
  },
  {
   "type": "Feature",
   "geometry": {
    "type": "Point",
    "coordinates": [
     0.00014597255297610974,
     0.00013519146172427391
    ]
   },
   "properties": {
    "classname": "info_player_teamspawn",
    "team": "0",
    "targetname": "",
    "hx": 853.0,
    "hy": 790.0,
    "hz": 798.0
   }
  },
  {
   "type": "Feature",
   "geometry": {
    "type": "Point",
    "coordinates": [
     0.00012920196658497087,
     0.00013895628724064612
    ]
   },
   "properties": {
    "classname": "info_player_teamspawn",
    "team": "0",
    "targetname": "",
    "hx": 755.0,
    "hy": 812.0,
    "hz": 799.616
   }
  },
  {
   "type": "Feature",
   "geometry": {
    "type": "Point",
    "coordinates": [
     0.00014494578238089556,
     0.00016017621287838025
    ]
   },
   "properties": {
    "classname": "info_player_teamspawn",
    "team": "0",
    "targetname": "",
    "hx": 847.0,
    "hy": 936.0,
    "hz": 799.616
   }
  },
  {
   "type": "Feature",
   "geometry": {
    "type": "Point",
    "coordinates": [
     0.00017711792770267384,
     0.00015144866281769926
    ]
   },
   "properties": {
    "classname": "info_player_teamspawn",
    "team": "0",
    "targetname": "",
    "hx": 1035.0,
    "hy": 885.0,
    "hz": 769.0
   }
  },
  {
   "type": "Feature",
   "geometry": {
    "type": "Point",
    "coordinates": [
     0.0001600050844465216,
     0.00016993053353443546
    ]
   },
   "properties": {
    "classname": "info_player_teamspawn",
    "team": "0",
    "targetname": "",
    "hx": 935.0,
    "hy": 993.0,
    "hz": 798.0
   }
  },
  {
   "type": "Feature",
   "geometry": {
    "type": "Point",
    "coordinates": [
     0.00019012368857760815,
     0.00016753473547856225
    ]
   },
   "properties": {
    "classname": "info_player_teamspawn",
    "team": "0",
    "targetname": "",
    "hx": 1111.0,
    "hy": 979.0,
    "hz": 769.0
   }
  },
  {
   "type": "Feature",
   "geometry": {
    "type": "Point",
    "coordinates": [
     0.00020227380728988196,
     0.00019388851409316756
    ]
   },
   "properties": {
    "classname": "info_player_teamspawn",
    "team": "0",
    "targetname": "",
    "hx": 1182.0,
    "hy": 1133.0,
    "hz": 769.0
   }
  },
  {
   "type": "Feature",
   "geometry": {
    "type": "Point",
    "coordinates": [
     0.00017489325807951188,
     0.00016975803607441258
    ]
   },
   "properties": {
    "classname": "info_player_teamspawn",
    "team": "0",
    "targetname": "",
    "hx": 1022.0,
    "hy": 991.992,
    "hz": 798.0
   }
  },
  {
   "type": "Feature",
   "geometry": {
    "type": "Point",
    "coordinates": [
     0.00016314032845942154,
     0.00015903341720572873
    ]
   },
   "properties": {
    "classname": "info_player_teamspawn",
    "team": "0",
    "targetname": "",
    "hx": 953.321,
    "hy": 929.322,
    "hz": 798.0
   }
  },
  {
   "type": "Feature",
   "geometry": {
    "type": "Point",
    "coordinates": [
     0.0001800271110561319,
     0.0001372450029150224
    ]
   },
   "properties": {
    "classname": "info_player_teamspawn",
    "team": "0",
    "targetname": "",
    "hx": 1052.0,
    "hy": 802.0,
    "hz": 769.0
   }
  },
  {
   "type": "Feature",
   "geometry": {
    "type": "Point",
    "coordinates": [
     0.0001998780092338523,
     0.0001813961385161144
    ]
   },
   "properties": {
    "classname": "info_player_teamspawn",
    "team": "0",
    "targetname": "",
    "hx": 1168.0,
    "hy": 1060.0,
    "hz": 769.0
   }
  },
  {
   "type": "Feature",
   "geometry": {
    "type": "Point",
    "coordinates": [
     0.00021305489854126368,
     0.0001849898355999242
    ]
   },
   "properties": {
    "classname": "info_player_teamspawn",
    "team": "0",
    "targetname": "",
    "hx": 1245.0,
    "hy": 1081.0,
    "hz": 769.0
   }
  },
  {
   "type": "Feature",
   "geometry": {
    "type": "Point",
    "coordinates": [
     -0.00017902600973203404,
     0.0005033520376859843
    ]
   },
   "properties": {
    "classname": "item_ammopack_full",
    "team": "",
    "targetname": "",
    "hx": -1046.15,
    "hy": 2941.37,
    "hz": 877.269
   }
  },
  {
   "type": "Feature",
   "geometry": {
    "type": "Point",
    "coordinates": [
     -0.00017951372576505787,
     0.0005106472427661182
    ]
   },
   "properties": {
    "classname": "item_healthkit_medium",
    "team": "",
    "targetname": "",
    "hx": -1049.0,
    "hy": 2984.0,
    "hz": 877.269
   }
  },
  {
   "type": "Feature",
   "geometry": {
    "type": "Point",
    "coordinates": [
     -0.0006360843838527567,
     0.000436035246168924
    ]
   },
   "properties": {
    "classname": "info_player_teamspawn",
    "team": "0",
    "targetname": "",
    "hx": -3717.0,
    "hy": 2548.0,
    "hz": 747.113
   }
  },
  {
   "type": "Feature",
   "geometry": {
    "type": "Point",
    "coordinates": [
     -0.0006675720154447375,
     0.00043141477848973993
    ]
   },
   "properties": {
    "classname": "info_player_teamspawn",
    "team": "0",
    "targetname": "",
    "hx": -3901.0,
    "hy": 2521.0,
    "hz": 747.113
   }
  },
  {
   "type": "Feature",
   "geometry": {
    "type": "Point",
    "coordinates": [
     -0.0006545885012639211,
     0.00040822687587753855
    ]
   },
   "properties": {
    "classname": "info_player_teamspawn",
    "team": "0",
    "targetname": "",
    "hx": -3825.13,
    "hy": 2385.5,
    "hz": 747.113
   }
  },
  {
   "type": "Feature",
   "geometry": {
    "type": "Point",
    "coordinates": [
     -0.000636940026012798,
     0.0004016384312238873
    ]
   },
   "properties": {
    "classname": "info_player_teamspawn",
    "team": "0",
    "targetname": "",
    "hx": -3722.0,
    "hy": 2347.0,
    "hz": 747.113
   }
  },
  {
   "type": "Feature",
   "geometry": {
    "type": "Point",
    "coordinates": [
     -0.0006643205752228031,
     0.0003935953948934558
    ]
   },
   "properties": {
    "classname": "info_player_teamspawn",
    "team": "0",
    "targetname": "",
    "hx": -3882.0,
    "hy": 2300.0,
    "hz": 747.113
   }
  },
  {
   "type": "Feature",
   "geometry": {
    "type": "Point",
    "coordinates": [
     -0.0006247899073018526,
     0.0004180667607498749
    ]
   },
   "properties": {
    "classname": "info_player_teamspawn",
    "team": "0",
    "targetname": "",
    "hx": -3651.0,
    "hy": 2443.0,
    "hz": 747.113
   }
  },
  {
   "type": "Feature",
   "geometry": {
    "type": "Point",
    "coordinates": [
     -0.0006674008870104119,
     0.0004108793665822553
    ]
   },
   "properties": {
    "classname": "info_player_teamspawn",
    "team": "0",
    "targetname": "",
    "hx": -3900.0,
    "hy": 2401.0,
    "hz": 747.113
   }
  },
  {
   "type": "Feature",
   "geometry": {
    "type": "Point",
    "coordinates": [
     -0.0006506303006201026,
     0.0004257675402151817
    ]
   },
   "properties": {
    "classname": "info_player_teamspawn",
    "team": "0",
    "targetname": "",
    "hx": -3802.0,
    "hy": 2488.0,
    "hz": 747.113
   }
  },
  {
   "type": "Feature",
   "geometry": {
    "type": "Point",
    "coordinates": [
     -0.0006218807239522725,
     0.00046649610716502626
    ]
   },
   "properties": {
    "classname": "info_player_teamspawn",
    "team": "0",
    "targetname": "",
    "hx": -3634.0,
    "hy": 2726.0,
    "hz": 747.113
   }
  },
  {
   "type": "Feature",
   "geometry": {
    "type": "Point",
    "coordinates": [
     -0.0006247899073110087,
     0.0005205726918547359
    ]
   },
   "properties": {
    "classname": "info_player_teamspawn",
    "team": "0",
    "targetname": "",
    "hx": -3651.0,
    "hy": 3042.0,
    "hz": 747.113
   }
  },
  {
   "type": "Feature",
   "geometry": {
    "type": "Point",
    "coordinates": [
     -0.000659528979118544,
     0.000480186381770016
    ]
   },
   "properties": {
    "classname": "info_player_teamspawn",
    "team": "0",
    "targetname": "",
    "hx": -3854.0,
    "hy": 2806.0,
    "hz": 747.113
   }
  },
  {
   "type": "Feature",
   "geometry": {
    "type": "Point",
    "coordinates": [
     -0.0006407048515354167,
     0.0004736835013326459
    ]
   },
   "properties": {
    "classname": "info_player_teamspawn",
    "team": "0",
    "targetname": "",
    "hx": -3744.0,
    "hy": 2768.0,
    "hz": 747.113
   }
  },
  {
   "type": "Feature",
   "geometry": {
    "type": "Point",
    "coordinates": [
     -0.0006263300632004507,
     0.0004820687945282021
    ]
   },
   "properties": {
    "classname": "info_player_teamspawn",
    "team": "0",
    "targetname": "",
    "hx": -3660.0,
    "hy": 2817.0,
    "hz": 747.113
   }
  },
  {
   "type": "Feature",
   "geometry": {
    "type": "Point",
    "coordinates": [
     -0.0006653473458275298,
     0.0004969569681611285
    ]
   },
   "properties": {
    "classname": "info_player_teamspawn",
    "team": "0",
    "targetname": "",
    "hx": -3888.0,
    "hy": 2904.0,
    "hz": 747.113
   }
  },
  {
   "type": "Feature",
   "geometry": {
    "type": "Point",
    "coordinates": [
     -0.0006415604937007486,
     0.0004998661515146888
    ]
   },
   "properties": {
    "classname": "info_player_teamspawn",
    "team": "0",
    "targetname": "",
    "hx": -3749.0,
    "hy": 2921.0,
    "hz": 747.113
   }
  },
  {
   "type": "Feature",
   "geometry": {
    "type": "Point",
    "coordinates": [
     -0.0006193137974665843,
     0.000497641481891378
    ]
   },
   "properties": {
    "classname": "info_player_teamspawn",
    "team": "0",
    "targetname": "",
    "hx": -3619.0,
    "hy": 2908.0,
    "hz": 747.113
   }
  },
  {
   "type": "Feature",
   "geometry": {
    "type": "Point",
    "coordinates": [
     -0.0002707251803182642,
     0.0003337004434966255
    ]
   },
   "properties": {
    "classname": "item_ammopack_medium",
    "team": "",
    "targetname": "",
    "hx": -1582.0,
    "hy": 1950.0,
    "hz": 1085.26
   }
  },
  {
   "type": "Feature",
   "geometry": {
    "type": "Point",
    "coordinates": [
     -0.00033678075529579424,
     0.0005043154907613105
    ]
   },
   "properties": {
    "classname": "item_ammopack_medium",
    "team": "",
    "targetname": "",
    "hx": -1968.0,
    "hy": 2947.0,
    "hz": 726.256
   }
  },
  {
   "type": "Feature",
   "geometry": {
    "type": "Point",
    "coordinates": [
     -0.00033096238858845684,
     0.0005044866191938729
    ]
   },
   "properties": {
    "classname": "item_healthkit_medium",
    "team": "",
    "targetname": "",
    "hx": -1934.0,
    "hy": 2948.0,
    "hz": 726.256
   }
  },
  {
   "type": "Feature",
   "geometry": {
    "type": "Point",
    "coordinates": [
     -7.529651032757033e-06,
     0.00010507285759329644
    ]
   },
   "properties": {
    "classname": "info_player_teamspawn",
    "team": "2",
    "targetname": "spawn_red_3_3_top",
    "hx": -44.0,
    "hy": 614.0,
    "hz": 891.0
   }
  },
  {
   "type": "Feature",
   "geometry": {
    "type": "Point",
    "coordinates": [
     3.542358554049112e-05,
     0.00012184344398440891
    ]
   },
   "properties": {
    "classname": "info_player_teamspawn",
    "team": "2",
    "targetname": "",
    "hx": 207.0,
    "hy": 712.0,
    "hz": 585.118
   }
  },
  {
   "type": "Feature",
   "geometry": {
    "type": "Point",
    "coordinates": [
     -0.00039224176899198217,
     3.982672011024085e-05
    ]
   },
   "properties": {
    "classname": "item_ammopack_medium",
    "team": "",
    "targetname": "",
    "hx": -2292.09,
    "hy": 232.73,
    "hz": 544.236
   }
  },
  {
   "type": "Feature",
   "geometry": {
    "type": "Point",
    "coordinates": [
     -3.320490541224e-05,
     5.06336517549872e-06
    ]
   },
   "properties": {
    "classname": "item_healthkit_small",
    "team": "",
    "targetname": "",
    "hx": -194.035,
    "hy": 29.5881,
    "hz": 921.26
   }
  },
  {
   "type": "Feature",
   "geometry": {
    "type": "Point",
    "coordinates": [
     -3.319891591823883e-05,
     0.00047453914349545776
    ]
   },
   "properties": {
    "classname": "item_healthkit_medium",
    "team": "",
    "targetname": "",
    "hx": -194.0,
    "hy": 2773.0,
    "hz": 934.256
   }
  },
  {
   "type": "Feature",
   "geometry": {
    "type": "Point",
    "coordinates": [
     -0.00018088275321854195,
     -6.451541907601428e-05
    ]
   },
   "properties": {
    "classname": "item_ammopack_small",
    "team": "",
    "targetname": "",
    "hx": -1057.0,
    "hy": -377.0,
    "hz": 594.881
   }
  },
  {
   "type": "Feature",
   "geometry": {
    "type": "Point",
    "coordinates": [
     -5.390134917572414e-05,
     -0.00034168016230700895
    ]
   },
   "properties": {
    "classname": "item_healthkit_small",
    "team": "",
    "targetname": "",
    "hx": -314.976,
    "hy": -1996.63,
    "hz": 1161.93
   }
  },
  {
   "type": "Feature",
   "geometry": {
    "type": "Point",
    "coordinates": [
     -0.00039838699102205904,
     -0.000527075572292106
    ]
   },
   "properties": {
    "classname": "info_player_teamspawn",
    "team": "0",
    "targetname": "",
    "hx": -2328.0,
    "hy": -3080.0,
    "hz": 648.0
   }
  },
  {
   "type": "Feature",
   "geometry": {
    "type": "Point",
    "coordinates": [
     5.048288760599199e-05,
     0.00010952219683991812
    ]
   },
   "properties": {
    "classname": "info_player_teamspawn",
    "team": "2",
    "targetname": "",
    "hx": 295.0,
    "hy": 640.0,
    "hz": 581.502
   }
  },
  {
   "type": "Feature",
   "geometry": {
    "type": "Point",
    "coordinates": [
     -9.754320656075861e-06,
     0.00011790749003547435
    ]
   },
   "properties": {
    "classname": "info_player_teamspawn",
    "team": "2",
    "targetname": "spawn_red_3_3_top",
    "hx": -57.0,
    "hy": 689.0,
    "hz": 891.0
   }
  },
  {
   "type": "Feature",
   "geometry": {
    "type": "Point",
    "coordinates": [
     -2.4813622721595427e-05,
     0.00011670959100753775
    ]
   },
   "properties": {
    "classname": "info_player_teamspawn",
    "team": "2",
    "targetname": "spawn_red_3_3_top",
    "hx": -145.0,
    "hy": 682.0,
    "hz": 891.0
   }
  },
  {
   "type": "Feature",
   "geometry": {
    "type": "Point",
    "coordinates": [
     -2.43002374238977e-05,
     0.00010507285759329644
    ]
   },
   "properties": {
    "classname": "info_player_teamspawn",
    "team": "2",
    "targetname": "spawn_red_3_3_top",
    "hx": -142.0,
    "hy": 614.0,
    "hz": 891.0
   }
  },
  {
   "type": "Feature",
   "geometry": {
    "type": "Point",
    "coordinates": [
     2.926296196824101e-05,
     0.00013005760874740277
    ]
   },
   "properties": {
    "classname": "info_player_teamspawn",
    "team": "2",
    "targetname": "spawn_red_3_3_top",
    "hx": 171.0,
    "hy": 760.0,
    "hz": 891.0
   }
  },
  {
   "type": "Feature",
   "geometry": {
    "type": "Point",
    "coordinates": [
     -7.529651032759809e-06,
     0.00011602507727728826
    ]
   },
   "properties": {
    "classname": "info_player_teamspawn",
    "team": "2",
    "targetname": "",
    "hx": -44.0,
    "hy": 678.0,
    "hz": 585.118
   }
  },
  {
   "type": "Feature",
   "geometry": {
    "type": "Point",
    "coordinates": [
     2.104879720521058e-05,
     0.00011003558213760524
    ]
   },
   "properties": {
    "classname": "info_player_teamspawn",
    "team": "2",
    "targetname": "",
    "hx": 123.0,
    "hy": 643.0,
    "hz": 585.118
   }
  },
  {
   "type": "Feature",
   "geometry": {
    "type": "Point",
    "coordinates": [
     -0.000297922622101578,
     0.00013006086018762145
    ]
   },
   "properties": {
    "classname": "item_ammopack_full",
    "team": "",
    "targetname": "",
    "hx": -1740.93,
    "hy": 760.019,
    "hz": 1276.28
   }
  },
  {
   "type": "Feature",
   "geometry": {
    "type": "Point",
    "coordinates": [
     -2.9262961968241608e-05,
     0.00013057099404508989
    ]
   },
   "properties": {
    "classname": "info_player_teamspawn",
    "team": "2",
    "targetname": "",
    "hx": -171.0,
    "hy": 763.0,
    "hz": 585.118
   }
  },
  {
   "type": "Feature",
   "geometry": {
    "type": "Point",
    "coordinates": [
     -1.1636733414259615e-05,
     0.00010165028894204902
    ]
   },
   "properties": {
    "classname": "info_player_teamspawn",
    "team": "2",
    "targetname": "",
    "hx": -68.0,
    "hy": 594.0,
    "hz": 585.118
   }
  },
  {
   "type": "Feature",
   "geometry": {
    "type": "Point",
    "coordinates": [
     3.063198942872685e-05,
     0.00011551169197960114
    ]
   },
   "properties": {
    "classname": "info_player_teamspawn",
    "team": "2",
    "targetname": "spawn_red_3_3_top",
    "hx": 179.0,
    "hy": 675.0,
    "hz": 891.0
   }
  },
  {
   "type": "Feature",
   "geometry": {
    "type": "Point",
    "coordinates": [
     0.0002800824830127391,
     0.00039202443588253323
    ]
   },
   "properties": {
    "classname": "item_ammopack_medium",
    "team": "",
    "targetname": "",
    "hx": 1636.68,
    "hy": 2290.82,
    "hz": 823.256
   }
  },
  {
   "type": "Feature",
   "geometry": {
    "type": "Point",
    "coordinates": [
     0.00019766702988418497,
     3.658212502885828e-05
    ]
   },
   "properties": {
    "classname": "item_healthkit_small",
    "team": "",
    "targetname": "",
    "hx": 1155.08,
    "hy": 213.77,
    "hz": 727.256
   }
  },
  {
   "type": "Feature",
   "geometry": {
    "type": "Point",
    "coordinates": [
     -0.0004031785871365086,
     -0.000564381570590703
    ]
   },
   "properties": {
    "classname": "info_player_teamspawn",
    "team": "0",
    "targetname": "",
    "hx": -2356.0,
    "hy": -3298.0,
    "hz": 648.0
   }
  },
  {
   "type": "Feature",
   "geometry": {
    "type": "Point",
    "coordinates": [
     1.8258034728083712e-06,
     -0.0006400203377832714
    ]
   },
   "properties": {
    "classname": "item_ammopack_full",
    "team": "",
    "targetname": "",
    "hx": 10.6692,
    "hy": -3740.0,
    "hz": 1150.26
   }
  },
  {
   "type": "Feature",
   "geometry": {
    "type": "Point",
    "coordinates": [
     0.00030050495015245205,
     -0.00030563538055639646
    ]
   },
   "properties": {
    "classname": "item_healthkit_small",
    "team": "",
    "targetname": "",
    "hx": 1756.02,
    "hy": -1786.0,
    "hz": 921.112
   }
  },
  {
   "type": "Feature",
   "geometry": {
    "type": "Point",
    "coordinates": [
     -0.0005710555794608499,
     -4.96272454430879e-05
    ]
   },
   "properties": {
    "classname": "item_healthkit_small",
    "team": "",
    "targetname": "",
    "hx": -3337.0,
    "hy": -290.0,
    "hz": 561.236
   }
  },
  {
   "type": "Feature",
   "geometry": {
    "type": "Point",
    "coordinates": [
     -0.0007066988202476424,
     8.44814866883639e-05
    ]
   },
   "properties": {
    "classname": "item_healthkit_medium",
    "team": "",
    "targetname": "",
    "hx": -4129.64,
    "hy": 493.673,
    "hz": 44.2361
   }
  },
  {
   "type": "Feature",
   "geometry": {
    "type": "Point",
    "coordinates": [
     -0.0007083450757688013,
     7.921432466252666e-05
    ]
   },
   "properties": {
    "classname": "item_ammopack_medium",
    "team": "",
    "targetname": "",
    "hx": -4139.26,
    "hy": 462.894,
    "hz": 48.2361
   }
  },
  {
   "type": "Feature",
   "geometry": {
    "type": "Point",
    "coordinates": [
     -0.0001931509505492221,
     0.000116367334142413
    ]
   },
   "properties": {
    "classname": "team_control_point",
    "team": "",
    "targetname": "cap_red_6",
    "hx": -1128.69,
    "hy": 680.0,
    "hz": 1079.0
   }
  },
  {
   "type": "Feature",
   "geometry": {
    "type": "Point",
    "coordinates": [
     -2.4300237423918783e-05,
     0.00012937309501715328
    ]
   },
   "properties": {
    "classname": "info_player_teamspawn",
    "team": "2",
    "targetname": "spawn_red_3_3_top",
    "hx": -142.0,
    "hy": 756.0,
    "hz": 891.0
   }
  },
  {
   "type": "Feature",
   "geometry": {
    "type": "Point",
    "coordinates": [
     -3.31078755920847e-05,
     0.00046868655110182466
    ]
   },
   "properties": {
    "classname": "item_ammopack_medium",
    "team": "",
    "targetname": "",
    "hx": -193.468,
    "hy": 2738.8,
    "hz": 934.256
   }
  },
  {
   "type": "Feature",
   "geometry": {
    "type": "Point",
    "coordinates": [
     0.00016000508444805883,
     -0.00030323958250052325
    ]
   },
   "properties": {
    "classname": "item_healthkit_medium",
    "team": "",
    "targetname": "",
    "hx": 935.0,
    "hy": -1772.0,
    "hz": 1177.26
   }
  },
  {
   "type": "Feature",
   "geometry": {
    "type": "Point",
    "coordinates": [
     9.013197640874913e-06,
     -0.0006391646956204597
    ]
   },
   "properties": {
    "classname": "item_healthkit_full",
    "team": "",
    "targetname": "",
    "hx": 52.6692,
    "hy": -3735.0,
    "hz": 1148.27
   }
  },
  {
   "type": "Feature",
   "geometry": {
    "type": "Point",
    "coordinates": [
     -0.0004023229449721695,
     -0.0005424771312227194
    ]
   },
   "properties": {
    "classname": "info_player_teamspawn",
    "team": "0",
    "targetname": "",
    "hx": -2351.0,
    "hy": -3170.0,
    "hz": 648.0
   }
  },
  {
   "type": "Feature",
   "geometry": {
    "type": "Point",
    "coordinates": [
     -0.00011807861847248223,
     0.0004971794351234596
    ]
   },
   "properties": {
    "classname": "item_healthkit_small",
    "team": "",
    "targetname": "",
    "hx": -690.0,
    "hy": 2905.3,
    "hz": 721.236
   }
  },
  {
   "type": "Feature",
   "geometry": {
    "type": "Point",
    "coordinates": [
     -0.00011764771707918808,
     0.0004923365004819444
    ]
   },
   "properties": {
    "classname": "item_ammopack_small",
    "team": "",
    "targetname": "",
    "hx": -687.482,
    "hy": 2877.0,
    "hz": 721.236
   }
  },
  {
   "type": "Feature",
   "geometry": {
    "type": "Point",
    "coordinates": [
     -0.00042903438199828,
     -0.00028965883009237346
    ]
   },
   "properties": {
    "classname": "item_healthkit_medium",
    "team": "",
    "targetname": "",
    "hx": -2507.09,
    "hy": -1692.64,
    "hz": 183.236
   }
  },
  {
   "type": "Feature",
   "geometry": {
    "type": "Point",
    "coordinates": [
     2.6011521749548627e-05,
     0.000131084379342777
    ]
   },
   "properties": {
    "classname": "info_player_teamspawn",
    "team": "2",
    "targetname": "",
    "hx": 152.0,
    "hy": 766.0,
    "hz": 585.118
   }
  },
  {
   "type": "Feature",
   "geometry": {
    "type": "Point",
    "coordinates": [
     -0.00020672314654637559,
     -0.0005918801984191507
    ]
   },
   "properties": {
    "classname": "team_control_point",
    "team": "",
    "targetname": "cap_red_4",
    "hx": -1208.0,
    "hy": -3458.69,
    "hz": 1126.0
   }
  },
  {
   "type": "Feature",
   "geometry": {
    "type": "Point",
    "coordinates": [
     0.00019645544058523908,
     0.0003485886171295519
    ]
   },
   "properties": {
    "classname": "item_ammopack_medium",
    "team": "",
    "targetname": "",
    "hx": 1148.0,
    "hy": 2037.0,
    "hz": 724.256
   }
  },
  {
   "type": "Feature",
   "geometry": {
    "type": "Point",
    "coordinates": [
     -0.0006042544953781977,
     -7.084717108082203e-05
    ]
   },
   "properties": {
    "classname": "team_control_point",
    "team": "",
    "targetname": "cap_red_5",
    "hx": -3531.0,
    "hy": -414.0,
    "hz": 253.0
   }
  },
  {
   "type": "Feature",
   "geometry": {
    "type": "Point",
    "coordinates": [
     3.148763159152889e-05,
     0.00010455947229560932
    ]
   },
   "properties": {
    "classname": "info_player_teamspawn",
    "team": "2",
    "targetname": "",
    "hx": 184.0,
    "hy": 611.0,
    "hz": 585.118
   }
  },
  {
   "type": "Feature",
   "geometry": {
    "type": "Point",
    "coordinates": [
     5.304981409442338e-06,
     0.00010438834386304695
    ]
   },
   "properties": {
    "classname": "info_player_teamspawn",
    "team": "2",
    "targetname": "spawn_red_3_3_top",
    "hx": 31.0,
    "hy": 610.0,
    "hz": 891.0
   }
  },
  {
   "type": "Feature",
   "geometry": {
    "type": "Point",
    "coordinates": [
     3.935953948943013e-06,
     0.00011876313219828621
    ]
   },
   "properties": {
    "classname": "info_player_teamspawn",
    "team": "2",
    "targetname": "spawn_red_3_3_top",
    "hx": 23.0,
    "hy": 694.0,
    "hz": 891.0
   }
  },
  {
   "type": "Feature",
   "geometry": {
    "type": "Point",
    "coordinates": [
     0.0002815062715682049,
     -0.00026901389598804886
    ]
   },
   "properties": {
    "classname": "team_control_point",
    "team": "",
    "targetname": "cap_red_3",
    "hx": 1645.0,
    "hy": -1572.0,
    "hz": 1181.0
   }
  },
  {
   "type": "Feature",
   "geometry": {
    "type": "Point",
    "coordinates": [
     -4.671806208998339e-05,
     -0.0002530989517597483
    ]
   },
   "properties": {
    "classname": "item_healthkit_medium",
    "team": "",
    "targetname": "",
    "hx": -273.0,
    "hy": -1479.0,
    "hz": 604.26
   }
  },
  {
   "type": "Feature",
   "geometry": {
    "type": "Point",
    "coordinates": [
     -4.158420911304531e-05,
     -0.00024779397035031475
    ]
   },
   "properties": {
    "classname": "item_ammopack_medium",
    "team": "",
    "targetname": "",
    "hx": -243.0,
    "hy": -1448.0,
    "hz": 604.281
   }
  },
  {
   "type": "Feature",
   "geometry": {
    "type": "Point",
    "coordinates": [
     -0.0004083124401117077,
     -0.0005363165076504741
    ]
   },
   "properties": {
    "classname": "info_player_teamspawn",
    "team": "0",
    "targetname": "",
    "hx": -2386.0,
    "hy": -3134.0,
    "hz": 648.0
   }
  },
  {
   "type": "Feature",
   "geometry": {
    "type": "Point",
    "coordinates": [
     -0.00039256862431565493,
     -0.0005421348743575947
    ]
   },
   "properties": {
    "classname": "info_player_teamspawn",
    "team": "0",
    "targetname": "",
    "hx": -2294.0,
    "hy": -3168.0,
    "hz": 648.0
   }
  },
  {
   "type": "Feature",
   "geometry": {
    "type": "Point",
    "coordinates": [
     -0.00027568790485841524,
     -0.00010165028894204902
    ]
   },
   "properties": {
    "classname": "item_ammopack_full",
    "team": "",
    "targetname": "",
    "hx": -1611.0,
    "hy": -594.0,
    "hz": 923.236
   }
  },
  {
   "type": "Feature",
   "geometry": {
    "type": "Point",
    "coordinates": [
     -0.0003901728262602974,
     -0.0005517180665810875
    ]
   },
   "properties": {
    "classname": "info_player_teamspawn",
    "team": "0",
    "targetname": "",
    "hx": -2280.0,
    "hy": -3224.0,
    "hz": 648.0
   }
  },
  {
   "type": "Feature",
   "geometry": {
    "type": "Point",
    "coordinates": [
     4.967824171620817e-05,
     -0.00016922462875011568
    ]
   },
   "properties": {
    "classname": "item_healthkit_medium",
    "team": "",
    "targetname": "",
    "hx": 290.298,
    "hy": -988.875,
    "hz": 1110.0
   }
  },
  {
   "type": "Feature",
   "geometry": {
    "type": "Point",
    "coordinates": [
     -0.00017455100121984609,
     0.0004839512072863882
    ]
   },
   "properties": {
    "classname": "item_ammopack_medium",
    "team": "",
    "targetname": "",
    "hx": -1020.0,
    "hy": 2828.0,
    "hz": 1045.26
   }
  },
  {
   "type": "Feature",
   "geometry": {
    "type": "Point",
    "coordinates": [
     0.00016308539623430265,
     -0.00030837343547739446
    ]
   },
   "properties": {
    "classname": "item_ammopack_full",
    "team": "",
    "targetname": "",
    "hx": 953.0,
    "hy": -1802.0,
    "hz": 1177.26
   }
  },
  {
   "type": "Feature",
   "geometry": {
    "type": "Point",
    "coordinates": [
     -0.00030530339139801056,
     0.00012993987238579986
    ]
   },
   "properties": {
    "classname": "item_healthkit_medium",
    "team": "",
    "targetname": "",
    "hx": -1784.06,
    "hy": 759.312,
    "hz": 1276.26
   }
  },
  {
   "type": "Feature",
   "geometry": {
    "type": "Point",
    "coordinates": [
     -0.0002812495789162918,
     -2.790077964496914e-05
    ]
   },
   "properties": {
    "classname": "item_ammopack_medium",
    "team": "",
    "targetname": "",
    "hx": -1643.5,
    "hy": -163.04,
    "hz": 810.0
   }
  },
  {
   "type": "Feature",
   "geometry": {
    "type": "Point",
    "coordinates": [
     0.0,
     0.00010695527035148253
    ]
   },
   "properties": {
    "classname": "info_player_teamspawn",
    "team": "2",
    "targetname": "",
    "hx": 0.0,
    "hy": 625.0,
    "hz": 585.118
   }
  },
  {
   "type": "Feature",
   "geometry": {
    "type": "Point",
    "coordinates": [
     -1.0609962818893123e-05,
     0.00012697729696128007
    ]
   },
   "properties": {
    "classname": "info_player_teamspawn",
    "team": "2",
    "targetname": "spawn_red_3_3_top",
    "hx": -62.0,
    "hy": 742.0,
    "hz": 891.0
   }
  },
  {
   "type": "Feature",
   "geometry": {
    "type": "Point",
    "coordinates": [
     -0.00027722806075107515,
     -2.7722806075104275e-05
    ]
   },
   "properties": {
    "classname": "item_healthkit_small",
    "team": "",
    "targetname": "",
    "hx": -1620.0,
    "hy": -162.0,
    "hz": 809.979
   }
  },
  {
   "type": "Feature",
   "geometry": {
    "type": "Point",
    "coordinates": [
     0.00010126559222872758,
     -0.0004467838230181666
    ]
   },
   "properties": {
    "classname": "item_ammopack_full",
    "team": "",
    "targetname": "",
    "hx": 591.752,
    "hy": -2610.81,
    "hz": 1159.21
   }
  },
  {
   "type": "Feature",
   "geometry": {
    "type": "Point",
    "coordinates": [
     0.00028172873853409675,
     0.0003940745545046304
    ]
   },
   "properties": {
    "classname": "item_healthkit_small",
    "team": "",
    "targetname": "",
    "hx": 1646.3,
    "hy": 2302.8,
    "hz": 1075.26
   }
  },
  {
   "type": "Feature",
   "geometry": {
    "type": "Point",
    "coordinates": [
     0.00035885632308734074,
     -0.0002720942077741716
    ]
   },
   "properties": {
    "classname": "item_ammopack_full",
    "team": "",
    "targetname": "",
    "hx": 2097.0,
    "hy": -1590.0,
    "hz": 1212.21
   }
  },
  {
   "type": "Feature",
   "geometry": {
    "type": "Point",
    "coordinates": [
     -0.0003788783497091232,
     -0.000527075572292106
    ]
   },
   "properties": {
    "classname": "info_player_teamspawn",
    "team": "0",
    "targetname": "",
    "hx": -2214.0,
    "hy": -3080.0,
    "hz": 648.0
   }
  },
  {
   "type": "Feature",
   "geometry": {
    "type": "Point",
    "coordinates": [
     -0.00038948831252843917,
     -0.000527075572292106
    ]
   },
   "properties": {
    "classname": "info_player_teamspawn",
    "team": "0",
    "targetname": "",
    "hx": -2276.0,
    "hy": -3080.0,
    "hz": 648.0
   }
  },
  {
   "type": "Feature",
   "geometry": {
    "type": "Point",
    "coordinates": [
     -0.00017130811742281855,
     0.0004896617630809945
    ]
   },
   "properties": {
    "classname": "item_healthkit_medium",
    "team": "",
    "targetname": "",
    "hx": -1001.05,
    "hy": 2861.37,
    "hz": 1045.26
   }
  },
  {
   "type": "Feature",
   "geometry": {
    "type": "Point",
    "coordinates": [
     -0.00022588439713450484,
     -0.00038692138602352324
    ]
   },
   "properties": {
    "classname": "item_ammopack_full",
    "team": "",
    "targetname": "",
    "hx": -1319.97,
    "hy": -2261.0,
    "hz": 1161.26
   }
  },
  {
   "type": "Feature",
   "geometry": {
    "type": "Point",
    "coordinates": [
     0.00025545196770790563,
     -0.00010448605819804009
    ]
   },
   "properties": {
    "classname": "item_ammopack_full",
    "team": "",
    "targetname": "",
    "hx": 1492.75,
    "hy": -610.571,
    "hz": 894.256
   }
  },
  {
   "type": "Feature",
   "geometry": {
    "type": "Point",
    "coordinates": [
     0.0002481567626277635,
     -0.0001049720629465172
    ]
   },
   "properties": {
    "classname": "item_healthkit_medium",
    "team": "",
    "targetname": "",
    "hx": 1450.12,
    "hy": -613.411,
    "hz": 894.256
   }
  },
  {
   "type": "Feature",
   "geometry": {
    "type": "Point",
    "coordinates": [
     -0.00037904947814346813,
     -0.0005554828920974598
    ]
   },
   "properties": {
    "classname": "info_player_teamspawn",
    "team": "0",
    "targetname": "",
    "hx": -2215.0,
    "hy": -3246.0,
    "hz": 648.0
   }
  },
  {
   "type": "Feature",
   "geometry": {
    "type": "Point",
    "coordinates": [
     -0.00041447306368461905,
     -0.0005421348743575947
    ]
   },
   "properties": {
    "classname": "info_player_teamspawn",
    "team": "0",
    "targetname": "",
    "hx": -2422.0,
    "hy": -3168.0,
    "hz": 648.0
   }
  },
  {
   "type": "Feature",
   "geometry": {
    "type": "Point",
    "coordinates": [
     -0.00020672314654547963,
     -0.0005673318247680783
    ]
   },
   "properties": {
    "classname": "item_healthkit_small",
    "team": "",
    "targetname": "",
    "hx": -1208.0,
    "hy": -3315.24,
    "hz": 1355.26
   }
  },
  {
   "type": "Feature",
   "geometry": {
    "type": "Point",
    "coordinates": [
     -0.0003860811454197369,
     4.016897697536559e-05
    ]
   },
   "properties": {
    "classname": "item_healthkit_medium",
    "team": "",
    "targetname": "",
    "hx": -2256.09,
    "hy": 234.73,
    "hz": 540.236
   }
  },
  {
   "type": "Feature",
   "geometry": {
    "type": "Point",
    "coordinates": [
     -0.0002554947498157635,
     -6.040833669451734e-05
    ]
   },
   "properties": {
    "classname": "item_ammopack_full",
    "team": "",
    "targetname": "",
    "hx": -1493.0,
    "hy": -353.0,
    "hz": 552.236
   }
  },
  {
   "type": "Feature",
   "geometry": {
    "type": "Point",
    "coordinates": [
     -0.00043519500557061736,
     -0.00029000108695749824
    ]
   },
   "properties": {
    "classname": "item_ammopack_full",
    "team": "",
    "targetname": "",
    "hx": -2543.09,
    "hy": -1694.64,
    "hz": 187.236
   }
  },
  {
   "type": "Feature",
   "geometry": {
    "type": "Point",
    "coordinates": [
     -3.475019515849786e-05,
     0.00020377289235797014
    ]
   },
   "properties": {
    "classname": "item_ammopack_full",
    "team": "",
    "targetname": "",
    "hx": -203.065,
    "hy": 1190.76,
    "hz": 1089.26
   }
  },
  {
   "type": "Feature",
   "geometry": {
    "type": "Point",
    "coordinates": [
     -0.0003920552390194032,
     -0.0005642104421581407
    ]
   },
   "properties": {
    "classname": "info_player_teamspawn",
    "team": "0",
    "targetname": "",
    "hx": -2291.0,
    "hy": -3297.0,
    "hz": 648.0
   }
  },
  {
   "type": "Feature",
   "geometry": {
    "type": "Point",
    "coordinates": [
     -0.00037956286344197955,
     -0.0005678041392419505
    ]
   },
   "properties": {
    "classname": "info_player_teamspawn",
    "team": "0",
    "targetname": "",
    "hx": -2218.0,
    "hy": -3318.0,
    "hz": 648.0
   }
  },
  {
   "type": "Feature",
   "geometry": {
    "type": "Point",
    "coordinates": [
     7.187394167634801e-06,
     0.00011773636160291199
    ]
   },
   "properties": {
    "classname": "info_player_teamspawn",
    "team": "0",
    "targetname": "",
    "hx": 42.0,
    "hy": 688.0,
    "hz": 585.118
   }
  },
  {
   "type": "Feature",
   "geometry": {
    "type": "Point",
    "coordinates": [
     -0.0002791104735114609,
     -0.0002291409712010162
    ]
   },
   "properties": {
    "classname": "item_healthkit_medium",
    "team": "",
    "targetname": "",
    "hx": -1631.0,
    "hy": -1339.0,
    "hz": 923.26
   }
  },
  {
   "type": "Feature",
   "geometry": {
    "type": "Point",
    "coordinates": [
     -0.00028458658335338315,
     -0.00022315147606133317
    ]
   },
   "properties": {
    "classname": "item_ammopack_full",
    "team": "",
    "targetname": "",
    "hx": -1663.0,
    "hy": -1304.0,
    "hz": 923.281
   }
  },
  {
   "type": "Feature",
   "geometry": {
    "type": "Point",
    "coordinates": [
     -0.0006340308426441612,
     -7.700779465306742e-05
    ]
   },
   "properties": {
    "classname": "item_ammopack_full",
    "team": "",
    "targetname": "",
    "hx": -3705.0,
    "hy": -450.0,
    "hz": 242.236
   }
  },
  {
   "type": "Feature",
   "geometry": {
    "type": "Point",
    "coordinates": [
     1.5401558930648608e-05,
     0.00012235682928209604
    ]
   },
   "properties": {
    "classname": "info_player_teamspawn",
    "team": "2",
    "targetname": "",
    "hx": 90.0,
    "hy": 715.0,
    "hz": 585.118
   }
  },
  {
   "type": "Feature",
   "geometry": {
    "type": "Point",
    "coordinates": [
     -3.523756893445482e-05,
     0.0002110680974381041
    ]
   },
   "properties": {
    "classname": "item_healthkit_full",
    "team": "",
    "targetname": "",
    "hx": -205.913,
    "hy": 1233.39,
    "hz": 1089.26
   }
  },
  {
   "type": "Feature",
   "geometry": {
    "type": "Point",
    "coordinates": [
     -0.00022657404472126242,
     0.0005015774358403125
    ]
   },
   "properties": {
    "classname": "team_control_point",
    "team": "",
    "targetname": "cap_red_1",
    "hx": -1324.0,
    "hy": 2931.0,
    "hz": 1069.0
   }
  },
  {
   "type": "Feature",
   "geometry": {
    "type": "Point",
    "coordinates": [
     1.6599457958585955e-05,
     0.00011910538906341096
    ]
   },
   "properties": {
    "classname": "info_player_teamspawn",
    "team": "2",
    "targetname": "spawn_red_3_3_top",
    "hx": 97.0,
    "hy": 696.0,
    "hz": 891.0
   }
  },
  {
   "type": "Feature",
   "geometry": {
    "type": "Point",
    "coordinates": [
     -0.00041498644898299174,
     -0.0005517180665810875
    ]
   },
   "properties": {
    "classname": "info_player_teamspawn",
    "team": "0",
    "targetname": "",
    "hx": -2425.0,
    "hy": -3224.0,
    "hz": 648.0
   }
  },
  {
   "type": "Feature",
   "geometry": {
    "type": "Point",
    "coordinates": [
     0.00019063707387800724,
     0.0003484174886969895
    ]
   },
   "properties": {
    "classname": "item_healthkit_small",
    "team": "",
    "targetname": "",
    "hx": 1114.0,
    "hy": 2036.0,
    "hz": 724.256
   }
  },
  {
   "type": "Feature",
   "geometry": {
    "type": "Point",
    "coordinates": [
     -0.0002815798568033554,
     0.0005344802995690798
    ]
   },
   "properties": {
    "classname": "item_healthkit_small",
    "team": "",
    "targetname": "",
    "hx": -1645.43,
    "hy": 3123.27,
    "hz": 1045.26
   }
  },
  {
   "type": "Feature",
   "geometry": {
    "type": "Point",
    "coordinates": [
     0.00029006269319655767,
     0.0002748322626951695
    ]
   },
   "properties": {
    "classname": "team_control_point",
    "team": "",
    "targetname": "cap_red_2",
    "hx": 1695.0,
    "hy": 1606.0,
    "hz": 830.0
   }
  },
  {
   "type": "Feature",
   "geometry": {
    "type": "Point",
    "coordinates": [
     -0.00017598505747860445,
     -6.472077319508912e-05
    ]
   },
   "properties": {
    "classname": "item_healthkit_medium",
    "team": "",
    "targetname": "",
    "hx": -1028.38,
    "hy": -378.2,
    "hz": 590.881
   }
  },
  {
   "type": "Feature",
   "geometry": {
    "type": "Point",
    "coordinates": [
     -0.0002019880228162434,
     -0.000567237704130169
    ]
   },
   "properties": {
    "classname": "item_ammopack_medium",
    "team": "",
    "targetname": "",
    "hx": -1180.33,
    "hy": -3314.69,
    "hz": 1355.26
   }
  },
  {
   "type": "Feature",
   "geometry": {
    "type": "Point",
    "coordinates": [
     -0.0004153287058490142,
     -0.0005642104421581407
    ]
   },
   "properties": {
    "classname": "info_player_teamspawn",
    "team": "0",
    "targetname": "",
    "hx": -2427.0,
    "hy": -3297.0,
    "hz": 648.0
   }
  },
  {
   "type": "Feature",
   "geometry": {
    "type": "Point",
    "coordinates": [
     -0.00028578448239140327,
     0.000530327012510791
    ]
   },
   "properties": {
    "classname": "item_ammopack_medium",
    "team": "",
    "targetname": "",
    "hx": -1670.0,
    "hy": 3099.0,
    "hz": 1045.26
   }
  },
  {
   "type": "Feature",
   "geometry": {
    "type": "Point",
    "coordinates": [
     -0.0004149864489637603,
     1.1294476549116556e-05
    ]
   },
   "properties": {
    "classname": "item_healthkit_small",
    "team": "",
    "targetname": "",
    "hx": -2425.0,
    "hy": 66.0,
    "hz": 377.236
   }
  },
  {
   "type": "Feature",
   "geometry": {
    "type": "Point",
    "coordinates": [
     -0.00042114707253600533,
     1.0952219683991812e-05
    ]
   },
   "properties": {
    "classname": "item_ammopack_full",
    "team": "",
    "targetname": "",
    "hx": -2461.0,
    "hy": 64.0,
    "hz": 381.236
   }
  },
  {
   "type": "Feature",
   "geometry": {
    "type": "Point",
    "coordinates": [
     -3.3026931842375e-05,
     1.0419103278030256e-06
    ]
   },
   "properties": {
    "classname": "item_ammopack_medium",
    "team": "",
    "targetname": "",
    "hx": -192.995,
    "hy": 6.08847,
    "hz": 921.281
   }
  },
  {
   "type": "Feature",
   "geometry": {
    "type": "Point",
    "coordinates": [
     -0.000408996953841375,
     -0.000527075572292106
    ]
   },
   "properties": {
    "classname": "info_player_teamspawn",
    "team": "0",
    "targetname": "",
    "hx": -2390.0,
    "hy": -3080.0,
    "hz": 648.0
   }
  },
  {
   "type": "Feature",
   "geometry": {
    "type": "Point",
    "coordinates": [
     5.002049858135058e-05,
     -0.0001753861079645239
    ]
   },
   "properties": {
    "classname": "item_ammopack_medium",
    "team": "",
    "targetname": "",
    "hx": 292.298,
    "hy": -1024.88,
    "hz": 1114.0
   }
  },
  {
   "type": "Feature",
   "geometry": {
    "type": "Point",
    "coordinates": [
     -0.0004028363302705116,
     -0.0005518891950136499
    ]
   },
   "properties": {
    "classname": "info_player_teamspawn",
    "team": "0",
    "targetname": "",
    "hx": -2354.0,
    "hy": -3225.0,
    "hz": 648.0
   }
  },
  {
   "type": "Feature",
   "geometry": {
    "type": "Point",
    "coordinates": [
     -9.412063790954202e-06,
     0.0001286885812869038
    ]
   },
   "properties": {
    "classname": "info_player_teamspawn",
    "team": "2",
    "targetname": "",
    "hx": -55.0,
    "hy": 752.0,
    "hz": 585.118
   }
  },
  {
   "type": "Feature",
   "geometry": {
    "type": "Point",
    "coordinates": [
     1.7968485419079086e-05,
     0.0001047306007281717
    ]
   },
   "properties": {
    "classname": "info_player_teamspawn",
    "team": "2",
    "targetname": "spawn_red_3_3_top",
    "hx": 105.0,
    "hy": 612.0,
    "hz": 891.0
   }
  },
  {
   "type": "Feature",
   "geometry": {
    "type": "Point",
    "coordinates": [
     -5.8864073720120134e-05,
     -0.0003415090338744466
    ]
   },
   "properties": {
    "classname": "item_ammopack_medium",
    "team": "",
    "targetname": "",
    "hx": -343.976,
    "hy": -1995.63,
    "hz": 1161.93
   }
  },
  {
   "type": "Feature",
   "geometry": {
    "type": "Point",
    "coordinates": [
     -0.0006379120354946298,
     -7.363314196293744e-05
    ]
   },
   "properties": {
    "classname": "item_healthkit_medium",
    "team": "",
    "targetname": "",
    "hx": -3727.68,
    "hy": -430.28,
    "hz": 238.236
   }
  },
  {
   "type": "Feature",
   "geometry": {
    "type": "Point",
    "coordinates": [
     -0.0004270715388714128,
     -4.032590174802529e-05
    ]
   },
   "properties": {
    "classname": "item_ammopack_full",
    "team": "",
    "targetname": "",
    "hx": -2495.62,
    "hy": -235.647,
    "hz": 383.236
   }
  },
  {
   "type": "Feature",
   "geometry": {
    "type": "Point",
    "coordinates": [
     -0.0003606668619059111,
     0.0003334249267202001
    ]
   },
   "properties": {
    "classname": "item_ammopack_full",
    "team": "",
    "targetname": "",
    "hx": -2107.58,
    "hy": 1948.39,
    "hz": 1087.24
   }
  },
  {
   "type": "Feature",
   "geometry": {
    "type": "Point",
    "coordinates": [
     -0.0003611545779389926,
     0.000340720131800334
    ]
   },
   "properties": {
    "classname": "item_healthkit_medium",
    "team": "",
    "targetname": "",
    "hx": -2110.43,
    "hy": 1991.02,
    "hz": 1087.24
   }
  },
  {
   "type": "Feature",
   "geometry": {
    "type": "Point",
    "coordinates": [
     0.0001136686387632244,
     0.00036606767523147255
    ]
   },
   "properties": {
    "classname": "item_healthkit_medium",
    "team": "",
    "targetname": "",
    "hx": 664.23,
    "hy": 2139.14,
    "hz": 941.065
   }
  },
  {
   "type": "Feature",
   "geometry": {
    "type": "Point",
    "coordinates": [
     0.0001139354279896754,
     0.0003723754692557216
    ]
   },
   "properties": {
    "classname": "item_ammopack_medium",
    "team": "",
    "targetname": "",
    "hx": 665.789,
    "hy": 2176.0,
    "hz": 941.065
   }
  }
 ]
}
