{
 "type": "FeatureCollection",
 "note": "pseudo-WGS84 via crs.local_to_wgs84 ((0,0)m maps to (0,0)deg); viewing only, not survey",
 "features": [
  {
   "type": "Feature",
   "geometry": {
    "type": "Point",
    "coordinates": [
     -8.898678493271888e-05,
     0.00014511691081289154
    ]
   },
   "properties": {
    "classname": "item_healthkit_medium",
    "team": "0",
    "targetname": "",
    "hx": -520.0,
    "hy": 848.0,
    "hz": -216.0
   }
  },
  {
   "type": "Feature",
   "geometry": {
    "type": "Point",
    "coordinates": [
     -0.0001369027460503451,
     -0.00014648593827339048
    ]
   },
   "properties": {
    "classname": "item_healthkit_medium",
    "team": "0",
    "targetname": "",
    "hx": -800.0,
    "hy": -856.0,
    "hz": -244.73
   }
  },
  {
   "type": "Feature",
   "geometry": {
    "type": "Point",
    "coordinates": [
     -0.0001588071854184003,
     -0.00014648593827339048
    ]
   },
   "properties": {
    "classname": "item_ammopack_medium",
    "team": "0",
    "targetname": "",
    "hx": -928.0,
    "hy": -856.0,
    "hz": -244.0
   }
  },
  {
   "type": "Feature",
   "geometry": {
    "type": "Point",
    "coordinates": [
     -5.613012588046413e-05,
     2.669603547973004e-05
    ]
   },
   "properties": {
    "classname": "item_ammopack_full",
    "team": "0",
    "targetname": "",
    "hx": -328.0,
    "hy": 156.0,
    "hz": -280.0
   }
  },
  {
   "type": "Feature",
   "geometry": {
    "type": "Point",
    "coordinates": [
     -0.00016188749720546817,
     0.00024368688796881782
    ]
   },
   "properties": {
    "classname": "item_ammopack_small",
    "team": "0",
    "targetname": "",
    "hx": -946.0,
    "hy": 1424.0,
    "hz": -184.0
   }
  },
  {
   "type": "Feature",
   "geometry": {
    "type": "Point",
    "coordinates": [
     -0.0002696984097237458,
     -0.00036416130449272774
    ]
   },
   "properties": {
    "classname": "item_ammopack_medium",
    "team": "0",
    "targetname": "",
    "hx": -1576.0,
    "hy": -2128.0,
    "hz": -500.0
   }
  },
  {
   "type": "Feature",
   "geometry": {
    "type": "Point",
    "coordinates": [
     -0.00028749576670639366,
     -0.0001916638444698567
    ]
   },
   "properties": {
    "classname": "item_ammopack_medium",
    "team": "0",
    "targetname": "",
    "hx": -1680.0,
    "hy": -1120.0,
    "hz": -248.0
   }
  },
  {
   "type": "Feature",
   "geometry": {
    "type": "Point",
    "coordinates": [
     4.9284988578223376e-05,
     0.0001861877346278608
    ]
   },
   "properties": {
    "classname": "item_healthkit_medium",
    "team": "0",
    "targetname": "",
    "hx": 288.0,
    "hy": 1088.0,
    "hz": -24.0
   }
  },
  {
   "type": "Feature",
   "geometry": {
    "type": "Point",
    "coordinates": [
     -0.0002108302289194965,
     0.0002874957667047851
    ]
   },
   "properties": {
    "classname": "item_ammopack_medium",
    "team": "0",
    "targetname": "",
    "hx": -1232.0,
    "hy": 1680.0,
    "hz": -23.708
   }
  },
  {
   "type": "Feature",
   "geometry": {
    "type": "Point",
    "coordinates": [
     0.00030392409623077835,
     1.0952219683991812e-05
    ]
   },
   "properties": {
    "classname": "item_healthkit_medium",
    "team": "0",
    "targetname": "",
    "hx": 1776.0,
    "hy": 64.0,
    "hz": -104.0
   }
  },
  {
   "type": "Feature",
   "geometry": {
    "type": "Point",
    "coordinates": [
     0.00026696035479866875,
     0.00018344967970686287
    ]
   },
   "properties": {
    "classname": "item_ammopack_small",
    "team": "0",
    "targetname": "",
    "hx": 1560.0,
    "hy": 1072.0,
    "hz": -152.0
   }
  },
  {
   "type": "Feature",
   "geometry": {
    "type": "Point",
    "coordinates": [
     0.00015880718541854498,
     0.00016565232272037616
    ]
   },
   "properties": {
    "classname": "item_healthkit_full",
    "team": "0",
    "targetname": "",
    "hx": 928.0,
    "hy": 968.0,
    "hz": -320.0
   }
  },
  {
   "type": "Feature",
   "geometry": {
    "type": "Point",
    "coordinates": [
     0.00010952219684021229,
     0.0001327956636684007
    ]
   },
   "properties": {
    "classname": "item_ammopack_medium",
    "team": "0",
    "targetname": "",
    "hx": 640.0,
    "hy": 776.0,
    "hz": -152.0
   }
  },
  {
   "type": "Feature",
   "geometry": {
    "type": "Point",
    "coordinates": [
     7.255845540703036e-05,
     -0.00022999661336382804
    ]
   },
   "properties": {
    "classname": "item_ammopack_full",
    "team": "0",
    "targetname": "",
    "hx": 424.0,
    "hy": -1344.0,
    "hz": -568.0
   }
  },
  {
   "type": "Feature",
   "geometry": {
    "type": "Point",
    "coordinates": [
     -0.00019303287193131582,
     0.0001807116247858649
    ]
   },
   "properties": {
    "classname": "team_control_point",
    "team": "",
    "targetname": "cap_d_flag",
    "hx": -1128.0,
    "hy": 1056.0,
    "hz": -185.197
   }
  },
  {
   "type": "Feature",
   "geometry": {
    "type": "Point",
    "coordinates": [
     0.00033541172782372146,
     -0.0001697594051018731
    ]
   },
   "properties": {
    "classname": "team_control_point",
    "team": "",
    "targetname": "cap_b_flag",
    "hx": 1960.0,
    "hy": -992.0,
    "hz": -289.197
   }
  },
  {
   "type": "Feature",
   "geometry": {
    "type": "Point",
    "coordinates": [
     2.7380549209980653e-06,
     1.642832952598772e-05
    ]
   },
   "properties": {
    "classname": "team_control_point",
    "team": "",
    "targetname": "final_cap_flag",
    "hx": 16.0,
    "hy": 96.0,
    "hz": -217.197
   }
  },
  {
   "type": "Feature",
   "geometry": {
    "type": "Point",
    "coordinates": [
     0.00019713995431188506,
     3.285665905197544e-05
    ]
   },
   "properties": {
    "classname": "item_healthkit_medium",
    "team": "0",
    "targetname": "",
    "hx": 1152.0,
    "hy": 192.0,
    "hz": -216.0
   }
  },
  {
   "type": "Feature",
   "geometry": {
    "type": "Point",
    "coordinates": [
     2.8065062940338688e-05,
     0.00016017621287838025
    ]
   },
   "properties": {
    "classname": "item_ammopack_full",
    "team": "0",
    "targetname": "",
    "hx": 164.0,
    "hy": 936.0,
    "hz": -408.0
   }
  },
  {
   "type": "Feature",
   "geometry": {
    "type": "Point",
    "coordinates": [
     6.023720826244029e-05,
     -0.00022999661336382804
    ]
   },
   "properties": {
    "classname": "item_healthkit_full",
    "team": "0",
    "targetname": "",
    "hx": 352.0,
    "hy": -1344.0,
    "hz": -568.0
   }
  },
  {
   "type": "Feature",
   "geometry": {
    "type": "Point",
    "coordinates": [
     -0.0001574381579580512,
     -0.00016702135018087513
    ]
   },
   "properties": {
    "classname": "item_healthkit_small",
    "team": "0",
    "targetname": "",
    "hx": -920.0,
    "hy": -976.0,
    "hz": -128.0
   }
  },
  {
   "type": "Feature",
   "geometry": {
    "type": "Point",
    "coordinates": [
     0.00013142663620862663,
     0.00019029481700935774
    ]
   },
   "properties": {
    "classname": "item_healthkit_medium",
    "team": "0",
    "targetname": "",
    "hx": 768.0,
    "hy": 1112.0,
    "hz": -24.0
   }
  },
  {
   "type": "Feature",
   "geometry": {
    "type": "Point",
    "coordinates": [
     0.00024539817229741854,
     0.0002822215884132128
    ]
   },
   "properties": {
    "classname": "team_control_point",
    "team": "",
    "targetname": "cap_c_flag",
    "hx": 1434.0,
    "hy": 1649.18,
    "hz": -25.197
   }
  },
  {
   "type": "Feature",
   "geometry": {
    "type": "Point",
    "coordinates": [
     -0.0001971399543137579,
     -0.0002519010527318117
    ]
   },
   "properties": {
    "classname": "team_control_point",
    "team": "",
    "targetname": "cap_a_flag",
    "hx": -1152.0,
    "hy": -1472.0,
    "hz": -249.197
   }
  },
  {
   "type": "Feature",
   "geometry": {
    "type": "Point",
    "coordinates": [
     4.517790619659909e-05,
     0.00013895628724064612
    ]
   },
   "properties": {
    "classname": "item_ammopack_medium",
    "team": "0",
    "targetname": "",
    "hx": 264.0,
    "hy": 812.0,
    "hz": -216.0
   }
  },
  {
   "type": "Feature",
   "geometry": {
    "type": "Point",
    "coordinates": [
     6.0237208262273014e-05,
     0.0001861877346278608
    ]
   },
   "properties": {
    "classname": "item_ammopack_medium",
    "team": "0",
    "targetname": "",
    "hx": 352.0,
    "hy": 1088.0,
    "hz": -24.0
   }
  },
  {
   "type": "Feature",
   "geometry": {
    "type": "Point",
    "coordinates": [
     0.00036142324957643264,
     -0.00029228736281653145
    ]
   },
   "properties": {
    "classname": "item_healthkit_medium",
    "team": "0",
    "targetname": "",
    "hx": 2112.0,
    "hy": -1708.0,
    "hz": -438.0
   }
  },
  {
   "type": "Feature",
   "geometry": {
    "type": "Point",
    "coordinates": [
     -5.613012588045836e-05,
     6.160623572245395e-06
    ]
   },
   "properties": {
    "classname": "item_healthkit_full",
    "team": "0",
    "targetname": "",
    "hx": -328.0,
    "hy": 36.0,
    "hz": -280.0
   }
  },
  {
   "type": "Feature",
   "geometry": {
    "type": "Point",
    "coordinates": [
     -0.00010678414191999755,
     -0.0002573771625738076
    ]
   },
   "properties": {
    "classname": "item_ammopack_medium",
    "team": "0",
    "targetname": "",
    "hx": -624.0,
    "hy": -1504.0,
    "hz": -312.0
   }
  },
  {
   "type": "Feature",
   "geometry": {
    "type": "Point",
    "coordinates": [
     -0.00014717045200497104,
     0.00024368688796881782
    ]
   },
   "properties": {
    "classname": "item_healthkit_small",
    "team": "0",
    "targetname": "",
    "hx": -860.0,
    "hy": 1424.0,
    "hz": -184.0
   }
  },
  {
   "type": "Feature",
   "geometry": {
    "type": "Point",
    "coordinates": [
     0.0003052931236963335,
     0.00032993561798025335
    ]
   },
   "properties": {
    "classname": "item_ammopack_full",
    "team": "0",
    "targetname": "",
    "hx": 1784.0,
    "hy": 1928.0,
    "hz": -24.0
   }
  },
  {
   "type": "Feature",
   "geometry": {
    "type": "Point",
    "coordinates": [
     1.0952219684065e-05,
     0.0002094612014563434
    ]
   },
   "properties": {
    "classname": "item_healthkit_medium",
    "team": "0",
    "targetname": "",
    "hx": 64.0,
    "hy": 1224.0,
    "hz": 48.0
   }
  },
  {
   "type": "Feature",
   "geometry": {
    "type": "Point",
    "coordinates": [
     0.00023136564082436832,
     -3.422568651247441e-05
    ]
   },
   "properties": {
    "classname": "item_ammopack_medium",
    "team": "0",
    "targetname": "",
    "hx": 1352.0,
    "hy": -200.0,
    "hz": -96.0
   }
  },
  {
   "type": "Feature",
   "geometry": {
    "type": "Point",
    "coordinates": [
     3.559471397387616e-05,
     -0.0004080694377195811
    ]
   },
   "properties": {
    "classname": "info_player_teamspawn",
    "team": "3",
    "targetname": "blue_stat_spawns",
    "hx": 208.0,
    "hy": -2384.58,
    "hz": -376.0
   }
  },
  {
   "type": "Feature",
   "geometry": {
    "type": "Point",
    "coordinates": [
     0.00044356489720609617,
     -0.0002560081351133086
    ]
   },
   "properties": {
    "classname": "item_ammopack_small",
    "team": "0",
    "targetname": "",
    "hx": 2592.0,
    "hy": -1496.0,
    "hz": -320.0
   }
  },
  {
   "type": "Feature",
   "geometry": {
    "type": "Point",
    "coordinates": [
     6.609579015167448e-06,
     -0.0003066621511517707
    ]
   },
   "properties": {
    "classname": "info_player_teamspawn",
    "team": "2",
    "targetname": "red_stat_spawns",
    "hx": 38.6235,
    "hy": -1792.0,
    "hz": -132.0
   }
  },
  {
   "type": "Feature",
   "geometry": {
    "type": "Point",
    "coordinates": [
     4.928498857940383e-05,
     0.00043808878735967247
    ]
   },
   "properties": {
    "classname": "info_player_teamspawn",
    "team": "2",
    "targetname": "red_stat_spawns2",
    "hx": 288.0,
    "hy": 2560.0,
    "hz": -76.0
   }
  },
  {
   "type": "Feature",
   "geometry": {
    "type": "Point",
    "coordinates": [
     -0.00011226025176313268,
     -0.00036005422211123083
    ]
   },
   "properties": {
    "classname": "item_ammopack_medium",
    "team": "0",
    "targetname": "",
    "hx": -656.0,
    "hy": -2104.0,
    "hz": -360.0
   }
  },
  {
   "type": "Feature",
   "geometry": {
    "type": "Point",
    "coordinates": [
     0.0002313091684435348,
     -0.0002354675893528471
    ]
   },
   "properties": {
    "classname": "item_ammopack_small",
    "team": "0",
    "targetname": "",
    "hx": 1351.67,
    "hy": -1375.97,
    "hz": -440.0
   }
  },
  {
   "type": "Feature",
   "geometry": {
    "type": "Point",
    "coordinates": [
     0.00032309048067822997,
     -9.788546342567682e-05
    ]
   },
   "properties": {
    "classname": "item_ammopack_full",
    "team": "0",
    "targetname": "",
    "hx": 1888.0,
    "hy": -572.0,
    "hz": -214.93
   }
  },
  {
   "type": "Feature",
   "geometry": {
    "type": "Point",
    "coordinates": [
     0.0003833276889472249,
     -0.00035868519465073187
    ]
   },
   "properties": {
    "classname": "item_ammopack_medium",
    "team": "0",
    "targetname": "",
    "hx": 2240.0,
    "hy": -2096.0,
    "hz": -288.0
   }
  },
  {
   "type": "Feature",
   "geometry": {
    "type": "Point",
    "coordinates": [
     0.00010952219684265738,
     -0.0004052321283076971
    ]
   },
   "properties": {
    "classname": "item_ammopack_medium",
    "team": "0",
    "targetname": "",
    "hx": 640.0,
    "hy": -2368.0,
    "hz": -568.0
   }
  },
  {
   "type": "Feature",
   "geometry": {
    "type": "Point",
    "coordinates": [
     0.00023273466828610962,
     -0.00019029481700935774
    ]
   },
   "properties": {
    "classname": "item_healthkit_small",
    "team": "0",
    "targetname": "",
    "hx": 1360.0,
    "hy": -1112.0,
    "hz": -328.0
   }
  },
  {
   "type": "Feature",
   "geometry": {
    "type": "Point",
    "coordinates": [
     4.5027826562251045e-05,
     -0.0004080694377195811
    ]
   },
   "properties": {
    "classname": "info_player_teamspawn",
    "team": "3",
    "targetname": "blue_stat_spawns",
    "hx": 263.123,
    "hy": -2384.58,
    "hz": -376.0
   }
  },
  {
   "type": "Feature",
   "geometry": {
    "type": "Point",
    "coordinates": [
     5.4460768022193366e-05,
     -0.0004080694377195811
    ]
   },
   "properties": {
    "classname": "info_player_teamspawn",
    "team": "3",
    "targetname": "blue_stat_spawns",
    "hx": 318.245,
    "hy": -2384.58,
    "hz": -376.0
   }
  },
  {
   "type": "Feature",
   "geometry": {
    "type": "Point",
    "coordinates": [
     6.389370948213569e-05,
     -0.0004080694377195811
    ]
   },
   "properties": {
    "classname": "info_player_teamspawn",
    "team": "3",
    "targetname": "blue_stat_spawns",
    "hx": 373.367,
    "hy": -2384.58,
    "hz": -376.0
   }
  },
  {
   "type": "Feature",
   "geometry": {
    "type": "Point",
    "coordinates": [
     7.332682207051056e-05,
     -0.0004080694377195811
    ]
   },
   "properties": {
    "classname": "info_player_teamspawn",
    "team": "3",
    "targetname": "blue_stat_spawns",
    "hx": 428.49,
    "hy": -2384.58,
    "hz": -376.0
   }
  },
  {
   "type": "Feature",
   "geometry": {
    "type": "Point",
    "coordinates": [
     8.303887400397236e-05,
     -0.00040837746889819346
    ]
   },
   "properties": {
    "classname": "info_player_teamspawn",
    "team": "3",
    "targetname": "blue_stat_spawns",
    "hx": 485.243,
    "hy": -2386.38,
    "hz": -376.0
   }
  },
  {
   "type": "Feature",
   "geometry": {
    "type": "Point",
    "coordinates": [
     9.219287611882777e-05,
     -0.0004080694377195811
    ]
   },
   "properties": {
    "classname": "info_player_teamspawn",
    "team": "3",
    "targetname": "blue_stat_spawns",
    "hx": 538.735,
    "hy": -2384.58,
    "hz": -376.0
   }
  },
  {
   "type": "Feature",
   "geometry": {
    "type": "Point",
    "coordinates": [
     0.00010162581757877008,
     -0.0004080694377195811
    ]
   },
   "properties": {
    "classname": "info_player_teamspawn",
    "team": "3",
    "targetname": "blue_stat_spawns",
    "hx": 593.857,
    "hy": -2384.58,
    "hz": -376.0
   }
  },
  {
   "type": "Feature",
   "geometry": {
    "type": "Point",
    "coordinates": [
     3.559471397381618e-05,
     -0.0003942799086237053
    ]
   },
   "properties": {
    "classname": "info_player_teamspawn",
    "team": "3",
    "targetname": "blue_stat_spawns",
    "hx": 208.0,
    "hy": -2304.0,
    "hz": -376.0
   }
  },
  {
   "type": "Feature",
   "geometry": {
    "type": "Point",
    "coordinates": [
     4.5027826562175165e-05,
     -0.0003942799086237053
    ]
   },
   "properties": {
    "classname": "info_player_teamspawn",
    "team": "3",
    "targetname": "blue_stat_spawns",
    "hx": 263.123,
    "hy": -2304.0,
    "hz": -376.0
   }
  },
  {
   "type": "Feature",
   "geometry": {
    "type": "Point",
    "coordinates": [
     5.446076802210159e-05,
     -0.0003942799086237053
    ]
   },
   "properties": {
    "classname": "info_player_teamspawn",
    "team": "3",
    "targetname": "blue_stat_spawns",
    "hx": 318.245,
    "hy": -2304.0,
    "hz": -376.0
   }
  },
  {
   "type": "Feature",
   "geometry": {
    "type": "Point",
    "coordinates": [
     6.389370948202801e-05,
     -0.0003942799086237053
    ]
   },
   "properties": {
    "classname": "info_player_teamspawn",
    "team": "3",
    "targetname": "blue_stat_spawns",
    "hx": 373.367,
    "hy": -2304.0,
    "hz": -376.0
   }
  },
  {
   "type": "Feature",
   "geometry": {
    "type": "Point",
    "coordinates": [
     7.332682207038699e-05,
     -0.0003942799086237053
    ]
   },
   "properties": {
    "classname": "info_player_teamspawn",
    "team": "3",
    "targetname": "blue_stat_spawns",
    "hx": 428.49,
    "hy": -2304.0,
    "hz": -376.0
   }
  },
  {
   "type": "Feature",
   "geometry": {
    "type": "Point",
    "coordinates": [
     8.275976353031341e-05,
     -0.0003942799086237053
    ]
   },
   "properties": {
    "classname": "info_player_teamspawn",
    "team": "3",
    "targetname": "blue_stat_spawns",
    "hx": 483.612,
    "hy": -2304.0,
    "hz": -376.0
   }
  },
  {
   "type": "Feature",
   "geometry": {
    "type": "Point",
    "coordinates": [
     9.21928761186724e-05,
     -0.0003942799086237053
    ]
   },
   "properties": {
    "classname": "info_player_teamspawn",
    "team": "3",
    "targetname": "blue_stat_spawns",
    "hx": 538.735,
    "hy": -2304.0,
    "hz": -376.0
   }
  },
  {
   "type": "Feature",
   "geometry": {
    "type": "Point",
    "coordinates": [
     0.00010162581757859882,
     -0.0003942799086237053
    ]
   },
   "properties": {
    "classname": "info_player_teamspawn",
    "team": "3",
    "targetname": "blue_stat_spawns",
    "hx": 593.857,
    "hy": -2304.0,
    "hz": -376.0
   }
  },
  {
   "type": "Feature",
   "geometry": {
    "type": "Point",
    "coordinates": [
     -0.00016017621288404564,
     -0.00048189766609563976
    ]
   },
   "properties": {
    "classname": "item_healthkit_full",
    "team": "0",
    "targetname": "",
    "hx": -936.0,
    "hy": -2816.0,
    "hz": -512.0
   }
  },
  {
   "type": "Feature",
   "geometry": {
    "type": "Point",
    "coordinates": [
     1.6067950160084764e-05,
     -0.0003066621511517707
    ]
   },
   "properties": {
    "classname": "info_player_teamspawn",
    "team": "2",
    "targetname": "red_stat_spawns",
    "hx": 93.8941,
    "hy": -1792.0,
    "hz": -132.0
   }
  },
  {
   "type": "Feature",
   "geometry": {
    "type": "Point",
    "coordinates": [
     2.552637264353185e-05,
     -0.0003066621511517707
    ]
   },
   "properties": {
    "classname": "info_player_teamspawn",
    "team": "2",
    "targetname": "red_stat_spawns",
    "hx": 149.165,
    "hy": -1792.0,
    "hz": -132.0
   }
  },
  {
   "type": "Feature",
   "geometry": {
    "type": "Point",
    "coordinates": [
     3.498464111138963e-05,
     -0.0003066621511517707
    ]
   },
   "properties": {
    "classname": "info_player_teamspawn",
    "team": "2",
    "targetname": "red_stat_spawns",
    "hx": 204.435,
    "hy": -1792.0,
    "hz": -132.0
   }
  },
  {
   "type": "Feature",
   "geometry": {
    "type": "Point",
    "coordinates": [
     4.4443080707679975e-05,
     -0.0003066621511517707
    ]
   },
   "properties": {
    "classname": "info_player_teamspawn",
    "team": "2",
    "targetname": "red_stat_spawns",
    "hx": 259.706,
    "hy": -1792.0,
    "hz": -132.0
   }
  },
  {
   "type": "Feature",
   "geometry": {
    "type": "Point",
    "coordinates": [
     5.390152030397031e-05,
     -0.0003066621511517707
    ]
   },
   "properties": {
    "classname": "info_player_teamspawn",
    "team": "2",
    "targetname": "red_stat_spawns",
    "hx": 314.977,
    "hy": -1792.0,
    "hz": -132.0
   }
  },
  {
   "type": "Feature",
   "geometry": {
    "type": "Point",
    "coordinates": [
     6.33597887718281e-05,
     -0.0003066621511517707
    ]
   },
   "properties": {
    "classname": "info_player_teamspawn",
    "team": "2",
    "targetname": "red_stat_spawns",
    "hx": 370.247,
    "hy": -1792.0,
    "hz": -132.0
   }
  },
  {
   "type": "Feature",
   "geometry": {
    "type": "Point",
    "coordinates": [
     -2.8487750169066113e-06,
     -0.0003066621511517707
    ]
   },
   "properties": {
    "classname": "info_player_teamspawn",
    "team": "2",
    "targetname": "red_stat_spawns",
    "hx": -16.647,
    "hy": -1792.0,
    "hz": -132.0
   }
  },
  {
   "type": "Feature",
   "geometry": {
    "type": "Point",
    "coordinates": [
     -2.7380549210400227e-06,
     -0.0003176143708357625
    ]
   },
   "properties": {
    "classname": "info_player_teamspawn",
    "team": "2",
    "targetname": "red_stat_spawns",
    "hx": -16.0,
    "hy": -1856.0,
    "hz": -132.0
   }
  },
  {
   "type": "Feature",
   "geometry": {
    "type": "Point",
    "coordinates": [
     6.720316223887145e-06,
     -0.0003176143708357625
    ]
   },
   "properties": {
    "classname": "info_player_teamspawn",
    "team": "2",
    "targetname": "red_stat_spawns",
    "hx": 39.2706,
    "hy": -1856.0,
    "hz": -132.0
   }
  },
  {
   "type": "Feature",
   "geometry": {
    "type": "Point",
    "coordinates": [
     1.6178687368814313e-05,
     -0.0003176143708357625
    ]
   },
   "properties": {
    "classname": "info_player_teamspawn",
    "team": "2",
    "targetname": "red_stat_spawns",
    "hx": 94.5412,
    "hy": -1856.0,
    "hz": -132.0
   }
  },
  {
   "type": "Feature",
   "geometry": {
    "type": "Point",
    "coordinates": [
     2.5637092739427996e-05,
     -0.0003176143708357625
    ]
   },
   "properties": {
    "classname": "info_player_teamspawn",
    "team": "2",
    "targetname": "red_stat_spawns",
    "hx": 149.812,
    "hy": -1856.0,
    "hz": -132.0
   }
  },
  {
   "type": "Feature",
   "geometry": {
    "type": "Point",
    "coordinates": [
     3.509536120729562e-05,
     -0.0003176143708357625
    ]
   },
   "properties": {
    "classname": "info_player_teamspawn",
    "team": "2",
    "targetname": "red_stat_spawns",
    "hx": 205.082,
    "hy": -1856.0,
    "hz": -132.0
   }
  },
  {
   "type": "Feature",
   "geometry": {
    "type": "Point",
    "coordinates": [
     4.455380080359581e-05,
     -0.0003176143708357625
    ]
   },
   "properties": {
    "classname": "info_player_teamspawn",
    "team": "2",
    "targetname": "red_stat_spawns",
    "hx": 260.353,
    "hy": -1856.0,
    "hz": -132.0
   }
  },
  {
   "type": "Feature",
   "geometry": {
    "type": "Point",
    "coordinates": [
     5.4012240399896005e-05,
     -0.0003176143708357625
    ]
   },
   "properties": {
    "classname": "info_player_teamspawn",
    "team": "2",
    "targetname": "red_stat_spawns",
    "hx": 315.624,
    "hy": -1856.0,
    "hz": -132.0
   }
  },
  {
   "type": "Feature",
   "geometry": {
    "type": "Point",
    "coordinates": [
     6.347050886776363e-05,
     -0.0003176143708357625
    ]
   },
   "properties": {
    "classname": "info_player_teamspawn",
    "team": "2",
    "targetname": "red_stat_spawns",
    "hx": 370.894,
    "hy": -1856.0,
    "hz": -132.0
   }
  },
  {
   "type": "Feature",
   "geometry": {
    "type": "Point",
    "coordinates": [
     3.833276889509186e-05,
     0.00043808878735967247
    ]
   },
   "properties": {
    "classname": "info_player_teamspawn",
    "team": "2",
    "targetname": "red_stat_spawns2",
    "hx": 224.0,
    "hy": 2560.0,
    "hz": -76.0
   }
  },
  {
   "type": "Feature",
   "geometry": {
    "type": "Point",
    "coordinates": [
     2.73805492107799e-05,
     0.00043808878735967247
    ]
   },
   "properties": {
    "classname": "info_player_teamspawn",
    "team": "2",
    "targetname": "red_stat_spawns2",
    "hx": 160.0,
    "hy": 2560.0,
    "hz": -76.0
   }
  },
  {
   "type": "Feature",
   "geometry": {
    "type": "Point",
    "coordinates": [
     1.6428329526467944e-05,
     0.00043808878735967247
    ]
   },
   "properties": {
    "classname": "info_player_teamspawn",
    "team": "2",
    "targetname": "red_stat_spawns2",
    "hx": 96.0,
    "hy": 2560.0,
    "hz": -76.0
   }
  },
  {
   "type": "Feature",
   "geometry": {
    "type": "Point",
    "coordinates": [
     5.476109842155981e-06,
     0.00043808878735967247
    ]
   },
   "properties": {
    "classname": "info_player_teamspawn",
    "team": "2",
    "targetname": "red_stat_spawns2",
    "hx": 32.0,
    "hy": 2560.0,
    "hz": -76.0
   }
  },
  {
   "type": "Feature",
   "geometry": {
    "type": "Point",
    "coordinates": [
     -5.476109842155981e-06,
     0.00043808878735967247
    ]
   },
   "properties": {
    "classname": "info_player_teamspawn",
    "team": "2",
    "targetname": "red_stat_spawns2",
    "hx": -32.0,
    "hy": 2560.0,
    "hz": -76.0
   }
  },
  {
   "type": "Feature",
   "geometry": {
    "type": "Point",
    "coordinates": [
     -1.6428329526467944e-05,
     0.00043808878735967247
    ]
   },
   "properties": {
    "classname": "info_player_teamspawn",
    "team": "2",
    "targetname": "red_stat_spawns2",
    "hx": -96.0,
    "hy": 2560.0,
    "hz": -76.0
   }
  },
  {
   "type": "Feature",
   "geometry": {
    "type": "Point",
    "coordinates": [
     -2.73805492107799e-05,
     0.00043808878735967247
    ]
   },
   "properties": {
    "classname": "info_player_teamspawn",
    "team": "2",
    "targetname": "red_stat_spawns2",
    "hx": -160.0,
    "hy": 2560.0,
    "hz": -76.0
   }
  },
  {
   "type": "Feature",
   "geometry": {
    "type": "Point",
    "coordinates": [
     -2.738054921082042e-05,
     0.0004490410070436643
    ]
   },
   "properties": {
    "classname": "info_player_teamspawn",
    "team": "2",
    "targetname": "red_stat_spawns2",
    "hx": -160.0,
    "hy": 2624.0,
    "hz": -76.0
   }
  },
  {
   "type": "Feature",
   "geometry": {
    "type": "Point",
    "coordinates": [
     4.928498857947676e-05,
     0.0004490410070436643
    ]
   },
   "properties": {
    "classname": "info_player_teamspawn",
    "team": "2",
    "targetname": "red_stat_spawns2",
    "hx": 288.0,
    "hy": 2624.0,
    "hz": -76.0
   }
  },
  {
   "type": "Feature",
   "geometry": {
    "type": "Point",
    "coordinates": [
     3.8332768895148585e-05,
     0.0004490410070436643
    ]
   },
   "properties": {
    "classname": "info_player_teamspawn",
    "team": "2",
    "targetname": "red_stat_spawns2",
    "hx": 224.0,
    "hy": 2624.0,
    "hz": -76.0
   }
  },
  {
   "type": "Feature",
   "geometry": {
    "type": "Point",
    "coordinates": [
     2.738054921082042e-05,
     0.0004490410070436643
    ]
   },
   "properties": {
    "classname": "info_player_teamspawn",
    "team": "2",
    "targetname": "red_stat_spawns2",
    "hx": 160.0,
    "hy": 2624.0,
    "hz": -76.0
   }
  },
  {
   "type": "Feature",
   "geometry": {
    "type": "Point",
    "coordinates": [
     1.6428329526492254e-05,
     0.0004490410070436643
    ]
   },
   "properties": {
    "classname": "info_player_teamspawn",
    "team": "2",
    "targetname": "red_stat_spawns2",
    "hx": 96.0,
    "hy": 2624.0,
    "hz": -76.0
   }
  },
  {
   "type": "Feature",
   "geometry": {
    "type": "Point",
    "coordinates": [
     5.476109842164084e-06,
     0.0004490410070436643
    ]
   },
   "properties": {
    "classname": "info_player_teamspawn",
    "team": "2",
    "targetname": "red_stat_spawns2",
    "hx": 32.0,
    "hy": 2624.0,
    "hz": -76.0
   }
  },
  {
   "type": "Feature",
   "geometry": {
    "type": "Point",
    "coordinates": [
     -5.476109842164084e-06,
     0.0004490410070436643
    ]
   },
   "properties": {
    "classname": "info_player_teamspawn",
    "team": "2",
    "targetname": "red_stat_spawns2",
    "hx": -32.0,
    "hy": 2624.0,
    "hz": -76.0
   }
  },
  {
   "type": "Feature",
   "geometry": {
    "type": "Point",
    "coordinates": [
     -1.6428329526492254e-05,
     0.0004490410070436643
    ]
   },
   "properties": {
    "classname": "info_player_teamspawn",
    "team": "2",
    "targetname": "red_stat_spawns2",
    "hx": -96.0,
    "hy": 2624.0,
    "hz": -76.0
   }
  }
 ]
}
