{
 "type": "FeatureCollection",
 "note": "pseudo-WGS84 via crs.local_to_wgs84 ((0,0)m maps to (0,0)deg); viewing only, not survey",
 "features": [
  {
   "type": "Feature",
   "geometry": {
    "type": "Point",
    "coordinates": [
     -0.00020261606415438157,
     0.00013142663620790176
    ]
   },
   "properties": {
    "classname": "info_player_teamspawn",
    "team": "3",
    "targetname": "cap_blu_3_spawns",
    "hx": -1184.0,
    "hy": 768.0,
    "hz": 272.0
   }
  },
  {
   "type": "Feature",
   "geometry": {
    "type": "Point",
    "coordinates": [
     -0.00020261606415447413,
     0.00014237885589189354
    ]
   },
   "properties": {
    "classname": "info_player_teamspawn",
    "team": "3",
    "targetname": "cap_blu_3_spawns",
    "hx": -1184.0,
    "hy": 832.0,
    "hz": 272.0
   }
  },
  {
   "type": "Feature",
   "geometry": {
    "type": "Point",
    "coordinates": [
     -0.00020261606415457407,
     0.00015333107557588535
    ]
   },
   "properties": {
    "classname": "info_player_teamspawn",
    "team": "3",
    "targetname": "cap_blu_3_spawns",
    "hx": -1184.0,
    "hy": 896.0,
    "hz": 272.0
   }
  },
  {
   "type": "Feature",
   "geometry": {
    "type": "Point",
    "coordinates": [
     -0.00019166384447054304,
     0.00015333107557588535
    ]
   },
   "properties": {
    "classname": "info_player_teamspawn",
    "team": "3",
    "targetname": "cap_blu_3_spawns",
    "hx": -1120.0,
    "hy": 896.0,
    "hz": 272.0
   }
  },
  {
   "type": "Feature",
   "geometry": {
    "type": "Point",
    "coordinates": [
     -0.0001916638444704485,
     0.00014237885589189354
    ]
   },
   "properties": {
    "classname": "info_player_teamspawn",
    "team": "3",
    "targetname": "cap_blu_3_spawns",
    "hx": -1120.0,
    "hy": 832.0,
    "hz": 272.0
   }
  },
  {
   "type": "Feature",
   "geometry": {
    "type": "Point",
    "coordinates": [
     -0.00019166384447036095,
     0.00013142663620790176
    ]
   },
   "properties": {
    "classname": "info_player_teamspawn",
    "team": "3",
    "targetname": "cap_blu_3_spawns",
    "hx": -1120.0,
    "hy": 768.0,
    "hz": 272.0
   }
  },
  {
   "type": "Feature",
   "geometry": {
    "type": "Point",
    "coordinates": [
     -0.00020261606415429646,
     0.00012047441652390994
    ]
   },
   "properties": {
    "classname": "info_player_teamspawn",
    "team": "3",
    "targetname": "cap_blu_3_spawns",
    "hx": -1184.0,
    "hy": 704.0,
    "hz": 272.0
   }
  },
  {
   "type": "Feature",
   "geometry": {
    "type": "Point",
    "coordinates": [
     -0.00019166384447028042,
     0.00012047441652390994
    ]
   },
   "properties": {
    "classname": "info_player_teamspawn",
    "team": "3",
    "targetname": "cap_blu_3_spawns",
    "hx": -1120.0,
    "hy": 704.0,
    "hz": 272.0
   }
  },
  {
   "type": "Feature",
   "geometry": {
    "type": "Point",
    "coordinates": [
     -0.00016428329526024034,
     0.00012047441652390994
    ]
   },
   "properties": {
    "classname": "info_player_teamspawn",
    "team": "3",
    "targetname": "cap_blu_3_spawns",
    "hx": -960.0,
    "hy": 704.0,
    "hz": 272.0
   }
  },
  {
   "type": "Feature",
   "geometry": {
    "type": "Point",
    "coordinates": [
     -0.00015333107557622433,
     0.00012047441652390994
    ]
   },
   "properties": {
    "classname": "info_player_teamspawn",
    "team": "3",
    "targetname": "cap_blu_3_spawns",
    "hx": -896.0,
    "hy": 704.0,
    "hz": 272.0
   }
  },
  {
   "type": "Feature",
   "geometry": {
    "type": "Point",
    "coordinates": [
     -0.00016428329526046545,
     0.00015333107557588535
    ]
   },
   "properties": {
    "classname": "info_player_teamspawn",
    "team": "3",
    "targetname": "cap_blu_3_spawns",
    "hx": -960.0,
    "hy": 896.0,
    "hz": 272.0
   }
  },
  {
   "type": "Feature",
   "geometry": {
    "type": "Point",
    "coordinates": [
     -0.0001642832952603844,
     0.00014237885589189354
    ]
   },
   "properties": {
    "classname": "info_player_teamspawn",
    "team": "3",
    "targetname": "cap_blu_3_spawns",
    "hx": -960.0,
    "hy": 832.0,
    "hz": 272.0
   }
  },
  {
   "type": "Feature",
   "geometry": {
    "type": "Point",
    "coordinates": [
     -0.00016428329526030938,
     0.00013142663620790176
    ]
   },
   "properties": {
    "classname": "info_player_teamspawn",
    "team": "3",
    "targetname": "cap_blu_3_spawns",
    "hx": -960.0,
    "hy": 768.0,
    "hz": 272.0
   }
  },
  {
   "type": "Feature",
   "geometry": {
    "type": "Point",
    "coordinates": [
     -0.00015333107557628873,
     0.00013142663620790176
    ]
   },
   "properties": {
    "classname": "info_player_teamspawn",
    "team": "3",
    "targetname": "cap_blu_3_spawns",
    "hx": -896.0,
    "hy": 768.0,
    "hz": 272.0
   }
  },
  {
   "type": "Feature",
   "geometry": {
    "type": "Point",
    "coordinates": [
     -0.00015333107557635877,
     0.00014237885589189354
    ]
   },
   "properties": {
    "classname": "info_player_teamspawn",
    "team": "3",
    "targetname": "cap_blu_3_spawns",
    "hx": -896.0,
    "hy": 832.0,
    "hz": 272.0
   }
  },
  {
   "type": "Feature",
   "geometry": {
    "type": "Point",
    "coordinates": [
     -0.00015333107557643442,
     0.00015333107557588535
    ]
   },
   "properties": {
    "classname": "info_player_teamspawn",
    "team": "3",
    "targetname": "cap_blu_3_spawns",
    "hx": -896.0,
    "hy": 896.0,
    "hz": 272.0
   }
  },
  {
   "type": "Feature",
   "geometry": {
    "type": "Point",
    "coordinates": [
     5.476109842295801e-05,
     0.0005996340276985516
    ]
   },
   "properties": {
    "classname": "info_player_teamspawn",
    "team": "3",
    "targetname": "cap_blu_2_spawns",
    "hx": 320.0,
    "hy": 3504.0,
    "hz": 97.0
   }
  },
  {
   "type": "Feature",
   "geometry": {
    "type": "Point",
    "coordinates": [
     4.380887873834455e-05,
     0.0005968959727775537
    ]
   },
   "properties": {
    "classname": "info_player_teamspawn",
    "team": "3",
    "targetname": "cap_blu_2_spawns",
    "hx": 256.0,
    "hy": 3488.0,
    "hz": 97.0
   }
  },
  {
   "type": "Feature",
   "geometry": {
    "type": "Point",
    "coordinates": [
     7.529651033152969e-05,
     0.0005968959727775537
    ]
   },
   "properties": {
    "classname": "info_player_teamspawn",
    "team": "3",
    "targetname": "cap_blu_2_spawns",
    "hx": 440.0,
    "hy": 3488.0,
    "hz": 97.0
   }
  },
  {
   "type": "Feature",
   "geometry": {
    "type": "Point",
    "coordinates": [
     6.571331810751682e-05,
     0.0005968959727775537
    ]
   },
   "properties": {
    "classname": "info_player_teamspawn",
    "team": "3",
    "targetname": "cap_blu_2_spawns",
    "hx": 384.0,
    "hy": 3488.0,
    "hz": 97.0
   }
  },
  {
   "type": "Feature",
   "geometry": {
    "type": "Point",
    "coordinates": [
     5.476109842306856e-05,
     0.0006105862473825435
    ]
   },
   "properties": {
    "classname": "info_player_teamspawn",
    "team": "3",
    "targetname": "cap_blu_2_spawns",
    "hx": 320.0,
    "hy": 3568.0,
    "hz": 97.0
   }
  },
  {
   "type": "Feature",
   "geometry": {
    "type": "Point",
    "coordinates": [
     5.476109842318111e-05,
     0.0006215384670665353
    ]
   },
   "properties": {
    "classname": "info_player_teamspawn",
    "team": "3",
    "targetname": "cap_blu_2_spawns",
    "hx": 320.0,
    "hy": 3632.0,
    "hz": 97.0
   }
  },
  {
   "type": "Feature",
   "geometry": {
    "type": "Point",
    "coordinates": [
     6.571331810764889e-05,
     0.0006078481924615455
    ]
   },
   "properties": {
    "classname": "info_player_teamspawn",
    "team": "3",
    "targetname": "cap_blu_2_spawns",
    "hx": 384.0,
    "hy": 3552.0,
    "hz": 97.0
   }
  },
  {
   "type": "Feature",
   "geometry": {
    "type": "Point",
    "coordinates": [
     7.666553779225703e-05,
     0.0006078481924615455
    ]
   },
   "properties": {
    "classname": "info_player_teamspawn",
    "team": "3",
    "targetname": "cap_blu_2_spawns",
    "hx": 448.0,
    "hy": 3552.0,
    "hz": 97.0
   }
  },
  {
   "type": "Feature",
   "geometry": {
    "type": "Point",
    "coordinates": [
     7.392748287141024e-05,
     0.0006297526318295292
    ]
   },
   "properties": {
    "classname": "info_player_teamspawn",
    "team": "3",
    "targetname": "cap_blu_2_spawns",
    "hx": 432.0,
    "hy": 3680.0,
    "hz": 97.0
   }
  },
  {
   "type": "Feature",
   "geometry": {
    "type": "Point",
    "coordinates": [
     7.255845541067746e-05,
     0.0006188004121455373
    ]
   },
   "properties": {
    "classname": "info_player_teamspawn",
    "team": "3",
    "targetname": "cap_blu_2_spawns",
    "hx": 424.0,
    "hy": 3616.0,
    "hz": 97.0
   }
  },
  {
   "type": "Feature",
   "geometry": {
    "type": "Point",
    "coordinates": [
     5.4761098423295663e-05,
     0.0006324906867505271
    ]
   },
   "properties": {
    "classname": "info_player_teamspawn",
    "team": "3",
    "targetname": "cap_blu_2_spawns",
    "hx": 320.0,
    "hy": 3696.0,
    "hz": 97.0
   }
  },
  {
   "type": "Feature",
   "geometry": {
    "type": "Point",
    "coordinates": [
     3.5594713975049315e-05,
     0.0006188004121455373
    ]
   },
   "properties": {
    "classname": "info_player_teamspawn",
    "team": "3",
    "targetname": "cap_blu_2_spawns",
    "hx": 208.0,
    "hy": 3616.0,
    "hz": 97.0
   }
  },
  {
   "type": "Feature",
   "geometry": {
    "type": "Point",
    "coordinates": [
     4.380887873843259e-05,
     0.0006078481924615455
    ]
   },
   "properties": {
    "classname": "info_player_teamspawn",
    "team": "3",
    "targetname": "cap_blu_2_spawns",
    "hx": 256.0,
    "hy": 3552.0,
    "hz": 97.0
   }
  },
  {
   "type": "Feature",
   "geometry": {
    "type": "Point",
    "coordinates": [
     3.559471397510479e-05,
     0.0006270145769085312
    ]
   },
   "properties": {
    "classname": "info_player_teamspawn",
    "team": "3",
    "targetname": "cap_blu_2_spawns",
    "hx": 208.0,
    "hy": 3664.0,
    "hz": 97.0
   }
  },
  {
   "type": "Feature",
   "geometry": {
    "type": "Point",
    "coordinates": [
     3.2856659053824446e-05,
     0.0006078481924615455
    ]
   },
   "properties": {
    "classname": "info_player_teamspawn",
    "team": "3",
    "targetname": "cap_blu_2_spawns",
    "hx": 192.0,
    "hy": 3552.0,
    "hz": 97.0
   }
  },
  {
   "type": "Feature",
   "geometry": {
    "type": "Point",
    "coordinates": [
     3.4225686514331675e-05,
     0.0005968959727775537
    ]
   },
   "properties": {
    "classname": "info_player_teamspawn",
    "team": "3",
    "targetname": "cap_blu_2_spawns",
    "hx": 200.0,
    "hy": 3488.0,
    "hz": 97.0
   }
  },
  {
   "type": "Feature",
   "geometry": {
    "type": "Point",
    "coordinates": [
     0.00020261606415438157,
     -0.00013142663620790176
    ]
   },
   "properties": {
    "classname": "info_player_teamspawn",
    "team": "2",
    "targetname": "cap_red_3_spawns",
    "hx": 1184.0,
    "hy": -768.0,
    "hz": 272.0
   }
  },
  {
   "type": "Feature",
   "geometry": {
    "type": "Point",
    "coordinates": [
     0.00020261606415447413,
     -0.00014237885589189354
    ]
   },
   "properties": {
    "classname": "info_player_teamspawn",
    "team": "2",
    "targetname": "cap_red_3_spawns",
    "hx": 1184.0,
    "hy": -832.0,
    "hz": 272.0
   }
  },
  {
   "type": "Feature",
   "geometry": {
    "type": "Point",
    "coordinates": [
     0.00020261606415457407,
     -0.00015333107557588535
    ]
   },
   "properties": {
    "classname": "info_player_teamspawn",
    "team": "2",
    "targetname": "cap_red_3_spawns",
    "hx": 1184.0,
    "hy": -896.0,
    "hz": 272.0
   }
  },
  {
   "type": "Feature",
   "geometry": {
    "type": "Point",
    "coordinates": [
     0.00019166384447054304,
     -0.00015333107557588535
    ]
   },
   "properties": {
    "classname": "info_player_teamspawn",
    "team": "2",
    "targetname": "cap_red_3_spawns",
    "hx": 1120.0,
    "hy": -896.0,
    "hz": 272.0
   }
  },
  {
   "type": "Feature",
   "geometry": {
    "type": "Point",
    "coordinates": [
     0.0001916638444704485,
     -0.00014237885589189354
    ]
   },
   "properties": {
    "classname": "info_player_teamspawn",
    "team": "2",
    "targetname": "cap_red_3_spawns",
    "hx": 1120.0,
    "hy": -832.0,
    "hz": 272.0
   }
  },
  {
   "type": "Feature",
   "geometry": {
    "type": "Point",
    "coordinates": [
     0.00019166384447036095,
     -0.00013142663620790176
    ]
   },
   "properties": {
    "classname": "info_player_teamspawn",
    "team": "2",
    "targetname": "cap_red_3_spawns",
    "hx": 1120.0,
    "hy": -768.0,
    "hz": 272.0
   }
  },
  {
   "type": "Feature",
   "geometry": {
    "type": "Point",
    "coordinates": [
     0.00020261606415429646,
     -0.00012047441652390994
    ]
   },
   "properties": {
    "classname": "info_player_teamspawn",
    "team": "2",
    "targetname": "cap_red_3_spawns",
    "hx": 1184.0,
    "hy": -704.0,
    "hz": 272.0
   }
  },
  {
   "type": "Feature",
   "geometry": {
    "type": "Point",
    "coordinates": [
     0.00019166384447028042,
     -0.00012047441652390994
    ]
   },
   "properties": {
    "classname": "info_player_teamspawn",
    "team": "2",
    "targetname": "cap_red_3_spawns",
    "hx": 1120.0,
    "hy": -704.0,
    "hz": 272.0
   }
  },
  {
   "type": "Feature",
   "geometry": {
    "type": "Point",
    "coordinates": [
     0.00016428329526024034,
     -0.00012047441652390994
    ]
   },
   "properties": {
    "classname": "info_player_teamspawn",
    "team": "2",
    "targetname": "cap_red_3_spawns",
    "hx": 960.0,
    "hy": -704.0,
    "hz": 272.0
   }
  },
  {
   "type": "Feature",
   "geometry": {
    "type": "Point",
    "coordinates": [
     0.00015333107557622433,
     -0.00012047441652390994
    ]
   },
   "properties": {
    "classname": "info_player_teamspawn",
    "team": "2",
    "targetname": "cap_red_3_spawns",
    "hx": 896.0,
    "hy": -704.0,
    "hz": 272.0
   }
  },
  {
   "type": "Feature",
   "geometry": {
    "type": "Point",
    "coordinates": [
     0.00016428329526046545,
     -0.00015333107557588535
    ]
   },
   "properties": {
    "classname": "info_player_teamspawn",
    "team": "2",
    "targetname": "cap_red_3_spawns",
    "hx": 960.0,
    "hy": -896.0,
    "hz": 272.0
   }
  },
  {
   "type": "Feature",
   "geometry": {
    "type": "Point",
    "coordinates": [
     0.0001642832952603844,
     -0.00014237885589189354
    ]
   },
   "properties": {
    "classname": "info_player_teamspawn",
    "team": "2",
    "targetname": "cap_red_3_spawns",
    "hx": 960.0,
    "hy": -832.0,
    "hz": 272.0
   }
  },
  {
   "type": "Feature",
   "geometry": {
    "type": "Point",
    "coordinates": [
     0.00016428329526030938,
     -0.00013142663620790176
    ]
   },
   "properties": {
    "classname": "info_player_teamspawn",
    "team": "2",
    "targetname": "cap_red_3_spawns",
    "hx": 960.0,
    "hy": -768.0,
    "hz": 272.0
   }
  },
  {
   "type": "Feature",
   "geometry": {
    "type": "Point",
    "coordinates": [
     0.00015333107557628873,
     -0.00013142663620790176
    ]
   },
   "properties": {
    "classname": "info_player_teamspawn",
    "team": "2",
    "targetname": "cap_red_3_spawns",
    "hx": 896.0,
    "hy": -768.0,
    "hz": 272.0
   }
  },
  {
   "type": "Feature",
   "geometry": {
    "type": "Point",
    "coordinates": [
     0.00015333107557635877,
     -0.00014237885589189354
    ]
   },
   "properties": {
    "classname": "info_player_teamspawn",
    "team": "2",
    "targetname": "cap_red_3_spawns",
    "hx": 896.0,
    "hy": -832.0,
    "hz": 272.0
   }
  },
  {
   "type": "Feature",
   "geometry": {
    "type": "Point",
    "coordinates": [
     0.00015333107557643442,
     -0.00015333107557588535
    ]
   },
   "properties": {
    "classname": "info_player_teamspawn",
    "team": "2",
    "targetname": "cap_red_3_spawns",
    "hx": 896.0,
    "hy": -896.0,
    "hz": 272.0
   }
  },
  {
   "type": "Feature",
   "geometry": {
    "type": "Point",
    "coordinates": [
     -5.476109842295801e-05,
     -0.0005996340276985516
    ]
   },
   "properties": {
    "classname": "info_player_teamspawn",
    "team": "2",
    "targetname": "cap_red_2_spawns",
    "hx": -320.0,
    "hy": -3504.0,
    "hz": 97.0
   }
  },
  {
   "type": "Feature",
   "geometry": {
    "type": "Point",
    "coordinates": [
     -4.380887873834455e-05,
     -0.0005968959727775537
    ]
   },
   "properties": {
    "classname": "info_player_teamspawn",
    "team": "2",
    "targetname": "cap_red_2_spawns",
    "hx": -256.0,
    "hy": -3488.0,
    "hz": 97.0
   }
  },
  {
   "type": "Feature",
   "geometry": {
    "type": "Point",
    "coordinates": [
     -7.529651033152969e-05,
     -0.0005968959727775537
    ]
   },
   "properties": {
    "classname": "info_player_teamspawn",
    "team": "2",
    "targetname": "cap_red_2_spawns",
    "hx": -440.0,
    "hy": -3488.0,
    "hz": 97.0
   }
  },
  {
   "type": "Feature",
   "geometry": {
    "type": "Point",
    "coordinates": [
     -6.571331810751682e-05,
     -0.0005968959727775537
    ]
   },
   "properties": {
    "classname": "info_player_teamspawn",
    "team": "2",
    "targetname": "cap_red_2_spawns",
    "hx": -384.0,
    "hy": -3488.0,
    "hz": 97.0
   }
  },
  {
   "type": "Feature",
   "geometry": {
    "type": "Point",
    "coordinates": [
     -5.476109842306856e-05,
     -0.0006105862473825435
    ]
   },
   "properties": {
    "classname": "info_player_teamspawn",
    "team": "2",
    "targetname": "cap_red_2_spawns",
    "hx": -320.0,
    "hy": -3568.0,
    "hz": 97.0
   }
  },
  {
   "type": "Feature",
   "geometry": {
    "type": "Point",
    "coordinates": [
     -5.476109842318111e-05,
     -0.0006215384670665353
    ]
   },
   "properties": {
    "classname": "info_player_teamspawn",
    "team": "2",
    "targetname": "cap_red_2_spawns",
    "hx": -320.0,
    "hy": -3632.0,
    "hz": 97.0
   }
  },
  {
   "type": "Feature",
   "geometry": {
    "type": "Point",
    "coordinates": [
     -6.571331810764889e-05,
     -0.0006078481924615455
    ]
   },
   "properties": {
    "classname": "info_player_teamspawn",
    "team": "2",
    "targetname": "cap_red_2_spawns",
    "hx": -384.0,
    "hy": -3552.0,
    "hz": 97.0
   }
  },
  {
   "type": "Feature",
   "geometry": {
    "type": "Point",
    "coordinates": [
     -7.666553779225703e-05,
     -0.0006078481924615455
    ]
   },
   "properties": {
    "classname": "info_player_teamspawn",
    "team": "2",
    "targetname": "cap_red_2_spawns",
    "hx": -448.0,
    "hy": -3552.0,
    "hz": 97.0
   }
  },
  {
   "type": "Feature",
   "geometry": {
    "type": "Point",
    "coordinates": [
     -7.392748287141024e-05,
     -0.0006297526318295292
    ]
   },
   "properties": {
    "classname": "info_player_teamspawn",
    "team": "2",
    "targetname": "cap_red_2_spawns",
    "hx": -432.0,
    "hy": -3680.0,
    "hz": 97.0
   }
  },
  {
   "type": "Feature",
   "geometry": {
    "type": "Point",
    "coordinates": [
     -7.255845541067746e-05,
     -0.0006188004121455373
    ]
   },
   "properties": {
    "classname": "info_player_teamspawn",
    "team": "2",
    "targetname": "cap_red_2_spawns",
    "hx": -424.0,
    "hy": -3616.0,
    "hz": 97.0
   }
  },
  {
   "type": "Feature",
   "geometry": {
    "type": "Point",
    "coordinates": [
     -5.4761098423295663e-05,
     -0.0006324906867505271
    ]
   },
   "properties": {
    "classname": "info_player_teamspawn",
    "team": "2",
    "targetname": "cap_red_2_spawns",
    "hx": -320.0,
    "hy": -3696.0,
    "hz": 97.0
   }
  },
  {
   "type": "Feature",
   "geometry": {
    "type": "Point",
    "coordinates": [
     -3.5594713975049315e-05,
     -0.0006188004121455373
    ]
   },
   "properties": {
    "classname": "info_player_teamspawn",
    "team": "2",
    "targetname": "cap_red_2_spawns",
    "hx": -208.0,
    "hy": -3616.0,
    "hz": 97.0
   }
  },
  {
   "type": "Feature",
   "geometry": {
    "type": "Point",
    "coordinates": [
     -4.380887873843259e-05,
     -0.0006078481924615455
    ]
   },
   "properties": {
    "classname": "info_player_teamspawn",
    "team": "2",
    "targetname": "cap_red_2_spawns",
    "hx": -256.0,
    "hy": -3552.0,
    "hz": 97.0
   }
  },
  {
   "type": "Feature",
   "geometry": {
    "type": "Point",
    "coordinates": [
     -3.559471397510479e-05,
     -0.0006270145769085312
    ]
   },
   "properties": {
    "classname": "info_player_teamspawn",
    "team": "2",
    "targetname": "cap_red_2_spawns",
    "hx": -208.0,
    "hy": -3664.0,
    "hz": 97.0
   }
  },
  {
   "type": "Feature",
   "geometry": {
    "type": "Point",
    "coordinates": [
     -3.2856659053824446e-05,
     -0.0006078481924615455
    ]
   },
   "properties": {
    "classname": "info_player_teamspawn",
    "team": "2",
    "targetname": "cap_red_2_spawns",
    "hx": -192.0,
    "hy": -3552.0,
    "hz": 97.0
   }
  },
  {
   "type": "Feature",
   "geometry": {
    "type": "Point",
    "coordinates": [
     -3.4225686514331675e-05,
     -0.0005968959727775537
    ]
   },
   "properties": {
    "classname": "info_player_teamspawn",
    "team": "2",
    "targetname": "cap_red_2_spawns",
    "hx": -200.0,
    "hy": -3488.0,
    "hz": 97.0
   }
  },
  {
   "type": "Feature",
   "geometry": {
    "type": "Point",
    "coordinates": [
     -1.3056055521070358e-12,
     6.528036316956808e-13
    ]
   },
   "properties": {
    "classname": "team_control_point",
    "team": "",
    "targetname": "cap_center",
    "hx": -7.62939e-06,
    "hy": 3.8147e-06,
    "hz": 308.0
   }
  },
  {
   "type": "Feature",
   "geometry": {
    "type": "Point",
    "coordinates": [
     -0.00040249407340526693,
     0.0005503490391205885
    ]
   },
   "properties": {
    "classname": "team_control_point",
    "team": "",
    "targetname": "cap_blu_1",
    "hx": -2352.0,
    "hy": 3216.0,
    "hz": 353.25
   }
  },
  {
   "type": "Feature",
   "geometry": {
    "type": "Point",
    "coordinates": [
     -0.000537375792666422,
     0.0004739709970993506
    ]
   },
   "properties": {
    "classname": "info_player_teamspawn",
    "team": "3",
    "targetname": "cap_blu_1_spawns",
    "hx": -3140.19,
    "hy": 2769.68,
    "hz": 377.0
   }
  },
  {
   "type": "Feature",
   "geometry": {
    "type": "Point",
    "coordinates": [
     -0.0005470051895653207,
     0.00045172943471921917
    ]
   },
   "properties": {
    "classname": "info_player_teamspawn",
    "team": "3",
    "targetname": "cap_blu_1_spawns",
    "hx": -3196.46,
    "hy": 2639.71,
    "hz": 377.0
   }
  },
  {
   "type": "Feature",
   "geometry": {
    "type": "Point",
    "coordinates": [
     -0.0005470051895661551,
     0.000462681654403211
    ]
   },
   "properties": {
    "classname": "info_player_teamspawn",
    "team": "3",
    "targetname": "cap_blu_1_spawns",
    "hx": -3196.46,
    "hy": 2703.71,
    "hz": 377.0
   }
  },
  {
   "type": "Feature",
   "geometry": {
    "type": "Point",
    "coordinates": [
     -0.0005579574092496529,
     0.00045172943471921917
    ]
   },
   "properties": {
    "classname": "info_player_teamspawn",
    "team": "3",
    "targetname": "cap_blu_1_spawns",
    "hx": -3260.46,
    "hy": 2639.71,
    "hz": 377.0
   }
  },
  {
   "type": "Feature",
   "geometry": {
    "type": "Point",
    "coordinates": [
     -0.0005360067652067335,
     0.0004849232167833424
    ]
   },
   "properties": {
    "classname": "info_player_teamspawn",
    "team": "3",
    "targetname": "cap_blu_1_spawns",
    "hx": -3132.19,
    "hy": 2833.68,
    "hz": 377.0
   }
  },
  {
   "type": "Feature",
   "geometry": {
    "type": "Point",
    "coordinates": [
     -0.000557957409250504,
     0.000462681654403211
    ]
   },
   "properties": {
    "classname": "info_player_teamspawn",
    "team": "3",
    "targetname": "cap_blu_1_spawns",
    "hx": -3260.46,
    "hy": 2703.71,
    "hz": 377.0
   }
  },
  {
   "type": "Feature",
   "geometry": {
    "type": "Point",
    "coordinates": [
     -0.0005689096289357413,
     0.00047363045151855156
    ]
   },
   "properties": {
    "classname": "info_player_teamspawn",
    "team": "3",
    "targetname": "cap_blu_1_spawns",
    "hx": -3324.46,
    "hy": 2767.69,
    "hz": 377.0
   }
  },
  {
   "type": "Feature",
   "geometry": {
    "type": "Point",
    "coordinates": [
     -0.0005579574092513753,
     0.00047363045151855156
    ]
   },
   "properties": {
    "classname": "info_player_teamspawn",
    "team": "3",
    "targetname": "cap_blu_1_spawns",
    "hx": -3260.46,
    "hy": 2767.69,
    "hz": 377.0
   }
  },
  {
   "type": "Feature",
   "geometry": {
    "type": "Point",
    "coordinates": [
     -0.000568909628937581,
     0.0004955383134551864
    ]
   },
   "properties": {
    "classname": "info_player_teamspawn",
    "team": "3",
    "targetname": "cap_blu_1_spawns",
    "hx": -3324.46,
    "hy": 2895.71,
    "hz": 377.0
   }
  },
  {
   "type": "Feature",
   "geometry": {
    "type": "Point",
    "coordinates": [
     -0.0005675406014761026,
     0.00048458267120254336
    ]
   },
   "properties": {
    "classname": "info_player_teamspawn",
    "team": "3",
    "targetname": "cap_blu_1_spawns",
    "hx": -3316.46,
    "hy": 2831.69,
    "hz": 377.0
   }
  },
  {
   "type": "Feature",
   "geometry": {
    "type": "Point",
    "coordinates": [
     -0.000557957409252267,
     0.00048458267120254336
    ]
   },
   "properties": {
    "classname": "info_player_teamspawn",
    "team": "3",
    "targetname": "cap_blu_1_spawns",
    "hx": -3260.46,
    "hy": 2831.69,
    "hz": 377.0
   }
  },
  {
   "type": "Feature",
   "geometry": {
    "type": "Point",
    "coordinates": [
     -0.0005470051895678836,
     0.00048458267120254336
    ]
   },
   "properties": {
    "classname": "info_player_teamspawn",
    "team": "3",
    "targetname": "cap_blu_1_spawns",
    "hx": -3196.46,
    "hy": 2831.69,
    "hz": 377.0
   }
  },
  {
   "type": "Feature",
   "geometry": {
    "type": "Point",
    "coordinates": [
     -0.000548374217027555,
     0.00047363045151855156
    ]
   },
   "properties": {
    "classname": "info_player_teamspawn",
    "team": "3",
    "targetname": "cap_blu_1_spawns",
    "hx": -3204.46,
    "hy": 2767.69,
    "hz": 377.0
   }
  },
  {
   "type": "Feature",
   "geometry": {
    "type": "Point",
    "coordinates": [
     -0.0005360529698843767,
     0.0004955383134551864
    ]
   },
   "properties": {
    "classname": "info_player_teamspawn",
    "team": "3",
    "targetname": "cap_blu_1_spawns",
    "hx": -3132.46,
    "hy": 2895.71,
    "hz": 377.0
   }
  },
  {
   "type": "Feature",
   "geometry": {
    "type": "Point",
    "coordinates": [
     -0.0005470051895687781,
     0.0004955383134551864
    ]
   },
   "properties": {
    "classname": "info_player_teamspawn",
    "team": "3",
    "targetname": "cap_blu_1_spawns",
    "hx": -3196.46,
    "hy": 2895.71,
    "hz": 377.0
   }
  },
  {
   "type": "Feature",
   "geometry": {
    "type": "Point",
    "coordinates": [
     -0.0005579574092531796,
     0.0004955383134551864
    ]
   },
   "properties": {
    "classname": "info_player_teamspawn",
    "team": "3",
    "targetname": "cap_blu_1_spawns",
    "hx": -3260.46,
    "hy": 2895.71,
    "hz": 377.0
   }
  },
  {
   "type": "Feature",
   "geometry": {
    "type": "Point",
    "coordinates": [
     9.565874026376558e-05,
     0.0004216519014120566
    ]
   },
   "properties": {
    "classname": "item_healthkit_medium",
    "team": "",
    "targetname": "",
    "hx": 558.988,
    "hy": 2463.95,
    "hz": 76.0
   }
  },
  {
   "type": "Feature",
   "geometry": {
    "type": "Point",
    "coordinates": [
     -0.00038332768895342625,
     0.0004846357210166377
    ]
   },
   "properties": {
    "classname": "item_ammopack_medium",
    "team": "0",
    "targetname": "",
    "hx": -2240.0,
    "hy": 2832.0,
    "hz": 370.0
   }
  },
  {
   "type": "Feature",
   "geometry": {
    "type": "Point",
    "coordinates": [
     -0.00025532362138676535,
     0.0003087156923425192
    ]
   },
   "properties": {
    "classname": "item_healthkit_medium",
    "team": "",
    "targetname": "",
    "hx": -1492.0,
    "hy": 1804.0,
    "hz": 344.0
   }
  },
  {
   "type": "Feature",
   "geometry": {
    "type": "Point",
    "coordinates": [
     3.970179635554545e-05,
     0.0004216604578336847
    ]
   },
   "properties": {
    "classname": "team_control_point",
    "team": "",
    "targetname": "cap_blu_2",
    "hx": 232.0,
    "hy": 2464.0,
    "hz": 272.0
   }
  },
  {
   "type": "Feature",
   "geometry": {
    "type": "Point",
    "coordinates": [
     0.00040249407340526693,
     -0.0005503490391205885
    ]
   },
   "properties": {
    "classname": "team_control_point",
    "team": "",
    "targetname": "cap_red_1",
    "hx": 2352.0,
    "hy": -3216.0,
    "hz": 353.0
   }
  },
  {
   "type": "Feature",
   "geometry": {
    "type": "Point",
    "coordinates": [
     0.0005380277919944851,
     -0.0004736903464699484
    ]
   },
   "properties": {
    "classname": "info_player_teamspawn",
    "team": "2",
    "targetname": "cap_red_1_spawns",
    "hx": 3144.0,
    "hy": -2768.04,
    "hz": 377.0
   }
  },
  {
   "type": "Feature",
   "geometry": {
    "type": "Point",
    "coordinates": [
     0.0005469264704863433,
     -0.0004517790619646622
    ]
   },
   "properties": {
    "classname": "info_player_teamspawn",
    "team": "2",
    "targetname": "cap_red_1_spawns",
    "hx": 3196.0,
    "hy": -2640.0,
    "hz": 377.0
   }
  },
  {
   "type": "Feature",
   "geometry": {
    "type": "Point",
    "coordinates": [
     0.0005469264704871776,
     -0.0004627312816486541
    ]
   },
   "properties": {
    "classname": "info_player_teamspawn",
    "team": "2",
    "targetname": "cap_red_1_spawns",
    "hx": 3196.0,
    "hy": -2704.0,
    "hz": 377.0
   }
  },
  {
   "type": "Feature",
   "geometry": {
    "type": "Point",
    "coordinates": [
     0.0005578786901706756,
     -0.0004517790619646622
    ]
   },
   "properties": {
    "classname": "info_player_teamspawn",
    "team": "2",
    "targetname": "cap_red_1_spawns",
    "hx": 3260.0,
    "hy": -2640.0,
    "hz": 377.0
   }
  },
  {
   "type": "Feature",
   "geometry": {
    "type": "Point",
    "coordinates": [
     0.0005359742508045232,
     -0.0004846425661539402
    ]
   },
   "properties": {
    "classname": "info_player_teamspawn",
    "team": "2",
    "targetname": "cap_red_1_spawns",
    "hx": 3132.0,
    "hy": -2832.04,
    "hz": 377.0
   }
  },
  {
   "type": "Feature",
   "geometry": {
    "type": "Point",
    "coordinates": [
     0.0005578786901715266,
     -0.0004627312816486541
    ]
   },
   "properties": {
    "classname": "info_player_teamspawn",
    "team": "2",
    "targetname": "cap_red_1_spawns",
    "hx": 3260.0,
    "hy": -2704.0,
    "hz": 377.0
   }
  },
  {
   "type": "Feature",
   "geometry": {
    "type": "Point",
    "coordinates": [
     0.0005688309098567645,
     -0.0004736869239012971
    ]
   },
   "properties": {
    "classname": "info_player_teamspawn",
    "team": "2",
    "targetname": "cap_red_1_spawns",
    "hx": 3324.0,
    "hy": -2768.02,
    "hz": 377.0
   }
  },
  {
   "type": "Feature",
   "geometry": {
    "type": "Point",
    "coordinates": [
     0.0005578786901723983,
     -0.0004736869239012971
    ]
   },
   "properties": {
    "classname": "info_player_teamspawn",
    "team": "2",
    "targetname": "cap_red_1_spawns",
    "hx": 3260.0,
    "hy": -2768.02,
    "hz": 377.0
   }
  },
  {
   "type": "Feature",
   "geometry": {
    "type": "Point",
    "coordinates": [
     0.0005688309098586037,
     -0.0004955879407006295
    ]
   },
   "properties": {
    "classname": "info_player_teamspawn",
    "team": "2",
    "targetname": "cap_red_1_spawns",
    "hx": 3324.0,
    "hy": -2896.0,
    "hz": 377.0
   }
  },
  {
   "type": "Feature",
   "geometry": {
    "type": "Point",
    "coordinates": [
     0.0005674618823971259,
     -0.00048463914358528893
    ]
   },
   "properties": {
    "classname": "info_player_teamspawn",
    "team": "2",
    "targetname": "cap_red_1_spawns",
    "hx": 3316.0,
    "hy": -2832.02,
    "hz": 377.0
   }
  },
  {
   "type": "Feature",
   "geometry": {
    "type": "Point",
    "coordinates": [
     0.0005565096627127423,
     -0.00048463914358528893
    ]
   },
   "properties": {
    "classname": "info_player_teamspawn",
    "team": "2",
    "targetname": "cap_red_1_spawns",
    "hx": 3252.0,
    "hy": -2832.02,
    "hz": 377.0
   }
  },
  {
   "type": "Feature",
   "geometry": {
    "type": "Point",
    "coordinates": [
     0.0005455574430283587,
     -0.00048463914358528893
    ]
   },
   "properties": {
    "classname": "info_player_teamspawn",
    "team": "2",
    "targetname": "cap_red_1_spawns",
    "hx": 3188.0,
    "hy": -2832.02,
    "hz": 377.0
   }
  },
  {
   "type": "Feature",
   "geometry": {
    "type": "Point",
    "coordinates": [
     0.0005482954979485781,
     -0.0004736869239012971
    ]
   },
   "properties": {
    "classname": "info_player_teamspawn",
    "team": "2",
    "targetname": "cap_red_1_spawns",
    "hx": 3204.0,
    "hy": -2768.02,
    "hz": 377.0
   }
  },
  {
   "type": "Feature",
   "geometry": {
    "type": "Point",
    "coordinates": [
     0.0005359742508053991,
     -0.0004955879407006295
    ]
   },
   "properties": {
    "classname": "info_player_teamspawn",
    "team": "2",
    "targetname": "cap_red_1_spawns",
    "hx": 3132.0,
    "hy": -2896.0,
    "hz": 377.0
   }
  },
  {
   "type": "Feature",
   "geometry": {
    "type": "Point",
    "coordinates": [
     0.0005469264704898006,
     -0.0004955879407006295
    ]
   },
   "properties": {
    "classname": "info_player_teamspawn",
    "team": "2",
    "targetname": "cap_red_1_spawns",
    "hx": 3196.0,
    "hy": -2896.0,
    "hz": 377.0
   }
  },
  {
   "type": "Feature",
   "geometry": {
    "type": "Point",
    "coordinates": [
     0.0005578786901742021,
     -0.0004955879407006295
    ]
   },
   "properties": {
    "classname": "info_player_teamspawn",
    "team": "2",
    "targetname": "cap_red_1_spawns",
    "hx": 3260.0,
    "hy": -2896.0,
    "hz": 377.0
   }
  },
  {
   "type": "Feature",
   "geometry": {
    "type": "Point",
    "coordinates": [
     -9.565908252063093e-05,
     -0.0004216690142553129
    ]
   },
   "properties": {
    "classname": "item_healthkit_medium",
    "team": "",
    "targetname": "",
    "hx": -558.99,
    "hy": -2464.05,
    "hz": 76.0
   }
  },
  {
   "type": "Feature",
   "geometry": {
    "type": "Point",
    "coordinates": [
     0.00038332768895342625,
     -0.0004846357210166377
    ]
   },
   "properties": {
    "classname": "item_ammopack_medium",
    "team": "0",
    "targetname": "",
    "hx": 2240.0,
    "hy": -2832.0,
    "hz": 370.0
   }
  },
  {
   "type": "Feature",
   "geometry": {
    "type": "Point",
    "coordinates": [
     0.00025532362138676535,
     -0.0003087156923425192
    ]
   },
   "properties": {
    "classname": "item_healthkit_medium",
    "team": "",
    "targetname": "",
    "hx": 1492.0,
    "hy": -1804.0,
    "hz": 344.0
   }
  },
  {
   "type": "Feature",
   "geometry": {
    "type": "Point",
    "coordinates": [
     -3.970179635554545e-05,
     -0.0004216604578336847
    ]
   },
   "properties": {
    "classname": "team_control_point",
    "team": "",
    "targetname": "cap_red_2",
    "hx": -232.0,
    "hy": -2464.0,
    "hz": 272.0
   }
  },
  {
   "type": "Feature",
   "geometry": {
    "type": "Point",
    "coordinates": [
     1.2836429291067435e-05,
     -0.0004216690142553129
    ]
   },
   "properties": {
    "classname": "item_ammopack_medium",
    "team": "",
    "targetname": "",
    "hx": 75.0105,
    "hy": -2464.05,
    "hz": 84.6964
   }
  },
  {
   "type": "Feature",
   "geometry": {
    "type": "Point",
    "coordinates": [
     -7.033190337467587e-05,
     0.0006335089009242733
    ]
   },
   "properties": {
    "classname": "item_ammopack_medium",
    "team": "",
    "targetname": "",
    "hx": -410.989,
    "hy": 3701.95,
    "hz": 64.0
   }
  },
  {
   "type": "Feature",
   "geometry": {
    "type": "Point",
    "coordinates": [
     -1.2836771547932542e-05,
     0.0004216519014120566
    ]
   },
   "properties": {
    "classname": "item_ammopack_medium",
    "team": "",
    "targetname": "",
    "hx": -75.0125,
    "hy": 2463.95,
    "hz": 84.6964
   }
  },
  {
   "type": "Feature",
   "geometry": {
    "type": "Point",
    "coordinates": [
     -7.820381127302618e-05,
     0.0006335089009242733
    ]
   },
   "properties": {
    "classname": "item_healthkit_medium",
    "team": "",
    "targetname": "",
    "hx": -456.989,
    "hy": 3701.95,
    "hz": 64.0
   }
  },
  {
   "type": "Feature",
   "geometry": {
    "type": "Point",
    "coordinates": [
     7.820364014459386e-05,
     -0.0006335260137675296
    ]
   },
   "properties": {
    "classname": "item_healthkit_medium",
    "team": "",
    "targetname": "",
    "hx": 456.988,
    "hy": -3702.05,
    "hz": 64.0
   }
  },
  {
   "type": "Feature",
   "geometry": {
    "type": "Point",
    "coordinates": [
     7.033173224624354e-05,
     -0.0006335260137675296
    ]
   },
   "properties": {
    "classname": "item_ammopack_medium",
    "team": "",
    "targetname": "",
    "hx": 410.988,
    "hy": -3702.05,
    "hz": 64.0
   }
  },
  {
   "type": "Feature",
   "geometry": {
    "type": "Point",
    "coordinates": [
     -0.00014306336962396985,
     -0.00028954930789553356
    ]
   },
   "properties": {
    "classname": "item_ammopack_small",
    "team": "0",
    "targetname": "",
    "hx": -836.0,
    "hy": -1692.0,
    "hz": 384.0
   }
  },
  {
   "type": "Feature",
   "geometry": {
    "type": "Point",
    "coordinates": [
     -4.962724544315438e-05,
     9.377838104417989e-05
    ]
   },
   "properties": {
    "classname": "item_ammopack_medium",
    "team": "",
    "targetname": "",
    "hx": -290.0,
    "hy": 548.0,
    "hz": 306.236
   }
  },
  {
   "type": "Feature",
   "geometry": {
    "type": "Point",
    "coordinates": [
     -4.380887873602593e-05,
     9.377838104417989e-05
    ]
   },
   "properties": {
    "classname": "item_healthkit_medium",
    "team": "",
    "targetname": "",
    "hx": -256.0,
    "hy": 548.0,
    "hz": 304.236
   }
  },
  {
   "type": "Feature",
   "geometry": {
    "type": "Point",
    "coordinates": [
     4.962724544315438e-05,
     -9.377838104417989e-05
    ]
   },
   "properties": {
    "classname": "item_ammopack_medium",
    "team": "",
    "targetname": "",
    "hx": 290.0,
    "hy": -548.0,
    "hz": 306.236
   }
  },
  {
   "type": "Feature",
   "geometry": {
    "type": "Point",
    "coordinates": [
     4.380887873602593e-05,
     -9.377838104417989e-05
    ]
   },
   "properties": {
    "classname": "item_healthkit_medium",
    "team": "",
    "targetname": "",
    "hx": 256.0,
    "hy": -548.0,
    "hz": 304.236
   }
  },
  {
   "type": "Feature",
   "geometry": {
    "type": "Point",
    "coordinates": [
     -0.00018208065224638263,
     -2.6011521749480553e-05
    ]
   },
   "properties": {
    "classname": "item_healthkit_small",
    "team": "",
    "targetname": "",
    "hx": -1064.0,
    "hy": -152.0,
    "hz": 248.921
   }
  },
  {
   "type": "Feature",
   "geometry": {
    "type": "Point",
    "coordinates": [
     -0.00018208065224637517,
     -2.0193155042359903e-05
    ]
   },
   "properties": {
    "classname": "item_ammopack_small",
    "team": "",
    "targetname": "",
    "hx": -1064.0,
    "hy": -118.0,
    "hz": 250.921
   }
  },
  {
   "type": "Feature",
   "geometry": {
    "type": "Point",
    "coordinates": [
     0.00014306336962396985,
     0.00028954930789553356
    ]
   },
   "properties": {
    "classname": "item_ammopack_small",
    "team": "0",
    "targetname": "",
    "hx": 836.0,
    "hy": 1692.0,
    "hz": 384.0
   }
  },
  {
   "type": "Feature",
   "geometry": {
    "type": "Point",
    "coordinates": [
     0.00018208065224637517,
     2.0193155042359903e-05
    ]
   },
   "properties": {
    "classname": "item_ammopack_small",
    "team": "",
    "targetname": "",
    "hx": 1064.0,
    "hy": 118.0,
    "hz": 250.921
   }
  },
  {
   "type": "Feature",
   "geometry": {
    "type": "Point",
    "coordinates": [
     0.00018208065224638263,
     2.6011521749480553e-05
    ]
   },
   "properties": {
    "classname": "item_healthkit_small",
    "team": "",
    "targetname": "",
    "hx": 1064.0,
    "hy": 152.0,
    "hz": 248.921
   }
  },
  {
   "type": "Feature",
   "geometry": {
    "type": "Point",
    "coordinates": [
     0.00026197538356021745,
     0.0002944281795078868
    ]
   },
   "properties": {
    "classname": "item_ammopack_medium",
    "team": "",
    "targetname": "",
    "hx": 1530.87,
    "hy": 1720.51,
    "hz": 388.0
   }
  },
  {
   "type": "Feature",
   "geometry": {
    "type": "Point",
    "coordinates": [
     0.0002644379217046696,
     0.00028790647494293474
    ]
   },
   "properties": {
    "classname": "item_healthkit_small",
    "team": "",
    "targetname": "",
    "hx": 1545.26,
    "hy": 1682.4,
    "hz": 388.0
   }
  },
  {
   "type": "Feature",
   "geometry": {
    "type": "Point",
    "coordinates": [
     0.0001300346775407072,
     -0.0004061955813830232
    ]
   },
   "properties": {
    "classname": "item_ammopack_full",
    "team": "",
    "targetname": "",
    "hx": 759.866,
    "hy": -2373.63,
    "hz": 278.452
   }
  },
  {
   "type": "Feature",
   "geometry": {
    "type": "Point",
    "coordinates": [
     0.00013553371859288075,
     -0.0004107082381496929
    ]
   },
   "properties": {
    "classname": "item_healthkit_small",
    "team": "",
    "targetname": "",
    "hx": 792.0,
    "hy": -2400.0,
    "hz": 279.478
   }
  },
  {
   "type": "Feature",
   "geometry": {
    "type": "Point",
    "coordinates": [
     -0.00013553371859288075,
     0.0004107082381496929
    ]
   },
   "properties": {
    "classname": "item_healthkit_small",
    "team": "",
    "targetname": "",
    "hx": -792.0,
    "hy": 2400.0,
    "hz": 279.478
   }
  },
  {
   "type": "Feature",
   "geometry": {
    "type": "Point",
    "coordinates": [
     -0.00013003450641227465,
     0.0004061955813830232
    ]
   },
   "properties": {
    "classname": "item_ammopack_full",
    "team": "",
    "targetname": "",
    "hx": -759.865,
    "hy": 2373.63,
    "hz": 278.452
   }
  },
  {
   "type": "Feature",
   "geometry": {
    "type": "Point",
    "coordinates": [
     -0.0002642120321736544,
     -0.00028661274399276323
    ]
   },
   "properties": {
    "classname": "item_healthkit_small",
    "team": "",
    "targetname": "",
    "hx": -1543.94,
    "hy": -1674.84,
    "hz": 388.0
   }
  },
  {
   "type": "Feature",
   "geometry": {
    "type": "Point",
    "coordinates": [
     -0.00026215164584573195,
     -0.0002932730625880908
    ]
   },
   "properties": {
    "classname": "item_ammopack_medium",
    "team": "",
    "targetname": "",
    "hx": -1531.9,
    "hy": -1713.76,
    "hz": 388.0
   }
  }
 ]
}
