{
 "type": "FeatureCollection",
 "note": "pseudo-WGS84 via crs.local_to_wgs84 ((0,0)m maps to (0,0)deg); viewing only, not survey",
 "features": [
  {
   "type": "Feature",
   "geometry": {
    "type": "Point",
    "coordinates": [
     -7.889020741310848e-05,
     0.00039291088116320626
    ]
   },
   "properties": {
    "classname": "item_healthkit_medium",
    "team": "0",
    "targetname": "",
    "hx": -461.0,
    "hy": 2296.0,
    "hz": -120.0
   }
  },
  {
   "type": "Feature",
   "geometry": {
    "type": "Point",
    "coordinates": [
     -8.008810644099855e-05,
     0.0003850389732653372
    ]
   },
   "properties": {
    "classname": "item_ammopack_medium",
    "team": "0",
    "targetname": "",
    "hx": -468.0,
    "hy": 2250.0,
    "hz": -123.0
   }
  },
  {
   "type": "Feature",
   "geometry": {
    "type": "Point",
    "coordinates": [
     7.991697800849378e-05,
     0.0003915418537027073
    ]
   },
   "properties": {
    "classname": "item_healthkit_medium",
    "team": "0",
    "targetname": "",
    "hx": 467.0,
    "hy": 2288.0,
    "hz": -120.0
   }
  },
  {
   "type": "Feature",
   "geometry": {
    "type": "Point",
    "coordinates": [
     8.02421220302953e-05,
     0.0003836699458048382
    ]
   },
   "properties": {
    "classname": "item_ammopack_medium",
    "team": "0",
    "targetname": "",
    "hx": 468.9,
    "hy": 2242.0,
    "hz": -123.0
   }
  },
  {
   "type": "Feature",
   "geometry": {
    "type": "Point",
    "coordinates": [
     -0.00022109793487643675,
     0.0004168688617219383
    ]
   },
   "properties": {
    "classname": "info_player_teamspawn",
    "team": "3",
    "targetname": "",
    "hx": -1292.0,
    "hy": 2436.0,
    "hz": -496.0
   }
  },
  {
   "type": "Feature",
   "geometry": {
    "type": "Point",
    "coordinates": [
     -0.0002210979348767089,
     0.00042645205394543115
    ]
   },
   "properties": {
    "classname": "info_player_teamspawn",
    "team": "3",
    "targetname": "",
    "hx": -1292.0,
    "hy": 2492.0,
    "hz": -496.0
   }
  },
  {
   "type": "Feature",
   "geometry": {
    "type": "Point",
    "coordinates": [
     -0.00022109793487696717,
     0.00043535073243867453
    ]
   },
   "properties": {
    "classname": "info_player_teamspawn",
    "team": "3",
    "targetname": "",
    "hx": -1292.0,
    "hy": 2544.0,
    "hz": -496.0
   }
  },
  {
   "type": "Feature",
   "geometry": {
    "type": "Point",
    "coordinates": [
     -0.0002210979348772615,
     0.0004452761815272921
    ]
   },
   "properties": {
    "classname": "info_player_teamspawn",
    "team": "3",
    "targetname": "",
    "hx": -1292.0,
    "hy": 2602.0,
    "hz": -496.0
   }
  },
  {
   "type": "Feature",
   "geometry": {
    "type": "Point",
    "coordinates": [
     -0.0001834496797120921,
     0.00043261267751767654
    ]
   },
   "properties": {
    "classname": "info_player_teamspawn",
    "team": "3",
    "targetname": "",
    "hx": -1072.0,
    "hy": 2528.0,
    "hz": -496.0
   }
  },
  {
   "type": "Feature",
   "geometry": {
    "type": "Point",
    "coordinates": [
     -0.00020809217400208027,
     0.0004435648972016684
    ]
   },
   "properties": {
    "classname": "info_player_teamspawn",
    "team": "3",
    "targetname": "",
    "hx": -1216.0,
    "hy": 2592.0,
    "hz": -496.0
   }
  },
  {
   "type": "Feature",
   "geometry": {
    "type": "Point",
    "coordinates": [
     -0.00020809217400185145,
     0.00043535073243867453
    ]
   },
   "properties": {
    "classname": "info_player_teamspawn",
    "team": "3",
    "targetname": "",
    "hx": -1216.0,
    "hy": 2544.0,
    "hz": -496.0
   }
  },
  {
   "type": "Feature",
   "geometry": {
    "type": "Point",
    "coordinates": [
     -0.0002080921740016269,
     0.00042713656767568066
    ]
   },
   "properties": {
    "classname": "info_player_teamspawn",
    "team": "3",
    "targetname": "",
    "hx": -1216.0,
    "hy": 2496.0,
    "hz": -496.0
   }
  },
  {
   "type": "Feature",
   "geometry": {
    "type": "Point",
    "coordinates": [
     -0.00020809217400139755,
     0.00041858014604756206
    ]
   },
   "properties": {
    "classname": "info_player_teamspawn",
    "team": "3",
    "targetname": "",
    "hx": -1216.0,
    "hy": 2446.0,
    "hz": -496.0
   }
  },
  {
   "type": "Feature",
   "geometry": {
    "type": "Point",
    "coordinates": [
     -0.00019440189939598325,
     0.00041618434799168885
    ]
   },
   "properties": {
    "classname": "info_player_teamspawn",
    "team": "3",
    "targetname": "",
    "hx": -1136.0,
    "hy": 2432.0,
    "hz": -496.0
   }
  },
  {
   "type": "Feature",
   "geometry": {
    "type": "Point",
    "coordinates": [
     -0.00019440189939625674,
     0.00042713656767568066
    ]
   },
   "properties": {
    "classname": "info_player_teamspawn",
    "team": "3",
    "targetname": "",
    "hx": -1136.0,
    "hy": 2496.0,
    "hz": -496.0
   }
  },
  {
   "type": "Feature",
   "geometry": {
    "type": "Point",
    "coordinates": [
     -0.00019440189939653733,
     0.00043808878735967247
    ]
   },
   "properties": {
    "classname": "info_player_teamspawn",
    "team": "3",
    "targetname": "",
    "hx": -1136.0,
    "hy": 2560.0,
    "hz": -496.0
   }
  },
  {
   "type": "Feature",
   "geometry": {
    "type": "Point",
    "coordinates": [
     -0.000194401899396825,
     0.0004490410070436643
    ]
   },
   "properties": {
    "classname": "info_player_teamspawn",
    "team": "3",
    "targetname": "",
    "hx": -1136.0,
    "hy": 2624.0,
    "hz": -496.0
   }
  },
  {
   "type": "Feature",
   "geometry": {
    "type": "Point",
    "coordinates": [
     -0.00018344967971236026,
     0.0004435648972016684
    ]
   },
   "properties": {
    "classname": "info_player_teamspawn",
    "team": "3",
    "targetname": "",
    "hx": -1072.0,
    "hy": 2592.0,
    "hz": -496.0
   }
  },
  {
   "type": "Feature",
   "geometry": {
    "type": "Point",
    "coordinates": [
     -0.0001834496797118307,
     0.0004216604578336847
    ]
   },
   "properties": {
    "classname": "info_player_teamspawn",
    "team": "3",
    "targetname": "",
    "hx": -1072.0,
    "hy": 2464.0,
    "hz": -496.0
   }
  },
  {
   "type": "Feature",
   "geometry": {
    "type": "Point",
    "coordinates": [
     -0.0001724974600277881,
     0.00043261267751767654
    ]
   },
   "properties": {
    "classname": "info_player_teamspawn",
    "team": "3",
    "targetname": "",
    "hx": -1008.0,
    "hy": 2528.0,
    "hz": -496.0
   }
  },
  {
   "type": "Feature",
   "geometry": {
    "type": "Point",
    "coordinates": [
     0.00020809217400208027,
     -0.0004435648972016684
    ]
   },
   "properties": {
    "classname": "info_player_teamspawn",
    "team": "2",
    "targetname": "",
    "hx": 1216.0,
    "hy": -2592.0,
    "hz": -496.0
   }
  },
  {
   "type": "Feature",
   "geometry": {
    "type": "Point",
    "coordinates": [
     0.00022178244860725655,
     -0.000436035246168924
    ]
   },
   "properties": {
    "classname": "info_player_teamspawn",
    "team": "2",
    "targetname": "",
    "hx": 1296.0,
    "hy": -2548.0,
    "hz": -496.0
   }
  },
  {
   "type": "Feature",
   "geometry": {
    "type": "Point",
    "coordinates": [
     0.00020809217400185145,
     -0.00043535073243867453
    ]
   },
   "properties": {
    "classname": "info_player_teamspawn",
    "team": "2",
    "targetname": "",
    "hx": 1216.0,
    "hy": -2544.0,
    "hz": -496.0
   }
  },
  {
   "type": "Feature",
   "geometry": {
    "type": "Point",
    "coordinates": [
     0.00022178244860755227,
     -0.0004459606952575416
    ]
   },
   "properties": {
    "classname": "info_player_teamspawn",
    "team": "2",
    "targetname": "",
    "hx": 1296.0,
    "hy": -2606.0,
    "hz": -496.0
   }
  },
  {
   "type": "Feature",
   "geometry": {
    "type": "Point",
    "coordinates": [
     0.00022178244860697737,
     -0.00042645205394543115
    ]
   },
   "properties": {
    "classname": "info_player_teamspawn",
    "team": "2",
    "targetname": "",
    "hx": 1296.0,
    "hy": -2492.0,
    "hz": -496.0
   }
  },
  {
   "type": "Feature",
   "geometry": {
    "type": "Point",
    "coordinates": [
     0.0002217824486066851,
     -0.00041618434799168885
    ]
   },
   "properties": {
    "classname": "info_player_teamspawn",
    "team": "2",
    "targetname": "",
    "hx": 1296.0,
    "hy": -2432.0,
    "hz": -496.0
   }
  },
  {
   "type": "Feature",
   "geometry": {
    "type": "Point",
    "coordinates": [
     0.00020809217400140663,
     -0.0004189224029126868
    ]
   },
   "properties": {
    "classname": "info_player_teamspawn",
    "team": "2",
    "targetname": "",
    "hx": 1216.0,
    "hy": -2448.0,
    "hz": -496.0
   }
  },
  {
   "type": "Feature",
   "geometry": {
    "type": "Point",
    "coordinates": [
     0.0002080921740016269,
     -0.00042713656767568066
    ]
   },
   "properties": {
    "classname": "info_player_teamspawn",
    "team": "2",
    "targetname": "",
    "hx": 1216.0,
    "hy": -2496.0,
    "hz": -496.0
   }
  },
  {
   "type": "Feature",
   "geometry": {
    "type": "Point",
    "coordinates": [
     0.00019440189939653733,
     -0.00043808878735967247
    ]
   },
   "properties": {
    "classname": "info_player_teamspawn",
    "team": "2",
    "targetname": "",
    "hx": 1136.0,
    "hy": -2560.0,
    "hz": -496.0
   }
  },
  {
   "type": "Feature",
   "geometry": {
    "type": "Point",
    "coordinates": [
     0.000194401899396825,
     -0.0004490410070436643
    ]
   },
   "properties": {
    "classname": "info_player_teamspawn",
    "team": "2",
    "targetname": "",
    "hx": 1136.0,
    "hy": -2624.0,
    "hz": -496.0
   }
  },
  {
   "type": "Feature",
   "geometry": {
    "type": "Point",
    "coordinates": [
     0.00018344967971236026,
     -0.0004435648972016684
    ]
   },
   "properties": {
    "classname": "info_player_teamspawn",
    "team": "2",
    "targetname": "",
    "hx": 1072.0,
    "hy": -2592.0,
    "hz": -496.0
   }
  },
  {
   "type": "Feature",
   "geometry": {
    "type": "Point",
    "coordinates": [
     0.00019440189939625674,
     -0.00042713656767568066
    ]
   },
   "properties": {
    "classname": "info_player_teamspawn",
    "team": "2",
    "targetname": "",
    "hx": 1136.0,
    "hy": -2496.0,
    "hz": -496.0
   }
  },
  {
   "type": "Feature",
   "geometry": {
    "type": "Point",
    "coordinates": [
     0.0001834496797120921,
     -0.00043261267751767654
    ]
   },
   "properties": {
    "classname": "info_player_teamspawn",
    "team": "2",
    "targetname": "",
    "hx": 1072.0,
    "hy": -2528.0,
    "hz": -496.0
   }
  },
  {
   "type": "Feature",
   "geometry": {
    "type": "Point",
    "coordinates": [
     0.0001834496797118307,
     -0.0004216604578336847
    ]
   },
   "properties": {
    "classname": "info_player_teamspawn",
    "team": "2",
    "targetname": "",
    "hx": 1072.0,
    "hy": -2464.0,
    "hz": -496.0
   }
  },
  {
   "type": "Feature",
   "geometry": {
    "type": "Point",
    "coordinates": [
     0.00019440189939598325,
     -0.00041618434799168885
    ]
   },
   "properties": {
    "classname": "info_player_teamspawn",
    "team": "2",
    "targetname": "",
    "hx": 1136.0,
    "hy": -2432.0,
    "hz": -496.0
   }
  },
  {
   "type": "Feature",
   "geometry": {
    "type": "Point",
    "coordinates": [
     0.0001724974600277881,
     -0.00043261267751767654
    ]
   },
   "properties": {
    "classname": "info_player_teamspawn",
    "team": "2",
    "targetname": "",
    "hx": 1008.0,
    "hy": -2528.0,
    "hz": -496.0
   }
  },
  {
   "type": "Feature",
   "geometry": {
    "type": "Point",
    "coordinates": [
     0.00026557250321512083,
     0.00038195866147921445
    ]
   },
   "properties": {
    "classname": "info_player_teamspawn",
    "team": "3",
    "targetname": "",
    "hx": 1551.89,
    "hy": 2232.0,
    "hz": -496.0
   }
  },
  {
   "type": "Feature",
   "geometry": {
    "type": "Point",
    "coordinates": [
     0.000276524722899356,
     0.00038195866147921445
    ]
   },
   "properties": {
    "classname": "info_player_teamspawn",
    "team": "3",
    "targetname": "",
    "hx": 1615.89,
    "hy": 2232.0,
    "hz": -496.0
   }
  },
  {
   "type": "Feature",
   "geometry": {
    "type": "Point",
    "coordinates": [
     0.0002874769425837756,
     0.0003874347713212104
    ]
   },
   "properties": {
    "classname": "info_player_teamspawn",
    "team": "3",
    "targetname": "",
    "hx": 1679.89,
    "hy": 2264.0,
    "hz": -496.0
   }
  },
  {
   "type": "Feature",
   "geometry": {
    "type": "Point",
    "coordinates": [
     0.00027652472289971345,
     0.00039291088116320626
    ]
   },
   "properties": {
    "classname": "info_player_teamspawn",
    "team": "3",
    "targetname": "",
    "hx": 1615.89,
    "hy": 2296.0,
    "hz": -496.0
   }
  },
  {
   "type": "Feature",
   "geometry": {
    "type": "Point",
    "coordinates": [
     0.00028747694258415244,
     0.0003983869910052022
    ]
   },
   "properties": {
    "classname": "info_player_teamspawn",
    "team": "3",
    "targetname": "",
    "hx": 1679.89,
    "hy": 2328.0,
    "hz": -496.0
   }
  },
  {
   "type": "Feature",
   "geometry": {
    "type": "Point",
    "coordinates": [
     0.00030116721718938586,
     0.000395991192949329
    ]
   },
   "properties": {
    "classname": "info_player_teamspawn",
    "team": "3",
    "targetname": "",
    "hx": 1759.89,
    "hy": 2314.0,
    "hz": -496.0
   }
  },
  {
   "type": "Feature",
   "geometry": {
    "type": "Point",
    "coordinates": [
     0.00031417297806450177,
     0.0003977024772749527
    ]
   },
   "properties": {
    "classname": "info_player_teamspawn",
    "team": "3",
    "targetname": "",
    "hx": 1835.89,
    "hy": 2324.0,
    "hz": -496.0
   }
  },
  {
   "type": "Feature",
   "geometry": {
    "type": "Point",
    "coordinates": [
     0.00031417297806414144,
     0.00038811928505145984
    ]
   },
   "properties": {
    "classname": "info_player_teamspawn",
    "team": "3",
    "targetname": "",
    "hx": 1835.89,
    "hy": 2268.0,
    "hz": -496.0
   }
  },
  {
   "type": "Feature",
   "geometry": {
    "type": "Point",
    "coordinates": [
     0.0003141729780638147,
     0.0003792206065582165
    ]
   },
   "properties": {
    "classname": "info_player_teamspawn",
    "team": "3",
    "targetname": "",
    "hx": 1835.89,
    "hy": 2216.0,
    "hz": -496.0
   }
  },
  {
   "type": "Feature",
   "geometry": {
    "type": "Point",
    "coordinates": [
     0.00031417297806345915,
     0.00036929515746959895
    ]
   },
   "properties": {
    "classname": "info_player_teamspawn",
    "team": "3",
    "targetname": "",
    "hx": 1835.89,
    "hy": 2158.0,
    "hz": -496.0
   }
  },
  {
   "type": "Feature",
   "geometry": {
    "type": "Point",
    "coordinates": [
     0.0003011672171885069,
     0.00037100644179522264
    ]
   },
   "properties": {
    "classname": "info_player_teamspawn",
    "team": "3",
    "targetname": "",
    "hx": 1759.89,
    "hy": 2168.0,
    "hz": -496.0
   }
  },
  {
   "type": "Feature",
   "geometry": {
    "type": "Point",
    "coordinates": [
     0.00030116721718878955,
     0.0003792206065582165
    ]
   },
   "properties": {
    "classname": "info_player_teamspawn",
    "team": "3",
    "targetname": "",
    "hx": 1759.89,
    "hy": 2216.0,
    "hz": -496.0
   }
  },
  {
   "type": "Feature",
   "geometry": {
    "type": "Point",
    "coordinates": [
     0.0003011672171890784,
     0.0003874347713212104
    ]
   },
   "properties": {
    "classname": "info_player_teamspawn",
    "team": "3",
    "targetname": "",
    "hx": 1759.89,
    "hy": 2264.0,
    "hz": -496.0
   }
  },
  {
   "type": "Feature",
   "geometry": {
    "type": "Point",
    "coordinates": [
     0.00028747694258340927,
     0.0003764825516372186
    ]
   },
   "properties": {
    "classname": "info_player_teamspawn",
    "team": "3",
    "targetname": "",
    "hx": 1679.89,
    "hy": 2200.0,
    "hz": -496.0
   }
  },
  {
   "type": "Feature",
   "geometry": {
    "type": "Point",
    "coordinates": [
     0.0002874769425830535,
     0.0003655303319532267
    ]
   },
   "properties": {
    "classname": "info_player_teamspawn",
    "team": "3",
    "targetname": "",
    "hx": 1679.89,
    "hy": 2136.0,
    "hz": -496.0
   }
  },
  {
   "type": "Feature",
   "geometry": {
    "type": "Point",
    "coordinates": [
     0.0002765247228990087,
     0.00037100644179522264
    ]
   },
   "properties": {
    "classname": "info_player_teamspawn",
    "team": "3",
    "targetname": "",
    "hx": 1615.89,
    "hy": 2168.0,
    "hz": -496.0
   }
  },
  {
   "type": "Feature",
   "geometry": {
    "type": "Point",
    "coordinates": [
     -0.00026559132734270305,
     -0.00038195866147921445
    ]
   },
   "properties": {
    "classname": "info_player_teamspawn",
    "team": "2",
    "targetname": "",
    "hx": -1552.0,
    "hy": -2232.0,
    "hz": -496.0
   }
  },
  {
   "type": "Feature",
   "geometry": {
    "type": "Point",
    "coordinates": [
     -0.00027654354702659093,
     -0.00037100644179522264
    ]
   },
   "properties": {
    "classname": "info_player_teamspawn",
    "team": "2",
    "targetname": "",
    "hx": -1616.0,
    "hy": -2168.0,
    "hz": -496.0
   }
  },
  {
   "type": "Feature",
   "geometry": {
    "type": "Point",
    "coordinates": [
     -0.00028749576671063576,
     -0.0003655303319532267
    ]
   },
   "properties": {
    "classname": "info_player_teamspawn",
    "team": "2",
    "targetname": "",
    "hx": -1680.0,
    "hy": -2136.0,
    "hz": -496.0
   }
  },
  {
   "type": "Feature",
   "geometry": {
    "type": "Point",
    "coordinates": [
     -0.0003011860413160891,
     -0.00037100644179522264
    ]
   },
   "properties": {
    "classname": "info_player_teamspawn",
    "team": "2",
    "targetname": "",
    "hx": -1760.0,
    "hy": -2168.0,
    "hz": -496.0
   }
  },
  {
   "type": "Feature",
   "geometry": {
    "type": "Point",
    "coordinates": [
     -0.00031419180219104136,
     -0.00036929515746959895
    ]
   },
   "properties": {
    "classname": "info_player_teamspawn",
    "team": "2",
    "targetname": "",
    "hx": -1836.0,
    "hy": -2158.0,
    "hz": -496.0
   }
  },
  {
   "type": "Feature",
   "geometry": {
    "type": "Point",
    "coordinates": [
     -0.00031419180219139693,
     -0.0003792206065582165
    ]
   },
   "properties": {
    "classname": "info_player_teamspawn",
    "team": "2",
    "targetname": "",
    "hx": -1836.0,
    "hy": -2216.0,
    "hz": -496.0
   }
  },
  {
   "type": "Feature",
   "geometry": {
    "type": "Point",
    "coordinates": [
     -0.00030118604131637176,
     -0.0003792206065582165
    ]
   },
   "properties": {
    "classname": "info_player_teamspawn",
    "team": "2",
    "targetname": "",
    "hx": -1760.0,
    "hy": -2216.0,
    "hz": -496.0
   }
  },
  {
   "type": "Feature",
   "geometry": {
    "type": "Point",
    "coordinates": [
     -0.00028749576671099154,
     -0.0003764825516372186
    ]
   },
   "properties": {
    "classname": "info_player_teamspawn",
    "team": "2",
    "targetname": "",
    "hx": -1680.0,
    "hy": -2200.0,
    "hz": -496.0
   }
  },
  {
   "type": "Feature",
   "geometry": {
    "type": "Point",
    "coordinates": [
     -0.00030118604131666065,
     -0.0003874347713212104
    ]
   },
   "properties": {
    "classname": "info_player_teamspawn",
    "team": "2",
    "targetname": "",
    "hx": -1760.0,
    "hy": -2264.0,
    "hz": -496.0
   }
  },
  {
   "type": "Feature",
   "geometry": {
    "type": "Point",
    "coordinates": [
     -0.0003141918021917237,
     -0.00038811928505145984
    ]
   },
   "properties": {
    "classname": "info_player_teamspawn",
    "team": "2",
    "targetname": "",
    "hx": -1836.0,
    "hy": -2268.0,
    "hz": -496.0
   }
  },
  {
   "type": "Feature",
   "geometry": {
    "type": "Point",
    "coordinates": [
     -0.00027654354702693826,
     -0.00038195866147921445
    ]
   },
   "properties": {
    "classname": "info_player_teamspawn",
    "team": "2",
    "targetname": "",
    "hx": -1616.0,
    "hy": -2232.0,
    "hz": -496.0
   }
  },
  {
   "type": "Feature",
   "geometry": {
    "type": "Point",
    "coordinates": [
     -0.00028749576671135795,
     -0.0003874347713212104
    ]
   },
   "properties": {
    "classname": "info_player_teamspawn",
    "team": "2",
    "targetname": "",
    "hx": -1680.0,
    "hy": -2264.0,
    "hz": -496.0
   }
  },
  {
   "type": "Feature",
   "geometry": {
    "type": "Point",
    "coordinates": [
     -0.00031419180219208404,
     -0.0003977024772749527
    ]
   },
   "properties": {
    "classname": "info_player_teamspawn",
    "team": "2",
    "targetname": "",
    "hx": -1836.0,
    "hy": -2324.0,
    "hz": -496.0
   }
  },
  {
   "type": "Feature",
   "geometry": {
    "type": "Point",
    "coordinates": [
     -0.00030118604131696813,
     -0.000395991192949329
    ]
   },
   "properties": {
    "classname": "info_player_teamspawn",
    "team": "2",
    "targetname": "",
    "hx": -1760.0,
    "hy": -2314.0,
    "hz": -496.0
   }
  },
  {
   "type": "Feature",
   "geometry": {
    "type": "Point",
    "coordinates": [
     -0.00028749576671173476,
     -0.0003983869910052022
    ]
   },
   "properties": {
    "classname": "info_player_teamspawn",
    "team": "2",
    "targetname": "",
    "hx": -1680.0,
    "hy": -2328.0,
    "hz": -496.0
   }
  },
  {
   "type": "Feature",
   "geometry": {
    "type": "Point",
    "coordinates": [
     -0.0002765435470272957,
     -0.00039291088116320626
    ]
   },
   "properties": {
    "classname": "info_player_teamspawn",
    "team": "2",
    "targetname": "",
    "hx": -1616.0,
    "hy": -2296.0,
    "hz": -496.0
   }
  },
  {
   "type": "Feature",
   "geometry": {
    "type": "Point",
    "coordinates": [
     -5.1346915062882845e-08,
     0.00035320908480873593
    ]
   },
   "properties": {
    "classname": "item_ammopack_medium",
    "team": "0",
    "targetname": "",
    "hx": -0.300049,
    "hy": 2064.0,
    "hz": -316.0
   }
  },
  {
   "type": "Feature",
   "geometry": {
    "type": "Point",
    "coordinates": [
     7.94035927104729e-05,
     0.00035594713972973387
    ]
   },
   "properties": {
    "classname": "item_healthkit_small",
    "team": "0",
    "targetname": "",
    "hx": 464.0,
    "hy": 2080.0,
    "hz": -320.0
   }
  },
  {
   "type": "Feature",
   "geometry": {
    "type": "Point",
    "coordinates": [
     -7.803456524994751e-05,
     0.00035594713972973387
    ]
   },
   "properties": {
    "classname": "item_healthkit_small",
    "team": "0",
    "targetname": "",
    "hx": -456.0,
    "hy": 2080.0,
    "hz": -320.0
   }
  },
  {
   "type": "Feature",
   "geometry": {
    "type": "Point",
    "coordinates": [
     7.910240666917352e-05,
     -0.00035782955248792
    ]
   },
   "properties": {
    "classname": "item_healthkit_small",
    "team": "0",
    "targetname": "",
    "hx": 462.24,
    "hy": -2091.0,
    "hz": -320.0
   }
  },
  {
   "type": "Feature",
   "geometry": {
    "type": "Point",
    "coordinates": [
     -7.940359271048915e-05,
     -0.00035782955248792
    ]
   },
   "properties": {
    "classname": "item_healthkit_small",
    "team": "0",
    "targetname": "",
    "hx": -464.0,
    "hy": -2091.0,
    "hz": -319.73
   }
  },
  {
   "type": "Feature",
   "geometry": {
    "type": "Point",
    "coordinates": [
     -6.845137302626975e-07,
     -0.00035594713972973387
    ]
   },
   "properties": {
    "classname": "item_ammopack_medium",
    "team": "0",
    "targetname": "",
    "hx": -4.0,
    "hy": -2080.0,
    "hz": -320.73
   }
  },
  {
   "type": "Feature",
   "geometry": {
    "type": "Point",
    "coordinates": [
     1.8481870717017708e-05,
     -0.00031624534337526354
    ]
   },
   "properties": {
    "classname": "item_ammopack_medium",
    "team": "0",
    "targetname": "",
    "hx": 108.0,
    "hy": -1848.0,
    "hz": -480.0
   }
  },
  {
   "type": "Feature",
   "geometry": {
    "type": "Point",
    "coordinates": [
     -1.8481870717017708e-05,
     0.00031624534337526354
    ]
   },
   "properties": {
    "classname": "item_ammopack_medium",
    "team": "0",
    "targetname": "",
    "hx": -108.0,
    "hy": 1848.0,
    "hz": -480.0
   }
  },
  {
   "type": "Feature",
   "geometry": {
    "type": "Point",
    "coordinates": [
     6.160623572891226e-06,
     -0.0008296306410623798
    ]
   },
   "properties": {
    "classname": "item_ammopack_medium",
    "team": "0",
    "targetname": "",
    "hx": 36.0,
    "hy": -4848.0,
    "hz": -415.739
   }
  },
  {
   "type": "Feature",
   "geometry": {
    "type": "Point",
    "coordinates": [
     -6.853693724841894e-06,
     -0.0008298650870149902
    ]
   },
   "properties": {
    "classname": "item_healthkit_medium",
    "team": "0",
    "targetname": "",
    "hx": -40.05,
    "hy": -4849.37,
    "hz": -412.739
   }
  },
  {
   "type": "Feature",
   "geometry": {
    "type": "Point",
    "coordinates": [
     -5.808081888932958e-06,
     0.0008299249819663871
    ]
   },
   "properties": {
    "classname": "item_ammopack_medium",
    "team": "0",
    "targetname": "",
    "hx": -33.9399,
    "hy": 4849.72,
    "hz": -413.739
   }
  },
  {
   "type": "Feature",
   "geometry": {
    "type": "Point",
    "coordinates": [
     7.207929580283697e-06,
     0.0008301594279189976
    ]
   },
   "properties": {
    "classname": "item_healthkit_medium",
    "team": "0",
    "targetname": "",
    "hx": 42.12,
    "hy": 4851.09,
    "hz": -410.739
   }
  },
  {
   "type": "Feature",
   "geometry": {
    "type": "Point",
    "coordinates": [
     -8.333612408922395e-05,
     3.713658115036036e-08
    ]
   },
   "properties": {
    "classname": "item_healthkit_medium",
    "team": "0",
    "targetname": "",
    "hx": -486.98,
    "hy": 0.21701,
    "hz": -519.764
   }
  },
  {
   "type": "Feature",
   "geometry": {
    "type": "Point",
    "coordinates": [
     -7.380427039549981e-05,
     3.713658115036036e-08
    ]
   },
   "properties": {
    "classname": "item_ammopack_small",
    "team": "0",
    "targetname": "",
    "hx": -431.28,
    "hy": 0.21701,
    "hz": -519.739
   }
  },
  {
   "type": "Feature",
   "geometry": {
    "type": "Point",
    "coordinates": [
     3.1658417768031463e-07,
     0.00042176826874619906
    ]
   },
   "properties": {
    "classname": "item_ammopack_small",
    "team": "0",
    "targetname": "",
    "hx": 1.84998,
    "hy": 2464.63,
    "hz": -511.744
   }
  },
  {
   "type": "Feature",
   "geometry": {
    "type": "Point",
    "coordinates": [
     7.450418568467993e-05,
     2.806523406866158e-08
    ]
   },
   "properties": {
    "classname": "item_ammopack_small",
    "team": "0",
    "targetname": "",
    "hx": 435.37,
    "hy": 0.164001,
    "hz": -519.739
   }
  },
  {
   "type": "Feature",
   "geometry": {
    "type": "Point",
    "coordinates": [
     8.403603937840404e-05,
     2.806523406866158e-08
    ]
   },
   "properties": {
    "classname": "item_healthkit_medium",
    "team": "0",
    "targetname": "",
    "hx": 491.07,
    "hy": 0.164001,
    "hz": -519.764
   }
  },
  {
   "type": "Feature",
   "geometry": {
    "type": "Point",
    "coordinates": [
     -0.00018593617584473218,
     0.0006706677287708667
    ]
   },
   "properties": {
    "classname": "item_ammopack_small",
    "team": "0",
    "targetname": "",
    "hx": -1086.53,
    "hy": 3919.09,
    "hz": -509.739
   }
  },
  {
   "type": "Feature",
   "geometry": {
    "type": "Point",
    "coordinates": [
     0.00018631094711207935,
     0.0006709278439883616
    ]
   },
   "properties": {
    "classname": "item_ammopack_small",
    "team": "0",
    "targetname": "",
    "hx": 1088.72,
    "hy": 3920.61,
    "hz": -509.739
   }
  },
  {
   "type": "Feature",
   "geometry": {
    "type": "Point",
    "coordinates": [
     4.449305021054805e-07,
     -0.0004201819081763459
    ]
   },
   "properties": {
    "classname": "item_ammopack_small",
    "team": "0",
    "targetname": "",
    "hx": 2.59998,
    "hy": -2455.36,
    "hz": -512.744
   }
  },
  {
   "type": "Feature",
   "geometry": {
    "type": "Point",
    "coordinates": [
     -0.00018612955097354619,
     -0.0006708063428012423
    ]
   },
   "properties": {
    "classname": "item_ammopack_small",
    "team": "0",
    "targetname": "",
    "hx": -1087.66,
    "hy": -3919.9,
    "hz": -511.739
   }
  },
  {
   "type": "Feature",
   "geometry": {
    "type": "Point",
    "coordinates": [
     0.00018618773464062203,
     -0.0006708234556444984
    ]
   },
   "properties": {
    "classname": "item_ammopack_small",
    "team": "0",
    "targetname": "",
    "hx": 1088.0,
    "hy": -3920.0,
    "hz": -511.739
   }
  },
  {
   "type": "Feature",
   "geometry": {
    "type": "Point",
    "coordinates": [
     7.995633754792516e-05,
     -0.00038531620132608815
    ]
   },
   "properties": {
    "classname": "item_healthkit_medium",
    "team": "0",
    "targetname": "",
    "hx": 467.23,
    "hy": -2251.62,
    "hz": -124.744
   }
  },
  {
   "type": "Feature",
   "geometry": {
    "type": "Point",
    "coordinates": [
     8.028148156987595e-05,
     -0.0003931881092239573
    ]
   },
   "properties": {
    "classname": "item_ammopack_medium",
    "team": "0",
    "targetname": "",
    "hx": 469.13,
    "hy": -2297.62,
    "hz": -127.744
   }
  },
  {
   "type": "Feature",
   "geometry": {
    "type": "Point",
    "coordinates": [
     -8.004874690157254e-05,
     -0.0003918190817634583
    ]
   },
   "properties": {
    "classname": "item_ammopack_medium",
    "team": "0",
    "targetname": "",
    "hx": -467.77,
    "hy": -2289.62,
    "hz": -127.744
   }
  },
  {
   "type": "Feature",
   "geometry": {
    "type": "Point",
    "coordinates": [
     -7.88508478735346e-05,
     -0.0003839471738655892
    ]
   },
   "properties": {
    "classname": "item_healthkit_medium",
    "team": "0",
    "targetname": "",
    "hx": -460.77,
    "hy": -2243.62,
    "hz": -124.744
   }
  }
 ]
}
