{
 "type": "FeatureCollection",
 "note": "pseudo-WGS84 via crs.local_to_wgs84 ((0,0)m maps to (0,0)deg); viewing only, not survey",
 "features": [
  {
   "type": "Feature",
   "geometry": {
    "type": "Point",
    "coordinates": [
     -0.0001889257895497424,
     0.000175235514943869
    ]
   },
   "properties": {
    "classname": "item_ammopack_medium",
    "team": "0",
    "targetname": "",
    "hx": -1104.0,
    "hy": 1024.0,
    "hz": 320.0
   }
  },
  {
   "type": "Feature",
   "geometry": {
    "type": "Point",
    "coordinates": [
     4.723144738772738e-05,
     0.00026696035479730043
    ]
   },
   "properties": {
    "classname": "item_ammopack_medium",
    "team": "0",
    "targetname": "",
    "hx": 276.0,
    "hy": 1560.0,
    "hz": 528.0
   }
  },
  {
   "type": "Feature",
   "geometry": {
    "type": "Point",
    "coordinates": [
     -0.0002573771625857993,
     0.0005530870940415865
    ]
   },
   "properties": {
    "classname": "item_ammopack_full",
    "team": "0",
    "targetname": "",
    "hx": -1504.0,
    "hy": 3232.0,
    "hz": 452.0
   }
  },
  {
   "type": "Feature",
   "geometry": {
    "type": "Point",
    "coordinates": [
     -0.0002436868879801717,
     0.0005530870940415865
    ]
   },
   "properties": {
    "classname": "item_healthkit_medium",
    "team": "0",
    "targetname": "",
    "hx": -1424.0,
    "hy": 3232.0,
    "hz": 452.0
   }
  },
  {
   "type": "Feature",
   "geometry": {
    "type": "Point",
    "coordinates": [
     -4.654693365747046e-05,
     -0.00026696035479730043
    ]
   },
   "properties": {
    "classname": "item_ammopack_medium",
    "team": "0",
    "targetname": "",
    "hx": -272.0,
    "hy": -1560.0,
    "hz": 528.0
   }
  },
  {
   "type": "Feature",
   "geometry": {
    "type": "Point",
    "coordinates": [
     -4.380887873598726e-05,
     5.476109841995906e-05
    ]
   },
   "properties": {
    "classname": "item_healthkit_small",
    "team": "0",
    "targetname": "",
    "hx": -256.0,
    "hy": 320.0,
    "hz": 264.0
   }
  },
  {
   "type": "Feature",
   "geometry": {
    "type": "Point",
    "coordinates": [
     0.0002573771625857993,
     -0.0005530870940415865
    ]
   },
   "properties": {
    "classname": "item_ammopack_full",
    "team": "0",
    "targetname": "",
    "hx": 1504.0,
    "hy": -3232.0,
    "hz": 452.0
   }
  },
  {
   "type": "Feature",
   "geometry": {
    "type": "Point",
    "coordinates": [
     0.0002436868879801717,
     -0.0005530870940415865
    ]
   },
   "properties": {
    "classname": "item_healthkit_medium",
    "team": "0",
    "targetname": "",
    "hx": 1424.0,
    "hy": -3232.0,
    "hz": 452.0
   }
  },
  {
   "type": "Feature",
   "geometry": {
    "type": "Point",
    "coordinates": [
     0.00018892578954991582,
     -0.0001916638444698567
    ]
   },
   "properties": {
    "classname": "item_healthkit_medium",
    "team": "0",
    "targetname": "",
    "hx": 1104.0,
    "hy": -1120.0,
    "hz": 320.0
   }
  },
  {
   "type": "Feature",
   "geometry": {
    "type": "Point",
    "coordinates": [
     4.380887873598726e-05,
     -5.476109841995906e-05
    ]
   },
   "properties": {
    "classname": "item_healthkit_small",
    "team": "0",
    "targetname": "",
    "hx": 256.0,
    "hy": -320.0,
    "hz": 264.0
   }
  },
  {
   "type": "Feature",
   "geometry": {
    "type": "Point",
    "coordinates": [
     -3.0118604131304412e-05,
     -0.00026696035479730043
    ]
   },
   "properties": {
    "classname": "item_healthkit_medium",
    "team": "0",
    "targetname": "",
    "hx": -176.0,
    "hy": -1560.0,
    "hz": 528.0
   }
  },
  {
   "type": "Feature",
   "geometry": {
    "type": "Point",
    "coordinates": [
     2.4642494289157187e-05,
     -0.00021630633875883827
    ]
   },
   "properties": {
    "classname": "item_ammopack_medium",
    "team": "0",
    "targetname": "",
    "hx": 144.0,
    "hy": -1264.0,
    "hz": 528.0
   }
  },
  {
   "type": "Feature",
   "geometry": {
    "type": "Point",
    "coordinates": [
     3.0803117861561334e-05,
     0.00026696035479730043
    ]
   },
   "properties": {
    "classname": "item_healthkit_medium",
    "team": "0",
    "targetname": "",
    "hx": 180.0,
    "hy": 1560.0,
    "hz": 528.0
   }
  },
  {
   "type": "Feature",
   "geometry": {
    "type": "Point",
    "coordinates": [
     -2.4642494289157187e-05,
     0.00021630633875883827
    ]
   },
   "properties": {
    "classname": "item_ammopack_medium",
    "team": "0",
    "targetname": "",
    "hx": -144.0,
    "hy": 1264.0,
    "hz": 528.0
   }
  },
  {
   "type": "Feature",
   "geometry": {
    "type": "Point",
    "coordinates": [
     0.0001889257895497424,
     -0.000175235514943869
    ]
   },
   "properties": {
    "classname": "item_ammopack_medium",
    "team": "0",
    "targetname": "",
    "hx": 1104.0,
    "hy": -1024.0,
    "hz": 320.0
   }
  },
  {
   "type": "Feature",
   "geometry": {
    "type": "Point",
    "coordinates": [
     -0.00018892578954991582,
     0.0001916638444698567
    ]
   },
   "properties": {
    "classname": "item_healthkit_medium",
    "team": "0",
    "targetname": "",
    "hx": -1104.0,
    "hy": 1120.0,
    "hz": 320.0
   }
  },
  {
   "type": "Feature",
   "geometry": {
    "type": "Point",
    "coordinates": [
     0.0003215913956244882,
     0.0005711120518433812
    ]
   },
   "properties": {
    "classname": "info_player_teamspawn",
    "team": "2",
    "targetname": "",
    "hx": 1879.24,
    "hy": 3337.33,
    "hz": 456.616
   }
  },
  {
   "type": "Feature",
   "geometry": {
    "type": "Point",
    "coordinates": [
     0.00032159310691059394,
     0.0006020880094214961
    ]
   },
   "properties": {
    "classname": "info_player_teamspawn",
    "team": "2",
    "targetname": "",
    "hx": 1879.25,
    "hy": 3518.34,
    "hz": 456.616
   }
  },
  {
   "type": "Feature",
   "geometry": {
    "type": "Point",
    "coordinates": [
     0.00030610427247766014,
     0.0005866008862746015
    ]
   },
   "properties": {
    "classname": "info_player_teamspawn",
    "team": "2",
    "targetname": "",
    "hx": 1788.74,
    "hy": 3427.84,
    "hz": 456.616
   }
  },
  {
   "type": "Feature",
   "geometry": {
    "type": "Point",
    "coordinates": [
     0.00031384783405108185,
     0.0005788556134168285
    ]
   },
   "properties": {
    "classname": "info_player_teamspawn",
    "team": "2",
    "targetname": "",
    "hx": 1833.99,
    "hy": 3382.58,
    "hz": 456.616
   }
  },
  {
   "type": "Feature",
   "geometry": {
    "type": "Point",
    "coordinates": [
     0.0003215931069096922,
     0.0005866008862746015
    ]
   },
   "properties": {
    "classname": "info_player_teamspawn",
    "team": "2",
    "targetname": "",
    "hx": 1879.25,
    "hy": 3427.84,
    "hz": 456.616
   }
  },
  {
   "type": "Feature",
   "geometry": {
    "type": "Point",
    "coordinates": [
     0.0003138478340519505,
     0.0005943444478480488
    ]
   },
   "properties": {
    "classname": "info_player_teamspawn",
    "team": "2",
    "targetname": "",
    "hx": 1833.99,
    "hy": 3473.09,
    "hz": 456.616
   }
  },
  {
   "type": "Feature",
   "geometry": {
    "type": "Point",
    "coordinates": [
     0.0003293366684830926,
     0.0005788556134168285
    ]
   },
   "properties": {
    "classname": "info_player_teamspawn",
    "team": "2",
    "targetname": "",
    "hx": 1924.5,
    "hy": 3382.58,
    "hz": 456.616
   }
  },
  {
   "type": "Feature",
   "geometry": {
    "type": "Point",
    "coordinates": [
     0.0003370802300573985,
     0.0005865991749902758
    ]
   },
   "properties": {
    "classname": "info_player_teamspawn",
    "team": "2",
    "targetname": "",
    "hx": 1969.75,
    "hy": 3427.83,
    "hz": 456.616
   }
  },
  {
   "type": "Feature",
   "geometry": {
    "type": "Point",
    "coordinates": [
     0.0003293366684840041,
     0.0005943444478480488
    ]
   },
   "properties": {
    "classname": "info_player_teamspawn",
    "team": "2",
    "targetname": "",
    "hx": 1924.5,
    "hy": 3473.09,
    "hz": 456.616
   }
  },
  {
   "type": "Feature",
   "geometry": {
    "type": "Point",
    "coordinates": [
     0.0003138461227659135,
     0.0005634232513683538
    ]
   },
   "properties": {
    "classname": "info_player_teamspawn",
    "team": "2",
    "targetname": "",
    "hx": 1833.98,
    "hy": 3292.4,
    "hz": 456.616
   }
  },
  {
   "type": "Feature",
   "geometry": {
    "type": "Point",
    "coordinates": [
     0.00030610256119250126,
     0.0005711651016574755
    ]
   },
   "properties": {
    "classname": "info_player_teamspawn",
    "team": "2",
    "targetname": "",
    "hx": 1788.73,
    "hy": 3337.64,
    "hz": 456.616
   }
  },
  {
   "type": "Feature",
   "geometry": {
    "type": "Point",
    "coordinates": [
     0.000298358999619074,
     0.0005789103745152485
    ]
   },
   "properties": {
    "classname": "info_player_teamspawn",
    "team": "2",
    "targetname": "",
    "hx": 1743.48,
    "hy": 3382.9,
    "hz": 456.616
   }
  },
  {
   "type": "Feature",
   "geometry": {
    "type": "Point",
    "coordinates": [
     -0.0003215913956244882,
     -0.0005711120518433812
    ]
   },
   "properties": {
    "classname": "info_player_teamspawn",
    "team": "3",
    "targetname": "",
    "hx": -1879.24,
    "hy": -3337.33,
    "hz": 456.616
   }
  },
  {
   "type": "Feature",
   "geometry": {
    "type": "Point",
    "coordinates": [
     -0.00032159310691059394,
     -0.0006020880094214961
    ]
   },
   "properties": {
    "classname": "info_player_teamspawn",
    "team": "3",
    "targetname": "",
    "hx": -1879.25,
    "hy": -3518.34,
    "hz": 456.616
   }
  },
  {
   "type": "Feature",
   "geometry": {
    "type": "Point",
    "coordinates": [
     -0.00030610427247766014,
     -0.0005866008862746015
    ]
   },
   "properties": {
    "classname": "info_player_teamspawn",
    "team": "3",
    "targetname": "",
    "hx": -1788.74,
    "hy": -3427.84,
    "hz": 456.616
   }
  },
  {
   "type": "Feature",
   "geometry": {
    "type": "Point",
    "coordinates": [
     -0.00031384783405108185,
     -0.0005788556134168285
    ]
   },
   "properties": {
    "classname": "info_player_teamspawn",
    "team": "3",
    "targetname": "",
    "hx": -1833.99,
    "hy": -3382.58,
    "hz": 456.616
   }
  },
  {
   "type": "Feature",
   "geometry": {
    "type": "Point",
    "coordinates": [
     -0.0003215931069096922,
     -0.0005866008862746015
    ]
   },
   "properties": {
    "classname": "info_player_teamspawn",
    "team": "3",
    "targetname": "",
    "hx": -1879.25,
    "hy": -3427.84,
    "hz": 456.616
   }
  },
  {
   "type": "Feature",
   "geometry": {
    "type": "Point",
    "coordinates": [
     -0.0003138478340519505,
     -0.0005943444478480488
    ]
   },
   "properties": {
    "classname": "info_player_teamspawn",
    "team": "3",
    "targetname": "",
    "hx": -1833.99,
    "hy": -3473.09,
    "hz": 456.616
   }
  },
  {
   "type": "Feature",
   "geometry": {
    "type": "Point",
    "coordinates": [
     -0.0003293366684830926,
     -0.0005788556134168285
    ]
   },
   "properties": {
    "classname": "info_player_teamspawn",
    "team": "3",
    "targetname": "",
    "hx": -1924.5,
    "hy": -3382.58,
    "hz": 456.616
   }
  },
  {
   "type": "Feature",
   "geometry": {
    "type": "Point",
    "coordinates": [
     -0.0003370802300573985,
     -0.0005865991749902758
    ]
   },
   "properties": {
    "classname": "info_player_teamspawn",
    "team": "3",
    "targetname": "",
    "hx": -1969.75,
    "hy": -3427.83,
    "hz": 456.616
   }
  },
  {
   "type": "Feature",
   "geometry": {
    "type": "Point",
    "coordinates": [
     -0.0003293366684840041,
     -0.0005943444478480488
    ]
   },
   "properties": {
    "classname": "info_player_teamspawn",
    "team": "3",
    "targetname": "",
    "hx": -1924.5,
    "hy": -3473.09,
    "hz": 456.616
   }
  },
  {
   "type": "Feature",
   "geometry": {
    "type": "Point",
    "coordinates": [
     -0.0003138461227659135,
     -0.0005634232513683538
    ]
   },
   "properties": {
    "classname": "info_player_teamspawn",
    "team": "3",
    "targetname": "",
    "hx": -1833.98,
    "hy": -3292.4,
    "hz": 456.616
   }
  },
  {
   "type": "Feature",
   "geometry": {
    "type": "Point",
    "coordinates": [
     -0.00030610256119250126,
     -0.0005711651016574755
    ]
   },
   "properties": {
    "classname": "info_player_teamspawn",
    "team": "3",
    "targetname": "",
    "hx": -1788.73,
    "hy": -3337.64,
    "hz": 456.616
   }
  },
  {
   "type": "Feature",
   "geometry": {
    "type": "Point",
    "coordinates": [
     -0.000298358999619074,
     -0.0005789103745152485
    ]
   },
   "properties": {
    "classname": "info_player_teamspawn",
    "team": "3",
    "targetname": "",
    "hx": -1743.48,
    "hy": -3382.9,
    "hz": 456.616
   }
  }
 ]
}
