{
 "type": "FeatureCollection",
 "note": "pseudo-WGS84 via crs.local_to_wgs84 ((0,0)m maps to (0,0)deg); viewing only, not survey",
 "features": [
  {
   "type": "Feature",
   "geometry": {
    "type": "Point",
    "coordinates": [
     7.53562341513116e-05,
     -0.00028058902316656776
    ]
   },
   "properties": {
    "classname": "item_healthkit_full",
    "team": "0",
    "targetname": "",
    "hx": 440.349,
    "hy": -1639.64,
    "hz": -208.0
   }
  },
  {
   "type": "Feature",
   "geometry": {
    "type": "Point",
    "coordinates": [
     0.0004696739621673393,
     0.00036689935941372574
    ]
   },
   "properties": {
    "classname": "item_ammopack_medium",
    "team": "0",
    "targetname": "",
    "hx": 2744.57,
    "hy": 2144.0,
    "hz": 52.0
   }
  },
  {
   "type": "Feature",
   "geometry": {
    "type": "Point",
    "coordinates": [
     8.461992959030686e-08,
     4.886521053288765e-08
    ]
   },
   "properties": {
    "classname": "item_ammopack_full",
    "team": "0",
    "targetname": "",
    "hx": 0.494482,
    "hy": 0.285547,
    "hz": -355.0
   }
  },
  {
   "type": "Feature",
   "geometry": {
    "type": "Point",
    "coordinates": [
     0.00016711906451600736,
     7.392748286694472e-05
    ]
   },
   "properties": {
    "classname": "item_healthkit_medium",
    "team": "0",
    "targetname": "",
    "hx": 976.571,
    "hy": 432.0,
    "hz": -46.0
   }
  },
  {
   "type": "Feature",
   "geometry": {
    "type": "Point",
    "coordinates": [
     0.00015753587229250655,
     7.392748286694472e-05
    ]
   },
   "properties": {
    "classname": "item_ammopack_medium",
    "team": "0",
    "targetname": "",
    "hx": 920.571,
    "hy": 432.0,
    "hz": -46.0
   }
  },
  {
   "type": "Feature",
   "geometry": {
    "type": "Point",
    "coordinates": [
     0.0002407759933310633,
     -5.986226586621081e-05
    ]
   },
   "properties": {
    "classname": "item_ammopack_medium",
    "team": "0",
    "targetname": "",
    "hx": 1406.99,
    "hy": -349.809,
    "hz": -238.0
   }
  },
  {
   "type": "Feature",
   "geometry": {
    "type": "Point",
    "coordinates": [
     0.0002503591855545613,
     -5.9862608123075934e-05
    ]
   },
   "properties": {
    "classname": "item_healthkit_medium",
    "team": "0",
    "targetname": "",
    "hx": 1462.99,
    "hy": -349.811,
    "hz": -238.0
   }
  },
  {
   "type": "Feature",
   "geometry": {
    "type": "Point",
    "coordinates": [
     0.0005080067310516926,
     1.2321298483020556e-05
    ]
   },
   "properties": {
    "classname": "item_ammopack_medium",
    "team": "0",
    "targetname": "",
    "hx": 2968.57,
    "hy": 72.0003,
    "hz": 146.0
   }
  },
  {
   "type": "Feature",
   "geometry": {
    "type": "Point",
    "coordinates": [
     0.00043808878736187036,
     0.0001814936817226749
    ]
   },
   "properties": {
    "classname": "item_healthkit_medium",
    "team": "0",
    "targetname": "",
    "hx": 2560.0,
    "hy": 1060.57,
    "hz": -16.0
   }
  },
  {
   "type": "Feature",
   "geometry": {
    "type": "Point",
    "coordinates": [
     -6.564418221803826e-05,
     0.00029030227299880795
    ]
   },
   "properties": {
    "classname": "item_ammopack_medium",
    "team": "0",
    "targetname": "",
    "hx": -383.596,
    "hy": 1696.4,
    "hz": -208.0
   }
  },
  {
   "type": "Feature",
   "geometry": {
    "type": "Point",
    "coordinates": [
     -7.53562341513116e-05,
     0.00028058902316656776
    ]
   },
   "properties": {
    "classname": "item_healthkit_full",
    "team": "0",
    "targetname": "",
    "hx": -440.349,
    "hy": 1639.64,
    "hz": -208.0
   }
  },
  {
   "type": "Feature",
   "geometry": {
    "type": "Point",
    "coordinates": [
     0.00021904439368159955,
     0.00022989907015726752
    ]
   },
   "properties": {
    "classname": "item_ammopack_medium",
    "team": "0",
    "targetname": "",
    "hx": 1280.0,
    "hy": 1343.43,
    "hz": -236.0
   }
  },
  {
   "type": "Feature",
   "geometry": {
    "type": "Point",
    "coordinates": [
     0.00032719756305925996,
     -9.583192223492835e-06
    ]
   },
   "properties": {
    "classname": "item_healthkit_medium",
    "team": "0",
    "targetname": "",
    "hx": 1912.0,
    "hy": -56.0,
    "hz": 82.0
   }
  },
  {
   "type": "Feature",
   "geometry": {
    "type": "Point",
    "coordinates": [
     0.00046273128164867994,
     1.916638444698567e-05
    ]
   },
   "properties": {
    "classname": "item_ammopack_full",
    "team": "0",
    "targetname": "",
    "hx": 2704.0,
    "hy": 112.0,
    "hz": 85.868
   }
  },
  {
   "type": "Feature",
   "geometry": {
    "type": "Point",
    "coordinates": [
     0.0004353507324440771,
     -0.0002854439367983622
    ]
   },
   "properties": {
    "classname": "info_player_teamspawn",
    "team": "3",
    "targetname": "",
    "hx": 2544.0,
    "hy": -1668.01,
    "hz": 272.005
   }
  },
  {
   "type": "Feature",
   "geometry": {
    "type": "Point",
    "coordinates": [
     0.0004326109662391394,
     -0.000296396156482354
    ]
   },
   "properties": {
    "classname": "info_player_teamspawn",
    "team": "3",
    "targetname": "",
    "hx": 2527.99,
    "hy": -1732.01,
    "hz": 272.005
   }
  },
  {
   "type": "Feature",
   "geometry": {
    "type": "Point",
    "coordinates": [
     0.0004161843479968536,
     -0.0002854439367983622
    ]
   },
   "properties": {
    "classname": "info_player_teamspawn",
    "team": "3",
    "targetname": "",
    "hx": 2432.0,
    "hy": -1668.01,
    "hz": 272.005
   }
  },
  {
   "type": "Feature",
   "geometry": {
    "type": "Point",
    "coordinates": [
     0.0003970179635499421,
     -0.0002943409040072799
    ]
   },
   "properties": {
    "classname": "info_player_teamspawn",
    "team": "3",
    "targetname": "",
    "hx": 2320.0,
    "hy": -1720.0,
    "hz": 272.0
   }
  },
  {
   "type": "Feature",
   "geometry": {
    "type": "Point",
    "coordinates": [
     0.0004435648972076308,
     -0.00029707895892827787
    ]
   },
   "properties": {
    "classname": "info_player_teamspawn",
    "team": "3",
    "targetname": "",
    "hx": 2592.0,
    "hy": -1736.0,
    "hz": 272.0
   }
  },
  {
   "type": "Feature",
   "geometry": {
    "type": "Point",
    "coordinates": [
     0.0004545171168921124,
     -0.00030529312369127174
    ]
   },
   "properties": {
    "classname": "info_player_teamspawn",
    "team": "3",
    "targetname": "",
    "hx": 2656.0,
    "hy": -1784.0,
    "hz": 272.0
   }
  },
  {
   "type": "Feature",
   "geometry": {
    "type": "Point",
    "coordinates": [
     0.0004545171168916578,
     -0.0002943409040072799
    ]
   },
   "properties": {
    "classname": "info_player_teamspawn",
    "team": "3",
    "targetname": "",
    "hx": 2656.0,
    "hy": -1720.0,
    "hz": 272.0
   }
  },
  {
   "type": "Feature",
   "geometry": {
    "type": "Point",
    "coordinates": [
     0.0004463029521282314,
     -0.0002861267392442861
    ]
   },
   "properties": {
    "classname": "info_player_teamspawn",
    "team": "3",
    "targetname": "",
    "hx": 2608.0,
    "hy": -1672.0,
    "hz": 272.0
   }
  },
  {
   "type": "Feature",
   "geometry": {
    "type": "Point",
    "coordinates": [
     0.00043261096623954746,
     -0.0003066638624360964
    ]
   },
   "properties": {
    "classname": "info_player_teamspawn",
    "team": "3",
    "targetname": "",
    "hx": 2527.99,
    "hy": -1792.01,
    "hz": 272.005
   }
  },
  {
   "type": "Feature",
   "geometry": {
    "type": "Point",
    "coordinates": [
     0.0004435648972080501,
     -0.0003073466648820202
    ]
   },
   "properties": {
    "classname": "info_player_teamspawn",
    "team": "3",
    "targetname": "",
    "hx": 2592.0,
    "hy": -1796.0,
    "hz": 272.0
   }
  },
  {
   "type": "Feature",
   "geometry": {
    "type": "Point",
    "coordinates": [
     0.00040797018323417904,
     -0.00029707895892827787
    ]
   },
   "properties": {
    "classname": "info_player_teamspawn",
    "team": "3",
    "targetname": "",
    "hx": 2384.0,
    "hy": -1736.0,
    "hz": 272.0
   }
  },
  {
   "type": "Feature",
   "geometry": {
    "type": "Point",
    "coordinates": [
     0.0003970179635503392,
     -0.00030529312369127174
    ]
   },
   "properties": {
    "classname": "info_player_teamspawn",
    "team": "3",
    "targetname": "",
    "hx": 2320.0,
    "hy": -1784.0,
    "hz": 272.0
   }
  },
  {
   "type": "Feature",
   "geometry": {
    "type": "Point",
    "coordinates": [
     0.00040523212831275,
     -0.0002861267392442861
    ]
   },
   "properties": {
    "classname": "info_player_teamspawn",
    "team": "3",
    "targetname": "",
    "hx": 2368.0,
    "hy": -1672.0,
    "hz": 272.0
   }
  },
  {
   "type": "Feature",
   "geometry": {
    "type": "Point",
    "coordinates": [
     0.00041892240291868725,
     -0.0003066638624360964
    ]
   },
   "properties": {
    "classname": "info_player_teamspawn",
    "team": "3",
    "targetname": "",
    "hx": 2448.0,
    "hy": -1792.01,
    "hz": 272.005
   }
  },
  {
   "type": "Feature",
   "geometry": {
    "type": "Point",
    "coordinates": [
     0.00040797018323456463,
     -0.0003073466648820202
    ]
   },
   "properties": {
    "classname": "info_player_teamspawn",
    "team": "3",
    "targetname": "",
    "hx": 2384.0,
    "hy": -1796.0,
    "hz": 272.0
   }
  },
  {
   "type": "Feature",
   "geometry": {
    "type": "Point",
    "coordinates": [
     0.0004189224029182921,
     -0.000296396156482354
    ]
   },
   "properties": {
    "classname": "info_player_teamspawn",
    "team": "3",
    "targetname": "",
    "hx": 2448.0,
    "hy": -1732.01,
    "hz": 272.005
   }
  },
  {
   "type": "Feature",
   "geometry": {
    "type": "Point",
    "coordinates": [
     -0.00015753587229250655,
     -7.392748286694472e-05
    ]
   },
   "properties": {
    "classname": "item_ammopack_medium",
    "team": "0",
    "targetname": "",
    "hx": -920.571,
    "hy": -432.0,
    "hz": -46.0
   }
  },
  {
   "type": "Feature",
   "geometry": {
    "type": "Point",
    "coordinates": [
     -0.0004353507324440771,
     0.0002854439367983622
    ]
   },
   "properties": {
    "classname": "info_player_teamspawn",
    "team": "2",
    "targetname": "",
    "hx": -2544.0,
    "hy": 1668.01,
    "hz": 272.005
   }
  },
  {
   "type": "Feature",
   "geometry": {
    "type": "Point",
    "coordinates": [
     -0.0004463029521282314,
     0.0002861267392442861
    ]
   },
   "properties": {
    "classname": "info_player_teamspawn",
    "team": "2",
    "targetname": "",
    "hx": -2608.0,
    "hy": 1672.0,
    "hz": 272.0
   }
  },
  {
   "type": "Feature",
   "geometry": {
    "type": "Point",
    "coordinates": [
     -0.0004545171168916578,
     0.0002943409040072799
    ]
   },
   "properties": {
    "classname": "info_player_teamspawn",
    "team": "2",
    "targetname": "",
    "hx": -2656.0,
    "hy": 1720.0,
    "hz": 272.0
   }
  },
  {
   "type": "Feature",
   "geometry": {
    "type": "Point",
    "coordinates": [
     -0.0004545171168921124,
     0.00030529312369127174
    ]
   },
   "properties": {
    "classname": "info_player_teamspawn",
    "team": "2",
    "targetname": "",
    "hx": -2656.0,
    "hy": 1784.0,
    "hz": 272.0
   }
  },
  {
   "type": "Feature",
   "geometry": {
    "type": "Point",
    "coordinates": [
     -0.0004435648972080501,
     0.0003073466648820202
    ]
   },
   "properties": {
    "classname": "info_player_teamspawn",
    "team": "2",
    "targetname": "",
    "hx": -2592.0,
    "hy": 1796.0,
    "hz": 272.0
   }
  },
  {
   "type": "Feature",
   "geometry": {
    "type": "Point",
    "coordinates": [
     -0.0004435648972076308,
     0.00029707895892827787
    ]
   },
   "properties": {
    "classname": "info_player_teamspawn",
    "team": "2",
    "targetname": "",
    "hx": -2592.0,
    "hy": 1736.0,
    "hz": 272.0
   }
  },
  {
   "type": "Feature",
   "geometry": {
    "type": "Point",
    "coordinates": [
     -0.00043261096623954746,
     0.0003066638624360964
    ]
   },
   "properties": {
    "classname": "info_player_teamspawn",
    "team": "2",
    "targetname": "",
    "hx": -2527.99,
    "hy": 1792.01,
    "hz": 272.005
   }
  },
  {
   "type": "Feature",
   "geometry": {
    "type": "Point",
    "coordinates": [
     -0.0004326109662391394,
     0.000296396156482354
    ]
   },
   "properties": {
    "classname": "info_player_teamspawn",
    "team": "2",
    "targetname": "",
    "hx": -2527.99,
    "hy": 1732.01,
    "hz": 272.005
   }
  },
  {
   "type": "Feature",
   "geometry": {
    "type": "Point",
    "coordinates": [
     -0.00041892240291868725,
     0.0003066638624360964
    ]
   },
   "properties": {
    "classname": "info_player_teamspawn",
    "team": "2",
    "targetname": "",
    "hx": -2448.0,
    "hy": 1792.01,
    "hz": 272.005
   }
  },
  {
   "type": "Feature",
   "geometry": {
    "type": "Point",
    "coordinates": [
     -0.00040797018323456463,
     0.0003073466648820202
    ]
   },
   "properties": {
    "classname": "info_player_teamspawn",
    "team": "2",
    "targetname": "",
    "hx": -2384.0,
    "hy": 1796.0,
    "hz": 272.0
   }
  },
  {
   "type": "Feature",
   "geometry": {
    "type": "Point",
    "coordinates": [
     -0.0003970179635503392,
     0.00030529312369127174
    ]
   },
   "properties": {
    "classname": "info_player_teamspawn",
    "team": "2",
    "targetname": "",
    "hx": -2320.0,
    "hy": 1784.0,
    "hz": 272.0
   }
  },
  {
   "type": "Feature",
   "geometry": {
    "type": "Point",
    "coordinates": [
     -0.0004189224029182921,
     0.000296396156482354
    ]
   },
   "properties": {
    "classname": "info_player_teamspawn",
    "team": "2",
    "targetname": "",
    "hx": -2448.0,
    "hy": 1732.01,
    "hz": 272.005
   }
  },
  {
   "type": "Feature",
   "geometry": {
    "type": "Point",
    "coordinates": [
     -0.00040797018323417904,
     0.00029707895892827787
    ]
   },
   "properties": {
    "classname": "info_player_teamspawn",
    "team": "2",
    "targetname": "",
    "hx": -2384.0,
    "hy": 1736.0,
    "hz": 272.0
   }
  },
  {
   "type": "Feature",
   "geometry": {
    "type": "Point",
    "coordinates": [
     -0.0003970179635499421,
     0.0002943409040072799
    ]
   },
   "properties": {
    "classname": "info_player_teamspawn",
    "team": "2",
    "targetname": "",
    "hx": -2320.0,
    "hy": 1720.0,
    "hz": 272.0
   }
  },
  {
   "type": "Feature",
   "geometry": {
    "type": "Point",
    "coordinates": [
     -0.0004161843479968536,
     0.0002854439367983622
    ]
   },
   "properties": {
    "classname": "info_player_teamspawn",
    "team": "2",
    "targetname": "",
    "hx": -2432.0,
    "hy": 1668.01,
    "hz": 272.005
   }
  },
  {
   "type": "Feature",
   "geometry": {
    "type": "Point",
    "coordinates": [
     -0.00040523212831275,
     0.0002861267392442861
    ]
   },
   "properties": {
    "classname": "info_player_teamspawn",
    "team": "2",
    "targetname": "",
    "hx": -2368.0,
    "hy": 1672.0,
    "hz": 272.0
   }
  },
  {
   "type": "Feature",
   "geometry": {
    "type": "Point",
    "coordinates": [
     -0.0004380887873618846,
     -0.00018208065224636387
    ]
   },
   "properties": {
    "classname": "item_healthkit_medium",
    "team": "0",
    "targetname": "",
    "hx": -2560.0,
    "hy": -1064.0,
    "hz": -16.0
   }
  },
  {
   "type": "Feature",
   "geometry": {
    "type": "Point",
    "coordinates": [
     -0.0003272951062658205,
     9.583192223492835e-06
    ]
   },
   "properties": {
    "classname": "item_healthkit_medium",
    "team": "0",
    "targetname": "",
    "hx": -1912.57,
    "hy": 56.0,
    "hz": 82.0
   }
  },
  {
   "type": "Feature",
   "geometry": {
    "type": "Point",
    "coordinates": [
     -0.0004628373812768686,
     -1.9154405456706305e-05
    ]
   },
   "properties": {
    "classname": "item_ammopack_full",
    "team": "0",
    "targetname": "",
    "hx": -2704.62,
    "hy": -111.93,
    "hz": 85.868
   }
  },
  {
   "type": "Feature",
   "geometry": {
    "type": "Point",
    "coordinates": [
     -0.0002503591855545613,
     5.9862608123075934e-05
    ]
   },
   "properties": {
    "classname": "item_healthkit_medium",
    "team": "0",
    "targetname": "",
    "hx": -1462.99,
    "hy": 349.811,
    "hz": -238.0
   }
  },
  {
   "type": "Feature",
   "geometry": {
    "type": "Point",
    "coordinates": [
     -0.0005080067310516926,
     -1.2321349821550328e-05
    ]
   },
   "properties": {
    "classname": "item_ammopack_medium",
    "team": "0",
    "targetname": "",
    "hx": -2968.57,
    "hy": -72.0006,
    "hz": 146.0
   }
  },
  {
   "type": "Feature",
   "geometry": {
    "type": "Point",
    "coordinates": [
     -0.0004696739621673393,
     -0.00036689935941372574
    ]
   },
   "properties": {
    "classname": "item_ammopack_medium",
    "team": "0",
    "targetname": "",
    "hx": -2744.57,
    "hy": -2144.0,
    "hz": 52.0
   }
  },
  {
   "type": "Feature",
   "geometry": {
    "type": "Point",
    "coordinates": [
     -0.0002407759933310633,
     5.986226586621081e-05
    ]
   },
   "properties": {
    "classname": "item_ammopack_medium",
    "team": "0",
    "targetname": "",
    "hx": -1406.99,
    "hy": 349.809,
    "hz": -238.0
   }
  },
  {
   "type": "Feature",
   "geometry": {
    "type": "Point",
    "coordinates": [
     6.564418221803826e-05,
     -0.00029030227299880795
    ]
   },
   "properties": {
    "classname": "item_ammopack_medium",
    "team": "0",
    "targetname": "",
    "hx": 383.596,
    "hy": -1696.4,
    "hz": -208.0
   }
  },
  {
   "type": "Feature",
   "geometry": {
    "type": "Point",
    "coordinates": [
     -0.00021904439368159955,
     -0.00022989907015726752
    ]
   },
   "properties": {
    "classname": "item_ammopack_medium",
    "team": "0",
    "targetname": "",
    "hx": -1280.0,
    "hy": -1343.43,
    "hz": -236.0
   }
  },
  {
   "type": "Feature",
   "geometry": {
    "type": "Point",
    "coordinates": [
     -0.00016711906451600736,
     -7.392748286694472e-05
    ]
   },
   "properties": {
    "classname": "item_healthkit_medium",
    "team": "0",
    "targetname": "",
    "hx": -976.571,
    "hy": -432.0,
    "hz": -46.0
   }
  }
 ]
}
