{
 "type": "FeatureCollection",
 "note": "pseudo-WGS84 via crs.local_to_wgs84 ((0,0)m maps to (0,0)deg); viewing only, not survey",
 "features": [
  {
   "type": "Feature",
   "geometry": {
    "type": "Point",
    "coordinates": [
     0.0,
     0.0
    ]
   },
   "properties": {
    "classname": "team_control_point",
    "team": "",
    "targetname": "control_point_1",
    "hx": 0.0,
    "hy": 0.0,
    "hz": 300.0
   }
  },
  {
   "type": "Feature",
   "geometry": {
    "type": "Point",
    "coordinates": [
     0.00012047441652908728,
     0.0005311826546736028
    ]
   },
   "properties": {
    "classname": "info_player_teamspawn",
    "team": "2",
    "targetname": "spawn_red",
    "hx": 704.0,
    "hy": 3104.0,
    "hz": 272.0
   }
  },
  {
   "type": "Feature",
   "geometry": {
    "type": "Point",
    "coordinates": [
     0.00012047441652887599,
     0.0005202304349896111
    ]
   },
   "properties": {
    "classname": "info_player_teamspawn",
    "team": "2",
    "targetname": "spawn_red",
    "hx": 704.0,
    "hy": 3040.0,
    "hz": 272.0
   }
  },
  {
   "type": "Feature",
   "geometry": {
    "type": "Point",
    "coordinates": [
     0.00012047441652866909,
     0.0005092782153056193
    ]
   },
   "properties": {
    "classname": "info_player_teamspawn",
    "team": "2",
    "targetname": "spawn_red",
    "hx": 704.0,
    "hy": 2976.0,
    "hz": 272.0
   }
  },
  {
   "type": "Feature",
   "geometry": {
    "type": "Point",
    "coordinates": [
     0.0001204744165284666,
     0.0004983259956216274
    ]
   },
   "properties": {
    "classname": "info_player_teamspawn",
    "team": "2",
    "targetname": "spawn_red",
    "hx": 704.0,
    "hy": 2912.0,
    "hz": 272.0
   }
  },
  {
   "type": "Feature",
   "geometry": {
    "type": "Point",
    "coordinates": [
     9.856997715982017e-05,
     0.0005092782153056193
    ]
   },
   "properties": {
    "classname": "info_player_teamspawn",
    "team": "2",
    "targetname": "spawn_red",
    "hx": 576.0,
    "hy": 2976.0,
    "hz": 272.0
   }
  },
  {
   "type": "Feature",
   "geometry": {
    "type": "Point",
    "coordinates": [
     9.856997715998945e-05,
     0.0005202304349896111
    ]
   },
   "properties": {
    "classname": "info_player_teamspawn",
    "team": "2",
    "targetname": "spawn_red",
    "hx": 576.0,
    "hy": 3040.0,
    "hz": 272.0
   }
  },
  {
   "type": "Feature",
   "geometry": {
    "type": "Point",
    "coordinates": [
     9.856997716016233e-05,
     0.0005311826546736028
    ]
   },
   "properties": {
    "classname": "info_player_teamspawn",
    "team": "2",
    "targetname": "spawn_red",
    "hx": 576.0,
    "hy": 3104.0,
    "hz": 272.0
   }
  },
  {
   "type": "Feature",
   "geometry": {
    "type": "Point",
    "coordinates": [
     7.66655377911029e-05,
     0.0005202304349896111
    ]
   },
   "properties": {
    "classname": "info_player_teamspawn",
    "team": "2",
    "targetname": "spawn_red",
    "hx": 448.0,
    "hy": 3040.0,
    "hz": 272.0
   }
  },
  {
   "type": "Feature",
   "geometry": {
    "type": "Point",
    "coordinates": [
     0.00010952219684406053,
     0.0004983259956216274
    ]
   },
   "properties": {
    "classname": "info_player_teamspawn",
    "team": "2",
    "targetname": "spawn_red",
    "hx": 640.0,
    "hy": 2912.0,
    "hz": 272.0
   }
  },
  {
   "type": "Feature",
   "geometry": {
    "type": "Point",
    "coordinates": [
     0.00010952219684424461,
     0.0005092782153056193
    ]
   },
   "properties": {
    "classname": "info_player_teamspawn",
    "team": "2",
    "targetname": "spawn_red",
    "hx": 640.0,
    "hy": 2976.0,
    "hz": 272.0
   }
  },
  {
   "type": "Feature",
   "geometry": {
    "type": "Point",
    "coordinates": [
     0.00010952219684443271,
     0.0005202304349896111
    ]
   },
   "properties": {
    "classname": "info_player_teamspawn",
    "team": "2",
    "targetname": "spawn_red",
    "hx": 640.0,
    "hy": 3040.0,
    "hz": 272.0
   }
  },
  {
   "type": "Feature",
   "geometry": {
    "type": "Point",
    "coordinates": [
     0.00010952219684462479,
     0.0005311826546736028
    ]
   },
   "properties": {
    "classname": "info_player_teamspawn",
    "team": "2",
    "targetname": "spawn_red",
    "hx": 640.0,
    "hy": 3104.0,
    "hz": 272.0
   }
  },
  {
   "type": "Feature",
   "geometry": {
    "type": "Point",
    "coordinates": [
     7.666553779123735e-05,
     0.0005311826546736028
    ]
   },
   "properties": {
    "classname": "info_player_teamspawn",
    "team": "2",
    "targetname": "spawn_red",
    "hx": 448.0,
    "hy": 3104.0,
    "hz": 272.0
   }
  },
  {
   "type": "Feature",
   "geometry": {
    "type": "Point",
    "coordinates": [
     8.761775747539569e-05,
     0.0005092782153056193
    ]
   },
   "properties": {
    "classname": "info_player_teamspawn",
    "team": "2",
    "targetname": "spawn_red",
    "hx": 512.0,
    "hy": 2976.0,
    "hz": 272.0
   }
  },
  {
   "type": "Feature",
   "geometry": {
    "type": "Point",
    "coordinates": [
     8.761775747554618e-05,
     0.0005202304349896111
    ]
   },
   "properties": {
    "classname": "info_player_teamspawn",
    "team": "2",
    "targetname": "spawn_red",
    "hx": 512.0,
    "hy": 3040.0,
    "hz": 272.0
   }
  },
  {
   "type": "Feature",
   "geometry": {
    "type": "Point",
    "coordinates": [
     8.761775747569984e-05,
     0.0005311826546736028
    ]
   },
   "properties": {
    "classname": "info_player_teamspawn",
    "team": "2",
    "targetname": "spawn_red",
    "hx": 512.0,
    "hy": 3104.0,
    "hz": 272.0
   }
  },
  {
   "type": "Feature",
   "geometry": {
    "type": "Point",
    "coordinates": [
     -0.00012047441652908728,
     -0.0005311826546736028
    ]
   },
   "properties": {
    "classname": "info_player_teamspawn",
    "team": "3",
    "targetname": "spawn_blue",
    "hx": -704.0,
    "hy": -3104.0,
    "hz": 272.0
   }
  },
  {
   "type": "Feature",
   "geometry": {
    "type": "Point",
    "coordinates": [
     -0.00012047441652887599,
     -0.0005202304349896111
    ]
   },
   "properties": {
    "classname": "info_player_teamspawn",
    "team": "3",
    "targetname": "spawn_blue",
    "hx": -704.0,
    "hy": -3040.0,
    "hz": 272.0
   }
  },
  {
   "type": "Feature",
   "geometry": {
    "type": "Point",
    "coordinates": [
     -0.00012047441652866909,
     -0.0005092782153056193
    ]
   },
   "properties": {
    "classname": "info_player_teamspawn",
    "team": "3",
    "targetname": "spawn_blue",
    "hx": -704.0,
    "hy": -2976.0,
    "hz": 272.0
   }
  },
  {
   "type": "Feature",
   "geometry": {
    "type": "Point",
    "coordinates": [
     -0.0001204744165284666,
     -0.0004983259956216274
    ]
   },
   "properties": {
    "classname": "info_player_teamspawn",
    "team": "3",
    "targetname": "spawn_blue",
    "hx": -704.0,
    "hy": -2912.0,
    "hz": 272.0
   }
  },
  {
   "type": "Feature",
   "geometry": {
    "type": "Point",
    "coordinates": [
     -9.856997715982017e-05,
     -0.0005092782153056193
    ]
   },
   "properties": {
    "classname": "info_player_teamspawn",
    "team": "3",
    "targetname": "spawn_blue",
    "hx": -576.0,
    "hy": -2976.0,
    "hz": 272.0
   }
  },
  {
   "type": "Feature",
   "geometry": {
    "type": "Point",
    "coordinates": [
     -9.856997715998945e-05,
     -0.0005202304349896111
    ]
   },
   "properties": {
    "classname": "info_player_teamspawn",
    "team": "3",
    "targetname": "spawn_blue",
    "hx": -576.0,
    "hy": -3040.0,
    "hz": 272.0
   }
  },
  {
   "type": "Feature",
   "geometry": {
    "type": "Point",
    "coordinates": [
     -9.856997716016233e-05,
     -0.0005311826546736028
    ]
   },
   "properties": {
    "classname": "info_player_teamspawn",
    "team": "3",
    "targetname": "spawn_blue",
    "hx": -576.0,
    "hy": -3104.0,
    "hz": 272.0
   }
  },
  {
   "type": "Feature",
   "geometry": {
    "type": "Point",
    "coordinates": [
     -7.66655377911029e-05,
     -0.0005202304349896111
    ]
   },
   "properties": {
    "classname": "info_player_teamspawn",
    "team": "3",
    "targetname": "spawn_blue",
    "hx": -448.0,
    "hy": -3040.0,
    "hz": 272.0
   }
  },
  {
   "type": "Feature",
   "geometry": {
    "type": "Point",
    "coordinates": [
     -0.00010952219684406053,
     -0.0004983259956216274
    ]
   },
   "properties": {
    "classname": "info_player_teamspawn",
    "team": "3",
    "targetname": "spawn_blue",
    "hx": -640.0,
    "hy": -2912.0,
    "hz": 272.0
   }
  },
  {
   "type": "Feature",
   "geometry": {
    "type": "Point",
    "coordinates": [
     -0.00010952219684424461,
     -0.0005092782153056193
    ]
   },
   "properties": {
    "classname": "info_player_teamspawn",
    "team": "3",
    "targetname": "spawn_blue",
    "hx": -640.0,
    "hy": -2976.0,
    "hz": 272.0
   }
  },
  {
   "type": "Feature",
   "geometry": {
    "type": "Point",
    "coordinates": [
     -0.00010952219684443271,
     -0.0005202304349896111
    ]
   },
   "properties": {
    "classname": "info_player_teamspawn",
    "team": "3",
    "targetname": "spawn_blue",
    "hx": -640.0,
    "hy": -3040.0,
    "hz": 272.0
   }
  },
  {
   "type": "Feature",
   "geometry": {
    "type": "Point",
    "coordinates": [
     -0.00010952219684462479,
     -0.0005311826546736028
    ]
   },
   "properties": {
    "classname": "info_player_teamspawn",
    "team": "3",
    "targetname": "spawn_blue",
    "hx": -640.0,
    "hy": -3104.0,
    "hz": 272.0
   }
  },
  {
   "type": "Feature",
   "geometry": {
    "type": "Point",
    "coordinates": [
     -7.666553779123735e-05,
     -0.0005311826546736028
    ]
   },
   "properties": {
    "classname": "info_player_teamspawn",
    "team": "3",
    "targetname": "spawn_blue",
    "hx": -448.0,
    "hy": -3104.0,
    "hz": 272.0
   }
  },
  {
   "type": "Feature",
   "geometry": {
    "type": "Point",
    "coordinates": [
     -8.761775747539569e-05,
     -0.0005092782153056193
    ]
   },
   "properties": {
    "classname": "info_player_teamspawn",
    "team": "3",
    "targetname": "spawn_blue",
    "hx": -512.0,
    "hy": -2976.0,
    "hz": 272.0
   }
  },
  {
   "type": "Feature",
   "geometry": {
    "type": "Point",
    "coordinates": [
     -8.761775747554618e-05,
     -0.0005202304349896111
    ]
   },
   "properties": {
    "classname": "info_player_teamspawn",
    "team": "3",
    "targetname": "spawn_blue",
    "hx": -512.0,
    "hy": -3040.0,
    "hz": 272.0
   }
  },
  {
   "type": "Feature",
   "geometry": {
    "type": "Point",
    "coordinates": [
     -8.761775747569984e-05,
     -0.0005311826546736028
    ]
   },
   "properties": {
    "classname": "info_player_teamspawn",
    "team": "3",
    "targetname": "spawn_blue",
    "hx": -512.0,
    "hy": -3104.0,
    "hz": 272.0
   }
  },
  {
   "type": "Feature",
   "geometry": {
    "type": "Point",
    "coordinates": [
     0.00010130803207736893,
     0.0001697594051018731
    ]
   },
   "properties": {
    "classname": "item_ammopack_medium",
    "team": "",
    "targetname": "",
    "hx": 592.0,
    "hy": 992.0,
    "hz": 288.256
   }
  },
  {
   "type": "Feature",
   "geometry": {
    "type": "Point",
    "coordinates": [
     4.928498857843948e-05,
     0.0002519010527318117
    ]
   },
   "properties": {
    "classname": "item_ammopack_medium",
    "team": "",
    "targetname": "",
    "hx": 288.0,
    "hy": 1472.0,
    "hz": 192.261
   }
  },
  {
   "type": "Feature",
   "geometry": {
    "type": "Point",
    "coordinates": [
     -0.00010130803207736893,
     -0.0001697594051018731
    ]
   },
   "properties": {
    "classname": "item_ammopack_medium",
    "team": "",
    "targetname": "",
    "hx": -592.0,
    "hy": -992.0,
    "hz": 288.256
   }
  },
  {
   "type": "Feature",
   "geometry": {
    "type": "Point",
    "coordinates": [
     -4.928498857843948e-05,
     -0.0002519010527318117
    ]
   },
   "properties": {
    "classname": "item_ammopack_medium",
    "team": "",
    "targetname": "",
    "hx": -288.0,
    "hy": -1472.0,
    "hz": 192.261
   }
  },
  {
   "type": "Feature",
   "geometry": {
    "type": "Point",
    "coordinates": [
     0.00016428329525994853,
     -5.339207095946008e-05
    ]
   },
   "properties": {
    "classname": "item_ammopack_medium",
    "team": "",
    "targetname": "",
    "hx": 960.0,
    "hy": -312.0,
    "hz": 292.0
   }
  },
  {
   "type": "Feature",
   "geometry": {
    "type": "Point",
    "coordinates": [
     -0.00016428329525994853,
     5.339207095946008e-05
    ]
   },
   "properties": {
    "classname": "item_ammopack_medium",
    "team": "",
    "targetname": "",
    "hx": -960.0,
    "hy": 312.0,
    "hz": 292.0
   }
  },
  {
   "type": "Feature",
   "geometry": {
    "type": "Point",
    "coordinates": [
     -9.035581239332904e-05,
     -0.0001697594051018731
    ]
   },
   "properties": {
    "classname": "item_healthkit_medium",
    "team": "",
    "targetname": "",
    "hx": -528.0,
    "hy": -992.0,
    "hz": 288.236
   }
  },
  {
   "type": "Feature",
   "geometry": {
    "type": "Point",
    "coordinates": [
     9.035581239332904e-05,
     0.0001697594051018731
    ]
   },
   "properties": {
    "classname": "item_healthkit_medium",
    "team": "",
    "targetname": "",
    "hx": 528.0,
    "hy": 992.0,
    "hz": 288.236
   }
  },
  {
   "type": "Feature",
   "geometry": {
    "type": "Point",
    "coordinates": [
     0.00019166384447028042,
     0.00012047441652390994
    ]
   },
   "properties": {
    "classname": "item_ammopack_small",
    "team": "",
    "targetname": "",
    "hx": 1120.0,
    "hy": 704.0,
    "hz": 192.261
   }
  },
  {
   "type": "Feature",
   "geometry": {
    "type": "Point",
    "coordinates": [
     -0.00019166384447028042,
     -0.00012047441652390994
    ]
   },
   "properties": {
    "classname": "item_ammopack_small",
    "team": "",
    "targetname": "",
    "hx": -1120.0,
    "hy": -704.0,
    "hz": 192.261
   }
  },
  {
   "type": "Feature",
   "geometry": {
    "type": "Point",
    "coordinates": [
     0.0,
     0.0
    ]
   },
   "properties": {
    "classname": "item_healthkit_medium",
    "team": "",
    "targetname": "",
    "hx": 0.0,
    "hy": 0.0,
    "hz": -24.0
   }
  },
  {
   "type": "Feature",
   "geometry": {
    "type": "Point",
    "coordinates": [
     0.00021904439368264654,
     0.00029023382162578307
    ]
   },
   "properties": {
    "classname": "item_healthkit_small",
    "team": "",
    "targetname": "",
    "hx": 1280.0,
    "hy": 1696.0,
    "hz": 0.0
   }
  },
  {
   "type": "Feature",
   "geometry": {
    "type": "Point",
    "coordinates": [
     -0.00021904439368254148,
     -0.0002847577117837871
    ]
   },
   "properties": {
    "classname": "item_healthkit_small",
    "team": "",
    "targetname": "",
    "hx": -1280.0,
    "hy": -1664.0,
    "hz": 0.0
   }
  }
 ]
}
