{
 "type": "FeatureCollection",
 "note": "pseudo-WGS84 via crs.local_to_wgs84 ((0,0)m maps to (0,0)deg); viewing only, not survey",
 "features": [
  {
   "type": "Feature",
   "geometry": {
    "type": "Point",
    "coordinates": [
     -0.0006954659499335595,
     2.7383287264900525e-05
    ]
   },
   "properties": {
    "classname": "info_player_teamspawn",
    "team": "3",
    "targetname": "blu_spawn_primary",
    "hx": -4064.0,
    "hy": 160.016,
    "hz": -78.9954
   }
  },
  {
   "type": "Feature",
   "geometry": {
    "type": "Point",
    "coordinates": [
     -0.0007064181696175525,
     2.738054920997953e-05
    ]
   },
   "properties": {
    "classname": "info_player_teamspawn",
    "team": "3",
    "targetname": "blu_spawn_primary",
    "hx": -4128.0,
    "hy": 160.0,
    "hz": -78.9954
   }
  },
  {
   "type": "Feature",
   "geometry": {
    "type": "Point",
    "coordinates": [
     -0.0007064181696181978,
     8.214438568485958e-05
    ]
   },
   "properties": {
    "classname": "info_player_teamspawn",
    "team": "3",
    "targetname": "blu_spawn_primary",
    "hx": -4128.0,
    "hy": 480.016,
    "hz": -78.9954
   }
  },
  {
   "type": "Feature",
   "geometry": {
    "type": "Point",
    "coordinates": [
     -0.0006954659499341948,
     8.214438568485958e-05
    ]
   },
   "properties": {
    "classname": "info_player_teamspawn",
    "team": "3",
    "targetname": "blu_spawn_primary",
    "hx": -4064.0,
    "hy": 480.016,
    "hz": -78.9954
   }
  },
  {
   "type": "Feature",
   "geometry": {
    "type": "Point",
    "coordinates": [
     -0.0006845137302496414,
     3.833550694889234e-05
    ]
   },
   "properties": {
    "classname": "info_player_teamspawn",
    "team": "3",
    "targetname": "blu_spawn_primary",
    "hx": -4000.0,
    "hy": 224.016,
    "hz": -78.9954
   }
  },
  {
   "type": "Feature",
   "geometry": {
    "type": "Point",
    "coordinates": [
     -0.0006845137302497415,
     4.928772663288416e-05
    ]
   },
   "properties": {
    "classname": "info_player_teamspawn",
    "team": "3",
    "targetname": "blu_spawn_primary",
    "hx": -4000.0,
    "hy": 288.016,
    "hz": -78.9954
   }
  },
  {
   "type": "Feature",
   "geometry": {
    "type": "Point",
    "coordinates": [
     -0.0006845137302498665,
     6.0239946316875966e-05
    ]
   },
   "properties": {
    "classname": "info_player_teamspawn",
    "team": "3",
    "targetname": "blu_spawn_primary",
    "hx": -4000.0,
    "hy": 352.016,
    "hz": -78.9954
   }
  },
  {
   "type": "Feature",
   "geometry": {
    "type": "Point",
    "coordinates": [
     -0.0006845137302500166,
     7.119216600086777e-05
    ]
   },
   "properties": {
    "classname": "info_player_teamspawn",
    "team": "3",
    "targetname": "blu_spawn_primary",
    "hx": -4000.0,
    "hy": 416.016,
    "hz": -78.9954
   }
  },
  {
   "type": "Feature",
   "geometry": {
    "type": "Point",
    "coordinates": [
     -0.0006954659499336357,
     3.833550694889234e-05
    ]
   },
   "properties": {
    "classname": "info_player_teamspawn",
    "team": "3",
    "targetname": "blu_spawn_primary",
    "hx": -4064.0,
    "hy": 224.016,
    "hz": -78.9954
   }
  },
  {
   "type": "Feature",
   "geometry": {
    "type": "Point",
    "coordinates": [
     -0.0006954659499337374,
     4.928772663288416e-05
    ]
   },
   "properties": {
    "classname": "info_player_teamspawn",
    "team": "3",
    "targetname": "blu_spawn_primary",
    "hx": -4064.0,
    "hy": 288.016,
    "hz": -78.9954
   }
  },
  {
   "type": "Feature",
   "geometry": {
    "type": "Point",
    "coordinates": [
     -0.0006954659499338645,
     6.0239946316875966e-05
    ]
   },
   "properties": {
    "classname": "info_player_teamspawn",
    "team": "3",
    "targetname": "blu_spawn_primary",
    "hx": -4064.0,
    "hy": 352.016,
    "hz": -78.9954
   }
  },
  {
   "type": "Feature",
   "geometry": {
    "type": "Point",
    "coordinates": [
     -0.0006954659499340169,
     7.119216600086777e-05
    ]
   },
   "properties": {
    "classname": "info_player_teamspawn",
    "team": "3",
    "targetname": "blu_spawn_primary",
    "hx": -4064.0,
    "hy": 416.016,
    "hz": -78.9954
   }
  },
  {
   "type": "Feature",
   "geometry": {
    "type": "Point",
    "coordinates": [
     -0.0007064181696180172,
     7.119216600086777e-05
    ]
   },
   "properties": {
    "classname": "info_player_teamspawn",
    "team": "3",
    "targetname": "blu_spawn_primary",
    "hx": -4128.0,
    "hy": 416.016,
    "hz": -78.9954
   }
  },
  {
   "type": "Feature",
   "geometry": {
    "type": "Point",
    "coordinates": [
     -0.0007064181696178623,
     6.0239946316875966e-05
    ]
   },
   "properties": {
    "classname": "info_player_teamspawn",
    "team": "3",
    "targetname": "blu_spawn_primary",
    "hx": -4128.0,
    "hy": 352.016,
    "hz": -78.9954
   }
  },
  {
   "type": "Feature",
   "geometry": {
    "type": "Point",
    "coordinates": [
     -0.0007064181696177333,
     4.928772663288416e-05
    ]
   },
   "properties": {
    "classname": "info_player_teamspawn",
    "team": "3",
    "targetname": "blu_spawn_primary",
    "hx": -4128.0,
    "hy": 288.016,
    "hz": -78.9954
   }
  },
  {
   "type": "Feature",
   "geometry": {
    "type": "Point",
    "coordinates": [
     -0.0007064181696176299,
     3.833550694889234e-05
    ]
   },
   "properties": {
    "classname": "info_player_teamspawn",
    "team": "3",
    "targetname": "blu_spawn_primary",
    "hx": -4128.0,
    "hy": 224.016,
    "hz": -78.9954
   }
  },
  {
   "type": "Feature",
   "geometry": {
    "type": "Point",
    "coordinates": [
     0.0007064181696176299,
     3.833276889397134e-05
    ]
   },
   "properties": {
    "classname": "info_player_teamspawn",
    "team": "2",
    "targetname": "red_spawn_primary",
    "hx": 4128.0,
    "hy": 224.0,
    "hz": -78.9954
   }
  },
  {
   "type": "Feature",
   "geometry": {
    "type": "Point",
    "coordinates": [
     0.0007064181696177333,
     4.928498857796316e-05
    ]
   },
   "properties": {
    "classname": "info_player_teamspawn",
    "team": "2",
    "targetname": "red_spawn_primary",
    "hx": 4128.0,
    "hy": 288.0,
    "hz": -78.9954
   }
  },
  {
   "type": "Feature",
   "geometry": {
    "type": "Point",
    "coordinates": [
     0.0007064181696178623,
     6.023720826195497e-05
    ]
   },
   "properties": {
    "classname": "info_player_teamspawn",
    "team": "2",
    "targetname": "red_spawn_primary",
    "hx": 4128.0,
    "hy": 352.0,
    "hz": -78.9954
   }
  },
  {
   "type": "Feature",
   "geometry": {
    "type": "Point",
    "coordinates": [
     0.0007064181696180172,
     7.118942794594677e-05
    ]
   },
   "properties": {
    "classname": "info_player_teamspawn",
    "team": "2",
    "targetname": "red_spawn_primary",
    "hx": 4128.0,
    "hy": 416.0,
    "hz": -78.9954
   }
  },
  {
   "type": "Feature",
   "geometry": {
    "type": "Point",
    "coordinates": [
     0.0006954659499340169,
     7.118942794594677e-05
    ]
   },
   "properties": {
    "classname": "info_player_teamspawn",
    "team": "2",
    "targetname": "red_spawn_primary",
    "hx": 4064.0,
    "hy": 416.0,
    "hz": -78.9954
   }
  },
  {
   "type": "Feature",
   "geometry": {
    "type": "Point",
    "coordinates": [
     0.0006954659499338645,
     6.023720826195497e-05
    ]
   },
   "properties": {
    "classname": "info_player_teamspawn",
    "team": "2",
    "targetname": "red_spawn_primary",
    "hx": 4064.0,
    "hy": 352.0,
    "hz": -78.9954
   }
  },
  {
   "type": "Feature",
   "geometry": {
    "type": "Point",
    "coordinates": [
     0.0006954659499337374,
     4.928498857796316e-05
    ]
   },
   "properties": {
    "classname": "info_player_teamspawn",
    "team": "2",
    "targetname": "red_spawn_primary",
    "hx": 4064.0,
    "hy": 288.0,
    "hz": -78.9954
   }
  },
  {
   "type": "Feature",
   "geometry": {
    "type": "Point",
    "coordinates": [
     0.0006954659499336357,
     3.833276889397134e-05
    ]
   },
   "properties": {
    "classname": "info_player_teamspawn",
    "team": "2",
    "targetname": "red_spawn_primary",
    "hx": 4064.0,
    "hy": 224.0,
    "hz": -78.9954
   }
  },
  {
   "type": "Feature",
   "geometry": {
    "type": "Point",
    "coordinates": [
     0.0006845137302500166,
     7.118942794594677e-05
    ]
   },
   "properties": {
    "classname": "info_player_teamspawn",
    "team": "2",
    "targetname": "red_spawn_primary",
    "hx": 4000.0,
    "hy": 416.0,
    "hz": -78.9954
   }
  },
  {
   "type": "Feature",
   "geometry": {
    "type": "Point",
    "coordinates": [
     0.0006845137302498665,
     6.023720826195497e-05
    ]
   },
   "properties": {
    "classname": "info_player_teamspawn",
    "team": "2",
    "targetname": "red_spawn_primary",
    "hx": 4000.0,
    "hy": 352.0,
    "hz": -78.9954
   }
  },
  {
   "type": "Feature",
   "geometry": {
    "type": "Point",
    "coordinates": [
     0.0006845137302497415,
     4.928498857796316e-05
    ]
   },
   "properties": {
    "classname": "info_player_teamspawn",
    "team": "2",
    "targetname": "red_spawn_primary",
    "hx": 4000.0,
    "hy": 288.0,
    "hz": -78.9954
   }
  },
  {
   "type": "Feature",
   "geometry": {
    "type": "Point",
    "coordinates": [
     0.0006845137302496414,
     3.833276889397134e-05
    ]
   },
   "properties": {
    "classname": "info_player_teamspawn",
    "team": "2",
    "targetname": "red_spawn_primary",
    "hx": 4000.0,
    "hy": 224.0,
    "hz": -78.9954
   }
  },
  {
   "type": "Feature",
   "geometry": {
    "type": "Point",
    "coordinates": [
     0.0006954659499341947,
     8.21416476299386e-05
    ]
   },
   "properties": {
    "classname": "info_player_teamspawn",
    "team": "2",
    "targetname": "red_spawn_primary",
    "hx": 4064.0,
    "hy": 480.0,
    "hz": -78.9954
   }
  },
  {
   "type": "Feature",
   "geometry": {
    "type": "Point",
    "coordinates": [
     0.0007064181696181978,
     8.21416476299386e-05
    ]
   },
   "properties": {
    "classname": "info_player_teamspawn",
    "team": "2",
    "targetname": "red_spawn_primary",
    "hx": 4128.0,
    "hy": 480.0,
    "hz": -78.9954
   }
  },
  {
   "type": "Feature",
   "geometry": {
    "type": "Point",
    "coordinates": [
     0.0007064181696175525,
     2.738054920997953e-05
    ]
   },
   "properties": {
    "classname": "info_player_teamspawn",
    "team": "2",
    "targetname": "red_spawn_primary",
    "hx": 4128.0,
    "hy": 160.0,
    "hz": -78.9954
   }
  },
  {
   "type": "Feature",
   "geometry": {
    "type": "Point",
    "coordinates": [
     0.0006954659499335595,
     2.738054920997953e-05
    ]
   },
   "properties": {
    "classname": "info_player_teamspawn",
    "team": "2",
    "targetname": "red_spawn_primary",
    "hx": 4064.0,
    "hy": 160.0,
    "hz": -78.9954
   }
  },
  {
   "type": "Feature",
   "geometry": {
    "type": "Point",
    "coordinates": [
     0.0004052321283086762,
     -0.00012595052636590586
    ]
   },
   "properties": {
    "classname": "item_ammopack_medium",
    "team": "",
    "targetname": "",
    "hx": 2368.0,
    "hy": -736.0,
    "hz": -112.0
   }
  },
  {
   "type": "Feature",
   "geometry": {
    "type": "Point",
    "coordinates": [
     0.00025737716257645993,
     -0.00026011521749480553
    ]
   },
   "properties": {
    "classname": "item_healthkit_medium",
    "team": "",
    "targetname": "",
    "hx": 1504.0,
    "hy": -1520.0,
    "hz": -80.0
   }
  },
  {
   "type": "Feature",
   "geometry": {
    "type": "Point",
    "coordinates": [
     -0.00025737716257645993,
     -0.00026011521749480553
    ]
   },
   "properties": {
    "classname": "item_healthkit_medium",
    "team": "",
    "targetname": "",
    "hx": -1504.0,
    "hy": -1520.0,
    "hz": -80.0
   }
  },
  {
   "type": "Feature",
   "geometry": {
    "type": "Point",
    "coordinates": [
     0.0003682683868765274,
     -0.00020261606415384855
    ]
   },
   "properties": {
    "classname": "item_healthkit_small",
    "team": "",
    "targetname": "",
    "hx": 2152.0,
    "hy": -1184.0,
    "hz": -168.0
   }
  },
  {
   "type": "Feature",
   "geometry": {
    "type": "Point",
    "coordinates": [
     0.0003682683868762852,
     -0.0001916638444698567
    ]
   },
   "properties": {
    "classname": "item_ammopack_medium",
    "team": "",
    "targetname": "",
    "hx": 2152.0,
    "hy": -1120.0,
    "hz": -168.0
   }
  },
  {
   "type": "Feature",
   "geometry": {
    "type": "Point",
    "coordinates": [
     0.0,
     -0.00021904439367983623
    ]
   },
   "properties": {
    "classname": "item_healthkit_small",
    "team": "",
    "targetname": "",
    "hx": 0.0,
    "hy": -1280.0,
    "hz": -184.0
   }
  },
  {
   "type": "Feature",
   "geometry": {
    "type": "Point",
    "coordinates": [
     0.00026832938226056455,
     -0.00026011521749480553
    ]
   },
   "properties": {
    "classname": "item_ammopack_full",
    "team": "",
    "targetname": "",
    "hx": 1568.0,
    "hy": -1520.0,
    "hz": -80.0
   }
  },
  {
   "type": "Feature",
   "geometry": {
    "type": "Point",
    "coordinates": [
     0.000402494073386883,
     5.476109841995906e-05
    ]
   },
   "properties": {
    "classname": "item_ammopack_small",
    "team": "",
    "targetname": "",
    "hx": 2352.0,
    "hy": 320.0,
    "hz": -112.0
   }
  },
  {
   "type": "Feature",
   "geometry": {
    "type": "Point",
    "coordinates": [
     0.00024642494289036054,
     -0.00012047441652390994
    ]
   },
   "properties": {
    "classname": "item_ammopack_small",
    "team": "",
    "targetname": "",
    "hx": 1440.0,
    "hy": -704.0,
    "hz": -112.0
   }
  },
  {
   "type": "Feature",
   "geometry": {
    "type": "Point",
    "coordinates": [
     -0.0004024940733869638,
     6.571331810395088e-05
    ]
   },
   "properties": {
    "classname": "item_healthkit_small",
    "team": "",
    "targetname": "",
    "hx": -2352.0,
    "hy": 384.0,
    "hz": -112.0
   }
  },
  {
   "type": "Feature",
   "geometry": {
    "type": "Point",
    "coordinates": [
     -0.0003682683868762852,
     -0.0001916638444698567
    ]
   },
   "properties": {
    "classname": "item_ammopack_medium",
    "team": "",
    "targetname": "",
    "hx": -2152.0,
    "hy": -1120.0,
    "hz": -168.0
   }
  },
  {
   "type": "Feature",
   "geometry": {
    "type": "Point",
    "coordinates": [
     0.0,
     0.00011499830668191402
    ]
   },
   "properties": {
    "classname": "item_healthkit_medium",
    "team": "",
    "targetname": "",
    "hx": 0.0,
    "hy": 672.0,
    "hz": -136.0
   }
  },
  {
   "type": "Feature",
   "geometry": {
    "type": "Point",
    "coordinates": [
     -0.000402494073386883,
     5.476109841995906e-05
    ]
   },
   "properties": {
    "classname": "item_ammopack_small",
    "team": "",
    "targetname": "",
    "hx": -2352.0,
    "hy": 320.0,
    "hz": -112.0
   }
  },
  {
   "type": "Feature",
   "geometry": {
    "type": "Point",
    "coordinates": [
     -0.00026832938226056455,
     -0.00026011521749480553
    ]
   },
   "properties": {
    "classname": "item_ammopack_full",
    "team": "",
    "targetname": "",
    "hx": -1568.0,
    "hy": -1520.0,
    "hz": -80.0
   }
  },
  {
   "type": "Feature",
   "geometry": {
    "type": "Point",
    "coordinates": [
     -0.00016428329525996796,
     -6.023720826195497e-05
    ]
   },
   "properties": {
    "classname": "item_ammopack_medium",
    "team": "",
    "targetname": "",
    "hx": -960.0,
    "hy": -352.0,
    "hz": 16.0
   }
  },
  {
   "type": "Feature",
   "geometry": {
    "type": "Point",
    "coordinates": [
     -0.00024642494289036054,
     -0.00012047441652390994
    ]
   },
   "properties": {
    "classname": "item_ammopack_small",
    "team": "",
    "targetname": "",
    "hx": -1440.0,
    "hy": -704.0,
    "hz": -112.0
   }
  },
  {
   "type": "Feature",
   "geometry": {
    "type": "Point",
    "coordinates": [
     0.00040523212830851334,
     -0.00011499830668191402
    ]
   },
   "properties": {
    "classname": "item_healthkit_full",
    "team": "",
    "targetname": "",
    "hx": 2368.0,
    "hy": -672.0,
    "hz": -112.0
   }
  },
  {
   "type": "Feature",
   "geometry": {
    "type": "Point",
    "coordinates": [
     0.00016428329525996796,
     -6.023720826195497e-05
    ]
   },
   "properties": {
    "classname": "item_ammopack_medium",
    "team": "",
    "targetname": "",
    "hx": 960.0,
    "hy": -352.0,
    "hz": 16.0
   }
  },
  {
   "type": "Feature",
   "geometry": {
    "type": "Point",
    "coordinates": [
     0.0,
     -2.738054920997953e-05
    ]
   },
   "properties": {
    "classname": "item_ammopack_small",
    "team": "",
    "targetname": "",
    "hx": 0.0,
    "hy": -160.0,
    "hz": 16.0
   }
  },
  {
   "type": "Feature",
   "geometry": {
    "type": "Point",
    "coordinates": [
     -0.0004052321283086762,
     -0.00012595052636590586
    ]
   },
   "properties": {
    "classname": "item_ammopack_medium",
    "team": "",
    "targetname": "",
    "hx": -2368.0,
    "hy": -736.0,
    "hz": -112.0
   }
  },
  {
   "type": "Feature",
   "geometry": {
    "type": "Point",
    "coordinates": [
     -0.00040523212830851334,
     -0.00011499830668191402
    ]
   },
   "properties": {
    "classname": "item_healthkit_full",
    "team": "",
    "targetname": "",
    "hx": -2368.0,
    "hy": -672.0,
    "hz": -112.0
   }
  },
  {
   "type": "Feature",
   "geometry": {
    "type": "Point",
    "coordinates": [
     0.0002299966133638375,
     1.642832952598772e-05
    ]
   },
   "properties": {
    "classname": "item_healthkit_medium",
    "team": "",
    "targetname": "",
    "hx": 1344.0,
    "hy": 96.0,
    "hz": -160.0
   }
  },
  {
   "type": "Feature",
   "geometry": {
    "type": "Point",
    "coordinates": [
     0.0002299966133638291,
     5.476109841995906e-06
    ]
   },
   "properties": {
    "classname": "item_ammopack_medium",
    "team": "",
    "targetname": "",
    "hx": 1344.0,
    "hy": 32.0,
    "hz": -160.0
   }
  },
  {
   "type": "Feature",
   "geometry": {
    "type": "Point",
    "coordinates": [
     0.0004024940733869638,
     6.571331810395088e-05
    ]
   },
   "properties": {
    "classname": "item_healthkit_small",
    "team": "",
    "targetname": "",
    "hx": 2352.0,
    "hy": 384.0,
    "hz": -112.0
   }
  },
  {
   "type": "Feature",
   "geometry": {
    "type": "Point",
    "coordinates": [
     -0.0003682683868765274,
     -0.00020261606415384855
    ]
   },
   "properties": {
    "classname": "item_healthkit_small",
    "team": "",
    "targetname": "",
    "hx": -2152.0,
    "hy": -1184.0,
    "hz": -168.0
   }
  },
  {
   "type": "Feature",
   "geometry": {
    "type": "Point",
    "coordinates": [
     0.0,
     -6.845137302494882e-05
    ]
   },
   "properties": {
    "classname": "team_control_point",
    "team": "",
    "targetname": "cp_koth",
    "hx": 0.0,
    "hy": -400.0,
    "hz": 4.0
   }
  },
  {
   "type": "Feature",
   "geometry": {
    "type": "Point",
    "coordinates": [
     0.00016428329526000399,
     -7.118942794594677e-05
    ]
   },
   "properties": {
    "classname": "item_healthkit_medium",
    "team": "",
    "targetname": "",
    "hx": 960.0,
    "hy": -416.0,
    "hz": 16.0
   }
  },
  {
   "type": "Feature",
   "geometry": {
    "type": "Point",
    "coordinates": [
     -0.0002299966133638375,
     1.642832952598772e-05
    ]
   },
   "properties": {
    "classname": "item_healthkit_medium",
    "team": "",
    "targetname": "",
    "hx": -1344.0,
    "hy": 96.0,
    "hz": -160.0
   }
  },
  {
   "type": "Feature",
   "geometry": {
    "type": "Point",
    "coordinates": [
     -0.00026011521749670646,
     -0.00021904439367983623
    ]
   },
   "properties": {
    "classname": "item_healthkit_medium",
    "team": "",
    "targetname": "",
    "hx": -1520.0,
    "hy": -1280.0,
    "hz": -280.0
   }
  },
  {
   "type": "Feature",
   "geometry": {
    "type": "Point",
    "coordinates": [
     0.00026011521749670646,
     -0.00021904439367983623
    ]
   },
   "properties": {
    "classname": "item_healthkit_medium",
    "team": "",
    "targetname": "",
    "hx": 1520.0,
    "hy": -1280.0,
    "hz": -280.0
   }
  },
  {
   "type": "Feature",
   "geometry": {
    "type": "Point",
    "coordinates": [
     0.0,
     -0.00024231786050831885
    ]
   },
   "properties": {
    "classname": "item_ammopack_small",
    "team": "",
    "targetname": "",
    "hx": 0.0,
    "hy": -1416.0,
    "hz": 152.0
   }
  },
  {
   "type": "Feature",
   "geometry": {
    "type": "Point",
    "coordinates": [
     -0.0002299966133638291,
     5.476109841995906e-06
    ]
   },
   "properties": {
    "classname": "item_ammopack_medium",
    "team": "",
    "targetname": "",
    "hx": -1344.0,
    "hy": 32.0,
    "hz": -160.0
   }
  },
  {
   "type": "Feature",
   "geometry": {
    "type": "Point",
    "coordinates": [
     -0.00016428329526000399,
     -7.118942794594677e-05
    ]
   },
   "properties": {
    "classname": "item_healthkit_medium",
    "team": "",
    "targetname": "",
    "hx": -960.0,
    "hy": -416.0,
    "hz": 16.0
   }
  }
 ]
}
