{
 "type": "FeatureCollection",
 "note": "pseudo-WGS84 via crs.local_to_wgs84 ((0,0)m maps to (0,0)deg); viewing only, not survey",
 "features": [
  {
   "type": "Feature",
   "geometry": {
    "type": "Point",
    "coordinates": [
     0.00016975940510189245,
     2.738054920997953e-05
    ]
   },
   "properties": {
    "classname": "item_healthkit_medium",
    "team": "",
    "targetname": "",
    "hx": 992.0,
    "hy": 160.0,
    "hz": 8316.0
   }
  },
  {
   "type": "Feature",
   "geometry": {
    "type": "Point",
    "coordinates": [
     0.00011491992986615195,
     0.0006023891954628059
    ]
   },
   "properties": {
    "classname": "item_healthkit_full",
    "team": "",
    "targetname": "",
    "hx": 671.542,
    "hy": 3520.1,
    "hz": 8320.0
   }
  },
  {
   "type": "Feature",
   "geometry": {
    "type": "Point",
    "coordinates": [
     0.0001286885812869626,
     5.476109841995906e-05
    ]
   },
   "properties": {
    "classname": "item_healthkit_medium",
    "team": "",
    "targetname": "",
    "hx": 752.0,
    "hy": 320.0,
    "hz": -63.7639
   }
  },
  {
   "type": "Feature",
   "geometry": {
    "type": "Point",
    "coordinates": [
     -4.6546933658843724e-05,
     -0.0005147543251476152
    ]
   },
   "properties": {
    "classname": "info_player_teamspawn",
    "team": "2",
    "targetname": "",
    "hx": -272.0,
    "hy": -3008.0,
    "hz": 64.0
   }
  },
  {
   "type": "Feature",
   "geometry": {
    "type": "Point",
    "coordinates": [
     -3.5594713974409906e-05,
     -0.0005147543251476152
    ]
   },
   "properties": {
    "classname": "info_player_teamspawn",
    "team": "2",
    "targetname": "",
    "hx": -208.0,
    "hy": -3008.0,
    "hz": 64.0
   }
  },
  {
   "type": "Feature",
   "geometry": {
    "type": "Point",
    "coordinates": [
     -2.464249428997609e-05,
     -0.0005147543251476152
    ]
   },
   "properties": {
    "classname": "info_player_teamspawn",
    "team": "2",
    "targetname": "",
    "hx": -144.0,
    "hy": -3008.0,
    "hz": 64.0
   }
  },
  {
   "type": "Feature",
   "geometry": {
    "type": "Point",
    "coordinates": [
     -1.369027460554227e-05,
     -0.0005147543251476152
    ]
   },
   "properties": {
    "classname": "info_player_teamspawn",
    "team": "2",
    "targetname": "",
    "hx": -80.0,
    "hy": -3008.0,
    "hz": 64.0
   }
  },
  {
   "type": "Feature",
   "geometry": {
    "type": "Point",
    "coordinates": [
     -4.654693365892451e-05,
     -0.000525706544831607
    ]
   },
   "properties": {
    "classname": "info_player_teamspawn",
    "team": "2",
    "targetname": "",
    "hx": -272.0,
    "hy": -3072.0,
    "hz": 64.0
   }
  },
  {
   "type": "Feature",
   "geometry": {
    "type": "Point",
    "coordinates": [
     -3.559471397447168e-05,
     -0.000525706544831607
    ]
   },
   "properties": {
    "classname": "info_player_teamspawn",
    "team": "2",
    "targetname": "",
    "hx": -208.0,
    "hy": -3072.0,
    "hz": 64.0
   }
  },
  {
   "type": "Feature",
   "geometry": {
    "type": "Point",
    "coordinates": [
     -2.464249429001886e-05,
     -0.000525706544831607
    ]
   },
   "properties": {
    "classname": "info_player_teamspawn",
    "team": "2",
    "targetname": "",
    "hx": -144.0,
    "hy": -3072.0,
    "hz": 64.0
   }
  },
  {
   "type": "Feature",
   "geometry": {
    "type": "Point",
    "coordinates": [
     -1.3690274605566032e-05,
     -0.000525706544831607
    ]
   },
   "properties": {
    "classname": "info_player_teamspawn",
    "team": "2",
    "targetname": "",
    "hx": -80.0,
    "hy": -3072.0,
    "hz": 64.0
   }
  },
  {
   "type": "Feature",
   "geometry": {
    "type": "Point",
    "coordinates": [
     -4.6546933659007e-05,
     -0.0005366587645155988
    ]
   },
   "properties": {
    "classname": "info_player_teamspawn",
    "team": "2",
    "targetname": "",
    "hx": -272.0,
    "hy": -3136.0,
    "hz": 64.0
   }
  },
  {
   "type": "Feature",
   "geometry": {
    "type": "Point",
    "coordinates": [
     -3.5594713974534766e-05,
     -0.0005366587645155988
    ]
   },
   "properties": {
    "classname": "info_player_teamspawn",
    "team": "2",
    "targetname": "",
    "hx": -208.0,
    "hy": -3136.0,
    "hz": 64.0
   }
  },
  {
   "type": "Feature",
   "geometry": {
    "type": "Point",
    "coordinates": [
     -2.464249429006253e-05,
     -0.0005366587645155988
    ]
   },
   "properties": {
    "classname": "info_player_teamspawn",
    "team": "2",
    "targetname": "",
    "hx": -144.0,
    "hy": -3136.0,
    "hz": 64.0
   }
  },
  {
   "type": "Feature",
   "geometry": {
    "type": "Point",
    "coordinates": [
     -1.3690291718433551e-05,
     -0.0005366587645155988
    ]
   },
   "properties": {
    "classname": "info_player_teamspawn",
    "team": "2",
    "targetname": "",
    "hx": -80.0001,
    "hy": -3136.0,
    "hz": 64.0
   }
  },
  {
   "type": "Feature",
   "geometry": {
    "type": "Point",
    "coordinates": [
     -4.6546933659091187e-05,
     -0.0005476109841995906
    ]
   },
   "properties": {
    "classname": "info_player_teamspawn",
    "team": "2",
    "targetname": "",
    "hx": -272.0,
    "hy": -3200.0,
    "hz": 64.0
   }
  },
  {
   "type": "Feature",
   "geometry": {
    "type": "Point",
    "coordinates": [
     -3.559471397459914e-05,
     -0.0005476109841995906
    ]
   },
   "properties": {
    "classname": "info_player_teamspawn",
    "team": "2",
    "targetname": "",
    "hx": -208.0,
    "hy": -3200.0,
    "hz": 64.0
   }
  },
  {
   "type": "Feature",
   "geometry": {
    "type": "Point",
    "coordinates": [
     -2.46424942901071e-05,
     -0.0005476109841995906
    ]
   },
   "properties": {
    "classname": "info_player_teamspawn",
    "team": "2",
    "targetname": "",
    "hx": -144.0,
    "hy": -3200.0,
    "hz": 64.0
   }
  },
  {
   "type": "Feature",
   "geometry": {
    "type": "Point",
    "coordinates": [
     -1.3690291718458313e-05,
     -0.0005476109841995906
    ]
   },
   "properties": {
    "classname": "info_player_teamspawn",
    "team": "2",
    "targetname": "",
    "hx": -80.0001,
    "hy": -3200.0,
    "hz": 64.0
   }
  },
  {
   "type": "Feature",
   "geometry": {
    "type": "Point",
    "coordinates": [
     0.00011773636160296575,
     5.476109841995906e-05
    ]
   },
   "properties": {
    "classname": "item_ammopack_medium",
    "team": "",
    "targetname": "",
    "hx": 688.0,
    "hy": 320.0,
    "hz": -63.7438
   }
  },
  {
   "type": "Feature",
   "geometry": {
    "type": "Point",
    "coordinates": [
     -0.00014785496573404137,
     8.21416476299386e-05
    ]
   },
   "properties": {
    "classname": "item_healthkit_medium",
    "team": "",
    "targetname": "",
    "hx": -864.0,
    "hy": 480.0,
    "hz": -63.7639
   }
  },
  {
   "type": "Feature",
   "geometry": {
    "type": "Point",
    "coordinates": [
     -4.6546933658843724e-05,
     0.0005147543251476152
    ]
   },
   "properties": {
    "classname": "info_player_teamspawn",
    "team": "3",
    "targetname": "",
    "hx": -272.0,
    "hy": 3008.0,
    "hz": 64.0
   }
  },
  {
   "type": "Feature",
   "geometry": {
    "type": "Point",
    "coordinates": [
     -3.5594713974409906e-05,
     0.0005147543251476152
    ]
   },
   "properties": {
    "classname": "info_player_teamspawn",
    "team": "3",
    "targetname": "",
    "hx": -208.0,
    "hy": 3008.0,
    "hz": 64.0
   }
  },
  {
   "type": "Feature",
   "geometry": {
    "type": "Point",
    "coordinates": [
     -2.464249428997609e-05,
     0.0005147543251476152
    ]
   },
   "properties": {
    "classname": "info_player_teamspawn",
    "team": "3",
    "targetname": "",
    "hx": -144.0,
    "hy": 3008.0,
    "hz": 64.0
   }
  },
  {
   "type": "Feature",
   "geometry": {
    "type": "Point",
    "coordinates": [
     -1.369027460554227e-05,
     0.0005147543251476152
    ]
   },
   "properties": {
    "classname": "info_player_teamspawn",
    "team": "3",
    "targetname": "",
    "hx": -80.0,
    "hy": 3008.0,
    "hz": 64.0
   }
  },
  {
   "type": "Feature",
   "geometry": {
    "type": "Point",
    "coordinates": [
     -4.654693365892451e-05,
     0.000525706544831607
    ]
   },
   "properties": {
    "classname": "info_player_teamspawn",
    "team": "3",
    "targetname": "",
    "hx": -272.0,
    "hy": 3072.0,
    "hz": 64.0
   }
  },
  {
   "type": "Feature",
   "geometry": {
    "type": "Point",
    "coordinates": [
     -3.559471397447168e-05,
     0.000525706544831607
    ]
   },
   "properties": {
    "classname": "info_player_teamspawn",
    "team": "3",
    "targetname": "",
    "hx": -208.0,
    "hy": 3072.0,
    "hz": 64.0
   }
  },
  {
   "type": "Feature",
   "geometry": {
    "type": "Point",
    "coordinates": [
     -2.464249429001886e-05,
     0.000525706544831607
    ]
   },
   "properties": {
    "classname": "info_player_teamspawn",
    "team": "3",
    "targetname": "",
    "hx": -144.0,
    "hy": 3072.0,
    "hz": 64.0
   }
  },
  {
   "type": "Feature",
   "geometry": {
    "type": "Point",
    "coordinates": [
     -1.3690274605566032e-05,
     0.000525706544831607
    ]
   },
   "properties": {
    "classname": "info_player_teamspawn",
    "team": "3",
    "targetname": "",
    "hx": -80.0,
    "hy": 3072.0,
    "hz": 64.0
   }
  },
  {
   "type": "Feature",
   "geometry": {
    "type": "Point",
    "coordinates": [
     -4.6546933659007e-05,
     0.0005366587645155988
    ]
   },
   "properties": {
    "classname": "info_player_teamspawn",
    "team": "3",
    "targetname": "",
    "hx": -272.0,
    "hy": 3136.0,
    "hz": 64.0
   }
  },
  {
   "type": "Feature",
   "geometry": {
    "type": "Point",
    "coordinates": [
     -3.5594713974534766e-05,
     0.0005366587645155988
    ]
   },
   "properties": {
    "classname": "info_player_teamspawn",
    "team": "3",
    "targetname": "",
    "hx": -208.0,
    "hy": 3136.0,
    "hz": 64.0
   }
  },
  {
   "type": "Feature",
   "geometry": {
    "type": "Point",
    "coordinates": [
     -2.464249429006253e-05,
     0.0005366587645155988
    ]
   },
   "properties": {
    "classname": "info_player_teamspawn",
    "team": "3",
    "targetname": "",
    "hx": -144.0,
    "hy": 3136.0,
    "hz": 64.0
   }
  },
  {
   "type": "Feature",
   "geometry": {
    "type": "Point",
    "coordinates": [
     -1.3690291718433551e-05,
     0.0005366587645155988
    ]
   },
   "properties": {
    "classname": "info_player_teamspawn",
    "team": "3",
    "targetname": "",
    "hx": -80.0001,
    "hy": 3136.0,
    "hz": 64.0
   }
  },
  {
   "type": "Feature",
   "geometry": {
    "type": "Point",
    "coordinates": [
     -4.6546933659091187e-05,
     0.0005476109841995906
    ]
   },
   "properties": {
    "classname": "info_player_teamspawn",
    "team": "3",
    "targetname": "",
    "hx": -272.0,
    "hy": 3200.0,
    "hz": 64.0
   }
  },
  {
   "type": "Feature",
   "geometry": {
    "type": "Point",
    "coordinates": [
     -3.559471397459914e-05,
     0.0005476109841995906
    ]
   },
   "properties": {
    "classname": "info_player_teamspawn",
    "team": "3",
    "targetname": "",
    "hx": -208.0,
    "hy": 3200.0,
    "hz": 64.0
   }
  },
  {
   "type": "Feature",
   "geometry": {
    "type": "Point",
    "coordinates": [
     -2.46424942901071e-05,
     0.0005476109841995906
    ]
   },
   "properties": {
    "classname": "info_player_teamspawn",
    "team": "3",
    "targetname": "",
    "hx": -144.0,
    "hy": 3200.0,
    "hz": 64.0
   }
  },
  {
   "type": "Feature",
   "geometry": {
    "type": "Point",
    "coordinates": [
     -1.3690291718458313e-05,
     0.0005476109841995906
    ]
   },
   "properties": {
    "classname": "info_player_teamspawn",
    "team": "3",
    "targetname": "",
    "hx": -80.0001,
    "hy": 3200.0,
    "hz": 64.0
   }
  },
  {
   "type": "Feature",
   "geometry": {
    "type": "Point",
    "coordinates": [
     0.0001286885812869626,
     -5.476109841995906e-05
    ]
   },
   "properties": {
    "classname": "item_healthkit_medium",
    "team": "",
    "targetname": "",
    "hx": 752.0,
    "hy": -320.0,
    "hz": -63.7639
   }
  },
  {
   "type": "Feature",
   "geometry": {
    "type": "Point",
    "coordinates": [
     -0.00015880718541804446,
     8.21416476299386e-05
    ]
   },
   "properties": {
    "classname": "item_ammopack_medium",
    "team": "",
    "targetname": "",
    "hx": -928.0,
    "hy": 480.0,
    "hz": -63.7438
   }
  },
  {
   "type": "Feature",
   "geometry": {
    "type": "Point",
    "coordinates": [
     -1.2321247144587711e-05,
     -0.0002272585584428301
    ]
   },
   "properties": {
    "classname": "item_healthkit_medium",
    "team": "",
    "targetname": "",
    "hx": -72.0,
    "hy": -1328.0,
    "hz": 8320.0
   }
  },
  {
   "type": "Feature",
   "geometry": {
    "type": "Point",
    "coordinates": [
     0.00010952219684497058,
     -0.0005503490391205885
    ]
   },
   "properties": {
    "classname": "item_healthkit_full",
    "team": "",
    "targetname": "",
    "hx": 640.0,
    "hy": -3216.0,
    "hz": 8320.0
   }
  },
  {
   "type": "Feature",
   "geometry": {
    "type": "Point",
    "coordinates": [
     -0.00015880718541804446,
     -8.21416476299386e-05
    ]
   },
   "properties": {
    "classname": "item_ammopack_medium",
    "team": "",
    "targetname": "",
    "hx": -928.0,
    "hy": -480.0,
    "hz": -63.7438
   }
  },
  {
   "type": "Feature",
   "geometry": {
    "type": "Point",
    "coordinates": [
     -0.00014785496573404137,
     -8.21416476299386e-05
    ]
   },
   "properties": {
    "classname": "item_healthkit_medium",
    "team": "",
    "targetname": "",
    "hx": -864.0,
    "hy": -480.0,
    "hz": -63.7639
   }
  },
  {
   "type": "Feature",
   "geometry": {
    "type": "Point",
    "coordinates": [
     -8.214164763105296e-06,
     0.00029844798638877683
    ]
   },
   "properties": {
    "classname": "item_healthkit_medium",
    "team": "",
    "targetname": "",
    "hx": -48.0,
    "hy": 1744.0,
    "hz": 8299.71
   }
  },
  {
   "type": "Feature",
   "geometry": {
    "type": "Point",
    "coordinates": [
     -1.3690274604989765e-05,
     0.0
    ]
   },
   "properties": {
    "classname": "item_healthkit_medium",
    "team": "",
    "targetname": "",
    "hx": -80.0,
    "hy": 0.0,
    "hz": -319.764
   }
  },
  {
   "type": "Feature",
   "geometry": {
    "type": "Point",
    "coordinates": [
     0.0,
     0.0
    ]
   },
   "properties": {
    "classname": "team_control_point",
    "team": "",
    "targetname": "cp_koth",
    "hx": 0.0,
    "hy": 0.0,
    "hz": 4.24997
   }
  },
  {
   "type": "Feature",
   "geometry": {
    "type": "Point",
    "coordinates": [
     0.00011910538906371138,
     -0.0001286885812869038
    ]
   },
   "properties": {
    "classname": "item_healthkit_small",
    "team": "",
    "targetname": "",
    "hx": 696.0,
    "hy": -752.0,
    "hz": 8320.0
   }
  },
  {
   "type": "Feature",
   "geometry": {
    "type": "Point",
    "coordinates": [
     0.0001558988577069048,
     0.0001331610228719214
    ]
   },
   "properties": {
    "classname": "item_healthkit_small",
    "team": "",
    "targetname": "",
    "hx": 911.005,
    "hy": 778.135,
    "hz": 8321.71
   }
  },
  {
   "type": "Feature",
   "geometry": {
    "type": "Point",
    "coordinates": [
     -1.3690274604991487e-05,
     2.8749576670478505e-05
    ]
   },
   "properties": {
    "classname": "item_healthkit_medium",
    "team": "",
    "targetname": "",
    "hx": -80.0,
    "hy": 168.0,
    "hz": 8320.0
   }
  },
  {
   "type": "Feature",
   "geometry": {
    "type": "Point",
    "coordinates": [
     0.00011773636160296575,
     -5.476109841995906e-05
    ]
   },
   "properties": {
    "classname": "item_ammopack_medium",
    "team": "",
    "targetname": "",
    "hx": 688.0,
    "hy": -320.0,
    "hz": -63.7438
   }
  }
 ]
}
