{
 "type": "FeatureCollection",
 "note": "pseudo-WGS84 via crs.local_to_wgs84 ((0,0)m maps to (0,0)deg); viewing only, not survey",
 "features": [
  {
   "type": "Feature",
   "geometry": {
    "type": "Point",
    "coordinates": [
     -0.00017523551495064334,
     0.0005038021054636234
    ]
   },
   "properties": {
    "classname": "info_player_teamspawn",
    "team": "3",
    "targetname": "bluespawns",
    "hx": -1024.0,
    "hy": 2944.0,
    "hz": 449.005
   }
  },
  {
   "type": "Feature",
   "geometry": {
    "type": "Point",
    "coordinates": [
     -0.00019713995431947377,
     0.0005038021054636234
    ]
   },
   "properties": {
    "classname": "info_player_teamspawn",
    "team": "3",
    "targetname": "bluespawns",
    "hx": -1152.0,
    "hy": 2944.0,
    "hz": 449.005
   }
  },
  {
   "type": "Feature",
   "geometry": {
    "type": "Point",
    "coordinates": [
     -0.00021904439368830418,
     0.0005038021054636234
    ]
   },
   "properties": {
    "classname": "info_player_teamspawn",
    "team": "3",
    "targetname": "bluespawns",
    "hx": -1280.0,
    "hy": 2944.0,
    "hz": 449.005
   }
  },
  {
   "type": "Feature",
   "geometry": {
    "type": "Point",
    "coordinates": [
     -0.0001533310755818129,
     0.0005038021054636234
    ]
   },
   "properties": {
    "classname": "info_player_teamspawn",
    "team": "3",
    "targetname": "bluespawns",
    "hx": -896.0,
    "hy": 2944.0,
    "hz": 449.005
   }
  },
  {
   "type": "Feature",
   "geometry": {
    "type": "Point",
    "coordinates": [
     -0.00015333107558207344,
     0.0005147543251476152
    ]
   },
   "properties": {
    "classname": "info_player_teamspawn",
    "team": "3",
    "targetname": "bluespawns",
    "hx": -896.0,
    "hy": 3008.0,
    "hz": 449.005
   }
  },
  {
   "type": "Feature",
   "geometry": {
    "type": "Point",
    "coordinates": [
     -0.00017523551495094106,
     0.0005147543251476152
    ]
   },
   "properties": {
    "classname": "info_player_teamspawn",
    "team": "3",
    "targetname": "bluespawns",
    "hx": -1024.0,
    "hy": 3008.0,
    "hz": 449.005
   }
  },
  {
   "type": "Feature",
   "geometry": {
    "type": "Point",
    "coordinates": [
     -0.0001971399543198087,
     0.0005147543251476152
    ]
   },
   "properties": {
    "classname": "info_player_teamspawn",
    "team": "3",
    "targetname": "bluespawns",
    "hx": -1152.0,
    "hy": 3008.0,
    "hz": 449.005
   }
  },
  {
   "type": "Feature",
   "geometry": {
    "type": "Point",
    "coordinates": [
     -0.00021904439368867633,
     0.0005147543251476152
    ]
   },
   "properties": {
    "classname": "info_player_teamspawn",
    "team": "3",
    "targetname": "bluespawns",
    "hx": -1280.0,
    "hy": 3008.0,
    "hz": 449.005
   }
  },
  {
   "type": "Feature",
   "geometry": {
    "type": "Point",
    "coordinates": [
     -0.00015333107558233955,
     0.000525706544831607
    ]
   },
   "properties": {
    "classname": "info_player_teamspawn",
    "team": "3",
    "targetname": "bluespawns",
    "hx": -896.0,
    "hy": 3072.0,
    "hz": 449.005
   }
  },
  {
   "type": "Feature",
   "geometry": {
    "type": "Point",
    "coordinates": [
     -0.0001752355149512452,
     0.000525706544831607
    ]
   },
   "properties": {
    "classname": "info_player_teamspawn",
    "team": "3",
    "targetname": "bluespawns",
    "hx": -1024.0,
    "hy": 3072.0,
    "hz": 449.005
   }
  },
  {
   "type": "Feature",
   "geometry": {
    "type": "Point",
    "coordinates": [
     -0.00019713995432015088,
     0.000525706544831607
    ]
   },
   "properties": {
    "classname": "info_player_teamspawn",
    "team": "3",
    "targetname": "bluespawns",
    "hx": -1152.0,
    "hy": 3072.0,
    "hz": 449.005
   }
  },
  {
   "type": "Feature",
   "geometry": {
    "type": "Point",
    "coordinates": [
     -0.0002190443936890565,
     0.000525706544831607
    ]
   },
   "properties": {
    "classname": "info_player_teamspawn",
    "team": "3",
    "targetname": "bluespawns",
    "hx": -1280.0,
    "hy": 3072.0,
    "hz": 449.005
   }
  },
  {
   "type": "Feature",
   "geometry": {
    "type": "Point",
    "coordinates": [
     -0.00015333107558261128,
     0.0005366587645155988
    ]
   },
   "properties": {
    "classname": "info_player_teamspawn",
    "team": "3",
    "targetname": "bluespawns",
    "hx": -896.0,
    "hy": 3136.0,
    "hz": 449.005
   }
  },
  {
   "type": "Feature",
   "geometry": {
    "type": "Point",
    "coordinates": [
     -0.00017523551495155575,
     0.0005366587645155988
    ]
   },
   "properties": {
    "classname": "info_player_teamspawn",
    "team": "3",
    "targetname": "bluespawns",
    "hx": -1024.0,
    "hy": 3136.0,
    "hz": 449.005
   }
  },
  {
   "type": "Feature",
   "geometry": {
    "type": "Point",
    "coordinates": [
     -0.00019713995432050024,
     0.0005366587645155988
    ]
   },
   "properties": {
    "classname": "info_player_teamspawn",
    "team": "3",
    "targetname": "bluespawns",
    "hx": -1152.0,
    "hy": 3136.0,
    "hz": 449.005
   }
  },
  {
   "type": "Feature",
   "geometry": {
    "type": "Point",
    "coordinates": [
     -0.00021904439368944468,
     0.0005366587645155988
    ]
   },
   "properties": {
    "classname": "info_player_teamspawn",
    "team": "3",
    "targetname": "bluespawns",
    "hx": -1280.0,
    "hy": 3136.0,
    "hz": 449.005
   }
  },
  {
   "type": "Feature",
   "geometry": {
    "type": "Point",
    "coordinates": [
     -0.00015333107558233955,
     -0.000525706544831607
    ]
   },
   "properties": {
    "classname": "info_player_teamspawn",
    "team": "2",
    "targetname": "redspawns",
    "hx": -896.0,
    "hy": -3072.0,
    "hz": 449.005
   }
  },
  {
   "type": "Feature",
   "geometry": {
    "type": "Point",
    "coordinates": [
     -0.0001752355149512452,
     -0.000525706544831607
    ]
   },
   "properties": {
    "classname": "info_player_teamspawn",
    "team": "2",
    "targetname": "redspawns",
    "hx": -1024.0,
    "hy": -3072.0,
    "hz": 449.005
   }
  },
  {
   "type": "Feature",
   "geometry": {
    "type": "Point",
    "coordinates": [
     -0.00019713995432015088,
     -0.000525706544831607
    ]
   },
   "properties": {
    "classname": "info_player_teamspawn",
    "team": "2",
    "targetname": "redspawns",
    "hx": -1152.0,
    "hy": -3072.0,
    "hz": 449.005
   }
  },
  {
   "type": "Feature",
   "geometry": {
    "type": "Point",
    "coordinates": [
     -0.0002190443936890565,
     -0.000525706544831607
    ]
   },
   "properties": {
    "classname": "info_player_teamspawn",
    "team": "2",
    "targetname": "redspawns",
    "hx": -1280.0,
    "hy": -3072.0,
    "hz": 449.005
   }
  },
  {
   "type": "Feature",
   "geometry": {
    "type": "Point",
    "coordinates": [
     -0.00015333107558261128,
     -0.0005366587645155988
    ]
   },
   "properties": {
    "classname": "info_player_teamspawn",
    "team": "2",
    "targetname": "redspawns",
    "hx": -896.0,
    "hy": -3136.0,
    "hz": 449.005
   }
  },
  {
   "type": "Feature",
   "geometry": {
    "type": "Point",
    "coordinates": [
     -0.00017523551495155575,
     -0.0005366587645155988
    ]
   },
   "properties": {
    "classname": "info_player_teamspawn",
    "team": "2",
    "targetname": "redspawns",
    "hx": -1024.0,
    "hy": -3136.0,
    "hz": 449.005
   }
  },
  {
   "type": "Feature",
   "geometry": {
    "type": "Point",
    "coordinates": [
     -0.00019713995432050024,
     -0.0005366587645155988
    ]
   },
   "properties": {
    "classname": "info_player_teamspawn",
    "team": "2",
    "targetname": "redspawns",
    "hx": -1152.0,
    "hy": -3136.0,
    "hz": 449.005
   }
  },
  {
   "type": "Feature",
   "geometry": {
    "type": "Point",
    "coordinates": [
     -0.00021904439368944468,
     -0.0005366587645155988
    ]
   },
   "properties": {
    "classname": "info_player_teamspawn",
    "team": "2",
    "targetname": "redspawns",
    "hx": -1280.0,
    "hy": -3136.0,
    "hz": 449.005
   }
  },
  {
   "type": "Feature",
   "geometry": {
    "type": "Point",
    "coordinates": [
     -0.00015333107558207344,
     -0.0005147543251476152
    ]
   },
   "properties": {
    "classname": "info_player_teamspawn",
    "team": "2",
    "targetname": "redspawns",
    "hx": -896.0,
    "hy": -3008.0,
    "hz": 449.005
   }
  },
  {
   "type": "Feature",
   "geometry": {
    "type": "Point",
    "coordinates": [
     -0.00017523551495094106,
     -0.0005147543251476152
    ]
   },
   "properties": {
    "classname": "info_player_teamspawn",
    "team": "2",
    "targetname": "redspawns",
    "hx": -1024.0,
    "hy": -3008.0,
    "hz": 449.005
   }
  },
  {
   "type": "Feature",
   "geometry": {
    "type": "Point",
    "coordinates": [
     -0.0001971399543198087,
     -0.0005147543251476152
    ]
   },
   "properties": {
    "classname": "info_player_teamspawn",
    "team": "2",
    "targetname": "redspawns",
    "hx": -1152.0,
    "hy": -3008.0,
    "hz": 449.005
   }
  },
  {
   "type": "Feature",
   "geometry": {
    "type": "Point",
    "coordinates": [
     -0.00021904439368867633,
     -0.0005147543251476152
    ]
   },
   "properties": {
    "classname": "info_player_teamspawn",
    "team": "2",
    "targetname": "redspawns",
    "hx": -1280.0,
    "hy": -3008.0,
    "hz": 449.005
   }
  },
  {
   "type": "Feature",
   "geometry": {
    "type": "Point",
    "coordinates": [
     -0.00017523551495064334,
     -0.0005038021054636234
    ]
   },
   "properties": {
    "classname": "info_player_teamspawn",
    "team": "2",
    "targetname": "redspawns",
    "hx": -1024.0,
    "hy": -2944.0,
    "hz": 449.005
   }
  },
  {
   "type": "Feature",
   "geometry": {
    "type": "Point",
    "coordinates": [
     -0.00019713995431947377,
     -0.0005038021054636234
    ]
   },
   "properties": {
    "classname": "info_player_teamspawn",
    "team": "2",
    "targetname": "redspawns",
    "hx": -1152.0,
    "hy": -2944.0,
    "hz": 449.005
   }
  },
  {
   "type": "Feature",
   "geometry": {
    "type": "Point",
    "coordinates": [
     -0.00021904439368830418,
     -0.0005038021054636234
    ]
   },
   "properties": {
    "classname": "info_player_teamspawn",
    "team": "2",
    "targetname": "redspawns",
    "hx": -1280.0,
    "hy": -2944.0,
    "hz": 449.005
   }
  },
  {
   "type": "Feature",
   "geometry": {
    "type": "Point",
    "coordinates": [
     -0.0001533310755818129,
     -0.0005038021054636234
    ]
   },
   "properties": {
    "classname": "info_player_teamspawn",
    "team": "2",
    "targetname": "redspawns",
    "hx": -896.0,
    "hy": -2944.0,
    "hz": 449.005
   }
  },
  {
   "type": "Feature",
   "geometry": {
    "type": "Point",
    "coordinates": [
     -0.00016971285816821613,
     2.875043231264132e-07
    ]
   },
   "properties": {
    "classname": "team_control_point",
    "team": "",
    "targetname": "cp_koth",
    "hx": -991.728,
    "hy": 1.68005,
    "hz": 468.25
   }
  },
  {
   "type": "Feature",
   "geometry": {
    "type": "Point",
    "coordinates": [
     -9.720094969542734e-05,
     0.0
    ]
   },
   "properties": {
    "classname": "item_ammopack_small",
    "team": "",
    "targetname": "",
    "hx": -568.0,
    "hy": 0.0,
    "hz": 155.0
   }
  },
  {
   "type": "Feature",
   "geometry": {
    "type": "Point",
    "coordinates": [
     -3.696545271779799e-05,
     0.0
    ]
   },
   "properties": {
    "classname": "item_healthkit_medium",
    "team": "",
    "targetname": "",
    "hx": -216.01,
    "hy": 0.0,
    "hz": 160.0
   }
  },
  {
   "type": "Feature",
   "geometry": {
    "type": "Point",
    "coordinates": [
     -0.0003258285355987564,
     0.0
    ]
   },
   "properties": {
    "classname": "item_ammopack_medium",
    "team": "",
    "targetname": "",
    "hx": -1904.0,
    "hy": 0.0,
    "hz": 464.0
   }
  },
  {
   "type": "Feature",
   "geometry": {
    "type": "Point",
    "coordinates": [
     -0.0001314266362088265,
     -0.0002149373112983393
    ]
   },
   "properties": {
    "classname": "item_ammopack_medium",
    "team": "",
    "targetname": "",
    "hx": -768.0,
    "hy": -1256.0,
    "hz": 385.235
   }
  },
  {
   "type": "Feature",
   "geometry": {
    "type": "Point",
    "coordinates": [
     -0.00028749576670497416,
     6.571331810395088e-05
    ]
   },
   "properties": {
    "classname": "item_healthkit_small",
    "team": "",
    "targetname": "",
    "hx": -1680.0,
    "hy": 384.0,
    "hz": 467.236
   }
  },
  {
   "type": "Feature",
   "geometry": {
    "type": "Point",
    "coordinates": [
     -0.00030392409623097264,
     6.571331810395088e-05
    ]
   },
   "properties": {
    "classname": "item_ammopack_medium",
    "team": "",
    "targetname": "",
    "hx": -1776.0,
    "hy": 384.0,
    "hz": 467.236
   }
  },
  {
   "type": "Feature",
   "geometry": {
    "type": "Point",
    "coordinates": [
     5.479395507902184e-05,
     3.5973250065801355e-05
    ]
   },
   "properties": {
    "classname": "item_healthkit_small",
    "team": "0",
    "targetname": "",
    "hx": 320.192,
    "hy": 210.212,
    "hz": 392.0
   }
  },
  {
   "type": "Feature",
   "geometry": {
    "type": "Point",
    "coordinates": [
     5.479395507901627e-05,
     2.5021030381809542e-05
    ]
   },
   "properties": {
    "classname": "item_ammopack_small",
    "team": "0",
    "targetname": "",
    "hx": 320.192,
    "hy": 146.212,
    "hz": 392.0
   }
  },
  {
   "type": "Feature",
   "geometry": {
    "type": "Point",
    "coordinates": [
     -0.00012047441652475764,
     -0.0002149373112983393
    ]
   },
   "properties": {
    "classname": "item_healthkit_medium",
    "team": "",
    "targetname": "",
    "hx": -704.0,
    "hy": -1256.0,
    "hz": 385.235
   }
  },
  {
   "type": "Feature",
   "geometry": {
    "type": "Point",
    "coordinates": [
     5.4793955079021616e-05,
     -3.5600190082815385e-05
    ]
   },
   "properties": {
    "classname": "item_healthkit_small",
    "team": "0",
    "targetname": "",
    "hx": 320.192,
    "hy": -208.032,
    "hz": 392.0
   }
  },
  {
   "type": "Feature",
   "geometry": {
    "type": "Point",
    "coordinates": [
     5.47939550790161e-05,
     -2.4647970398823576e-05
    ]
   },
   "properties": {
    "classname": "item_ammopack_small",
    "team": "0",
    "targetname": "",
    "hx": 320.192,
    "hy": -144.032,
    "hz": 392.0
   }
  },
  {
   "type": "Feature",
   "geometry": {
    "type": "Point",
    "coordinates": [
     -0.0001314266362088265,
     0.0002149373112983393
    ]
   },
   "properties": {
    "classname": "item_ammopack_medium",
    "team": "",
    "targetname": "",
    "hx": -768.0,
    "hy": 1256.0,
    "hz": 385.235
   }
  },
  {
   "type": "Feature",
   "geometry": {
    "type": "Point",
    "coordinates": [
     -0.00012047441652475764,
     0.0002149373112983393
    ]
   },
   "properties": {
    "classname": "item_healthkit_medium",
    "team": "",
    "targetname": "",
    "hx": -704.0,
    "hy": 1256.0,
    "hz": 385.235
   }
  },
  {
   "type": "Feature",
   "geometry": {
    "type": "Point",
    "coordinates": [
     -0.00030392409623097264,
     -6.571331810395088e-05
    ]
   },
   "properties": {
    "classname": "item_ammopack_medium",
    "team": "",
    "targetname": "",
    "hx": -1776.0,
    "hy": -384.0,
    "hz": 467.236
   }
  },
  {
   "type": "Feature",
   "geometry": {
    "type": "Point",
    "coordinates": [
     -0.00028749576670497416,
     -6.571331810395088e-05
    ]
   },
   "properties": {
    "classname": "item_healthkit_small",
    "team": "",
    "targetname": "",
    "hx": -1680.0,
    "hy": -384.0,
    "hz": 467.236
   }
  }
 ]
}
