{
 "type": "FeatureCollection",
 "note": "pseudo-WGS84 via crs.local_to_wgs84 ((0,0)m maps to (0,0)deg); viewing only, not survey",
 "features": [
  {
   "type": "Feature",
   "geometry": {
    "type": "Point",
    "coordinates": [
     -0.0005832056982598306,
     0.000991175881401259
    ]
   },
   "properties": {
    "classname": "info_player_teamspawn",
    "team": "3",
    "targetname": "blue_spawn",
    "hx": -3408.0,
    "hy": 5792.0,
    "hz": 32.0
   }
  },
  {
   "type": "Feature",
   "geometry": {
    "type": "Point",
    "coordinates": [
     -0.0005832056982657122,
     0.0010240325404532345
    ]
   },
   "properties": {
    "classname": "info_player_teamspawn",
    "team": "3",
    "targetname": "blue_spawn",
    "hx": -3408.0,
    "hy": 5984.0,
    "hz": 32.0
   }
  },
  {
   "type": "Feature",
   "geometry": {
    "type": "Point",
    "coordinates": [
     -0.0005832056982627474,
     0.0010076042109272469
    ]
   },
   "properties": {
    "classname": "info_player_teamspawn",
    "team": "3",
    "targetname": "blue_spawn",
    "hx": -3408.0,
    "hy": 5888.0,
    "hz": 32.0
   }
  },
  {
   "type": "Feature",
   "geometry": {
    "type": "Point",
    "coordinates": [
     -0.0005667773687371005,
     0.0010240325404532345
    ]
   },
   "properties": {
    "classname": "info_player_teamspawn",
    "team": "3",
    "targetname": "blue_spawn",
    "hx": -3312.0,
    "hy": 5984.0,
    "hz": 32.0
   }
  },
  {
   "type": "Feature",
   "geometry": {
    "type": "Point",
    "coordinates": [
     -0.0005667773687342192,
     0.0010076042109272469
    ]
   },
   "properties": {
    "classname": "info_player_teamspawn",
    "team": "3",
    "targetname": "blue_spawn",
    "hx": -3312.0,
    "hy": 5888.0,
    "hz": 32.0
   }
  },
  {
   "type": "Feature",
   "geometry": {
    "type": "Point",
    "coordinates": [
     -0.0005503490392084889,
     0.0010240325404532345
    ]
   },
   "properties": {
    "classname": "info_player_teamspawn",
    "team": "3",
    "targetname": "blue_spawn",
    "hx": -3216.0,
    "hy": 5984.0,
    "hz": 32.0
   }
  },
  {
   "type": "Feature",
   "geometry": {
    "type": "Point",
    "coordinates": [
     -0.0005503490392056911,
     0.0010076042109272469
    ]
   },
   "properties": {
    "classname": "info_player_teamspawn",
    "team": "3",
    "targetname": "blue_spawn",
    "hx": -3216.0,
    "hy": 5888.0,
    "hz": 32.0
   }
  },
  {
   "type": "Feature",
   "geometry": {
    "type": "Point",
    "coordinates": [
     -0.0005667773687313847,
     0.000991175881401259
    ]
   },
   "properties": {
    "classname": "info_player_teamspawn",
    "team": "3",
    "targetname": "blue_spawn",
    "hx": -3312.0,
    "hy": 5792.0,
    "hz": 32.0
   }
  },
  {
   "type": "Feature",
   "geometry": {
    "type": "Point",
    "coordinates": [
     -0.0005503490392029387,
     0.000991175881401259
    ]
   },
   "properties": {
    "classname": "info_player_teamspawn",
    "team": "3",
    "targetname": "blue_spawn",
    "hx": -3216.0,
    "hy": 5792.0,
    "hz": 32.0
   }
  },
  {
   "type": "Feature",
   "geometry": {
    "type": "Point",
    "coordinates": [
     -0.0006872517852733216,
     0.000991175881401259
    ]
   },
   "properties": {
    "classname": "info_player_teamspawn",
    "team": "3",
    "targetname": "blue_spawn",
    "hx": -4016.0,
    "hy": 5792.0,
    "hz": 32.0
   }
  },
  {
   "type": "Feature",
   "geometry": {
    "type": "Point",
    "coordinates": [
     -0.0006708234557448756,
     0.000991175881401259
    ]
   },
   "properties": {
    "classname": "info_player_teamspawn",
    "team": "3",
    "targetname": "blue_spawn",
    "hx": -3920.0,
    "hy": 5792.0,
    "hz": 32.0
   }
  },
  {
   "type": "Feature",
   "geometry": {
    "type": "Point",
    "coordinates": [
     -0.0006543951262164297,
     0.000991175881401259
    ]
   },
   "properties": {
    "classname": "info_player_teamspawn",
    "team": "3",
    "targetname": "blue_spawn",
    "hx": -3824.0,
    "hy": 5792.0,
    "hz": 32.0
   }
  },
  {
   "type": "Feature",
   "geometry": {
    "type": "Point",
    "coordinates": [
     -0.0006872517852767586,
     0.0010076042109272469
    ]
   },
   "properties": {
    "classname": "info_player_teamspawn",
    "team": "3",
    "targetname": "blue_spawn",
    "hx": -4016.0,
    "hy": 5888.0,
    "hz": 32.0
   }
  },
  {
   "type": "Feature",
   "geometry": {
    "type": "Point",
    "coordinates": [
     -0.0006872517852802523,
     0.0010240325404532345
    ]
   },
   "properties": {
    "classname": "info_player_teamspawn",
    "team": "3",
    "targetname": "blue_spawn",
    "hx": -4016.0,
    "hy": 5984.0,
    "hz": 32.0
   }
  },
  {
   "type": "Feature",
   "geometry": {
    "type": "Point",
    "coordinates": [
     -0.0006708234557482305,
     0.0010076042109272469
    ]
   },
   "properties": {
    "classname": "info_player_teamspawn",
    "team": "3",
    "targetname": "blue_spawn",
    "hx": -3920.0,
    "hy": 5888.0,
    "hz": 32.0
   }
  },
  {
   "type": "Feature",
   "geometry": {
    "type": "Point",
    "coordinates": [
     -0.0006708234557516407,
     0.0010240325404532345
    ]
   },
   "properties": {
    "classname": "info_player_teamspawn",
    "team": "3",
    "targetname": "blue_spawn",
    "hx": -3920.0,
    "hy": 5984.0,
    "hz": 32.0
   }
  },
  {
   "type": "Feature",
   "geometry": {
    "type": "Point",
    "coordinates": [
     -0.0006543951262230291,
     0.0010240325404532345
    ]
   },
   "properties": {
    "classname": "info_player_teamspawn",
    "team": "3",
    "targetname": "blue_spawn",
    "hx": -3824.0,
    "hy": 5984.0,
    "hz": 32.0
   }
  },
  {
   "type": "Feature",
   "geometry": {
    "type": "Point",
    "coordinates": [
     -0.0006543951262197023,
     0.0010076042109272469
    ]
   },
   "properties": {
    "classname": "info_player_teamspawn",
    "team": "3",
    "targetname": "blue_spawn",
    "hx": -3824.0,
    "hy": 5888.0,
    "hz": 32.0
   }
  },
  {
   "type": "Feature",
   "geometry": {
    "type": "Point",
    "coordinates": [
     -0.0004894273171332697,
     0.0002560081351133086
    ]
   },
   "properties": {
    "classname": "item_healthkit_medium",
    "team": "",
    "targetname": "",
    "hx": -2860.0,
    "hy": 1496.0,
    "hz": 48.0
   }
  },
  {
   "type": "Feature",
   "geometry": {
    "type": "Point",
    "coordinates": [
     -0.0004825821798307065,
     0.0002560081351133086
    ]
   },
   "properties": {
    "classname": "item_ammopack_medium",
    "team": "",
    "targetname": "",
    "hx": -2820.0,
    "hy": 1496.0,
    "hz": 48.0
   }
  },
  {
   "type": "Feature",
   "geometry": {
    "type": "Point",
    "coordinates": [
     -0.0009364147830060038,
     0.00041618434799168885
    ]
   },
   "properties": {
    "classname": "item_healthkit_medium",
    "team": "",
    "targetname": "",
    "hx": -5472.0,
    "hy": 2432.0,
    "hz": -16.0
   }
  },
  {
   "type": "Feature",
   "geometry": {
    "type": "Point",
    "coordinates": [
     -0.0006692832997623619,
     0.00032736869149181777
    ]
   },
   "properties": {
    "classname": "item_healthkit_small",
    "team": "",
    "targetname": "",
    "hx": -3911.0,
    "hy": 1913.0,
    "hz": -80.0
   }
  },
  {
   "type": "Feature",
   "geometry": {
    "type": "Point",
    "coordinates": [
     -0.0006750913987632361,
     0.0003215605924906508
    ]
   },
   "properties": {
    "classname": "item_ammopack_medium",
    "team": "0",
    "targetname": "",
    "hx": -3944.94,
    "hy": 1879.06,
    "hz": -80.0
   }
  },
  {
   "type": "Feature",
   "geometry": {
    "type": "Point",
    "coordinates": [
     -0.0008159403664789156,
     0.00041618434799168885
    ]
   },
   "properties": {
    "classname": "item_ammopack_medium",
    "team": "",
    "targetname": "",
    "hx": -4768.0,
    "hy": 2432.0,
    "hz": 80.0
   }
  },
  {
   "type": "Feature",
   "geometry": {
    "type": "Point",
    "coordinates": [
     -0.0007009420597939677,
     0.00041618434799168885
    ]
   },
   "properties": {
    "classname": "team_control_point",
    "team": "",
    "targetname": "control_point_1",
    "hx": -4096.0,
    "hy": 2432.0,
    "hz": 20.0
   }
  },
  {
   "type": "Feature",
   "geometry": {
    "type": "Point",
    "coordinates": [
     -0.000798143009484164,
     0.0003302778748453781
    ]
   },
   "properties": {
    "classname": "item_healthkit_small",
    "team": "",
    "targetname": "",
    "hx": -4664.0,
    "hy": 1930.0,
    "hz": 80.0
   }
  },
  {
   "type": "Feature",
   "geometry": {
    "type": "Point",
    "coordinates": [
     -0.000489427317153147,
     0.0005763605608700692
    ]
   },
   "properties": {
    "classname": "item_healthkit_medium",
    "team": "",
    "targetname": "",
    "hx": -2860.0,
    "hy": 3368.0,
    "hz": 48.0
   }
  },
  {
   "type": "Feature",
   "geometry": {
    "type": "Point",
    "coordinates": [
     -0.00048258217985030577,
     0.0005763605608700692
    ]
   },
   "properties": {
    "classname": "item_ammopack_medium",
    "team": "",
    "targetname": "",
    "hx": -2820.0,
    "hy": 3368.0,
    "hz": 48.0
   }
  },
  {
   "type": "Feature",
   "geometry": {
    "type": "Point",
    "coordinates": [
     -0.0006751016664853883,
     0.0005108183711986806
    ]
   },
   "properties": {
    "classname": "item_ammopack_medium",
    "team": "0",
    "targetname": "",
    "hx": -3945.0,
    "hy": 2985.0,
    "hz": -80.0
   }
  },
  {
   "type": "Feature",
   "geometry": {
    "type": "Point",
    "coordinates": [
     -0.0006692832997774338,
     0.00050500000449156
    ]
   },
   "properties": {
    "classname": "item_healthkit_small",
    "team": "",
    "targetname": "",
    "hx": -3911.0,
    "hy": 2951.0,
    "hz": -80.0
   }
  },
  {
   "type": "Feature",
   "geometry": {
    "type": "Point",
    "coordinates": [
     -0.00042268722844050543,
     0.0004216604578336847
    ]
   },
   "properties": {
    "classname": "item_ammopack_full",
    "team": "",
    "targetname": "",
    "hx": -2470.0,
    "hy": 2464.0,
    "hz": 80.0
   }
  },
  {
   "type": "Feature",
   "geometry": {
    "type": "Point",
    "coordinates": [
     -0.0004226872284399185,
     0.0004107082381496929
    ]
   },
   "properties": {
    "classname": "item_healthkit_medium",
    "team": "",
    "targetname": "",
    "hx": -2470.0,
    "hy": 2400.0,
    "hz": 80.0
   }
  },
  {
   "type": "Feature",
   "geometry": {
    "type": "Point",
    "coordinates": [
     -0.000744750938559209,
     0.0006489190162765148
    ]
   },
   "properties": {
    "classname": "item_healthkit_medium",
    "team": "",
    "targetname": "",
    "hx": -4352.0,
    "hy": 3792.0,
    "hz": -14.0
   }
  },
  {
   "type": "Feature",
   "geometry": {
    "type": "Point",
    "coordinates": [
     -0.0007557031582439033,
     0.0006489190162765148
    ]
   },
   "properties": {
    "classname": "item_ammopack_medium",
    "team": "",
    "targetname": "",
    "hx": -4416.0,
    "hy": 3792.0,
    "hz": -14.0
   }
  },
  {
   "type": "Feature",
   "geometry": {
    "type": "Point",
    "coordinates": [
     -0.0006543951261221721,
     -0.0001916638444698567
    ]
   },
   "properties": {
    "classname": "info_player_teamspawn",
    "team": "2",
    "targetname": "red_spawn",
    "hx": -3824.0,
    "hy": -1120.0,
    "hz": 32.0
   }
  },
  {
   "type": "Feature",
   "geometry": {
    "type": "Point",
    "coordinates": [
     -0.0006708234556482517,
     -0.0001916638444698567
    ]
   },
   "properties": {
    "classname": "info_player_teamspawn",
    "team": "2",
    "targetname": "red_spawn",
    "hx": -3920.0,
    "hy": -1120.0,
    "hz": 32.0
   }
  },
  {
   "type": "Feature",
   "geometry": {
    "type": "Point",
    "coordinates": [
     -0.0006872517851743314,
     -0.0001916638444698567
    ]
   },
   "properties": {
    "classname": "info_player_teamspawn",
    "team": "2",
    "targetname": "red_spawn",
    "hx": -4016.0,
    "hy": -1120.0,
    "hz": 32.0
   }
  },
  {
   "type": "Feature",
   "geometry": {
    "type": "Point",
    "coordinates": [
     -0.0006543951261215714,
     -0.000175235514943869
    ]
   },
   "properties": {
    "classname": "info_player_teamspawn",
    "team": "2",
    "targetname": "red_spawn",
    "hx": -3824.0,
    "hy": -1024.0,
    "hz": 32.0
   }
  },
  {
   "type": "Feature",
   "geometry": {
    "type": "Point",
    "coordinates": [
     -0.000670823455647636,
     -0.000175235514943869
    ]
   },
   "properties": {
    "classname": "info_player_teamspawn",
    "team": "2",
    "targetname": "red_spawn",
    "hx": -3920.0,
    "hy": -1024.0,
    "hz": 32.0
   }
  },
  {
   "type": "Feature",
   "geometry": {
    "type": "Point",
    "coordinates": [
     -0.0006872517851737005,
     -0.000175235514943869
    ]
   },
   "properties": {
    "classname": "info_player_teamspawn",
    "team": "2",
    "targetname": "red_spawn",
    "hx": -4016.0,
    "hy": -1024.0,
    "hz": 32.0
   }
  },
  {
   "type": "Feature",
   "geometry": {
    "type": "Point",
    "coordinates": [
     -0.0006543951261210243,
     -0.00015880718541788126
    ]
   },
   "properties": {
    "classname": "info_player_teamspawn",
    "team": "2",
    "targetname": "red_spawn",
    "hx": -3824.0,
    "hy": -928.0,
    "hz": 32.0
   }
  },
  {
   "type": "Feature",
   "geometry": {
    "type": "Point",
    "coordinates": [
     -0.0006708234556470752,
     -0.00015880718541788126
    ]
   },
   "properties": {
    "classname": "info_player_teamspawn",
    "team": "2",
    "targetname": "red_spawn",
    "hx": -3920.0,
    "hy": -928.0,
    "hz": 32.0
   }
  },
  {
   "type": "Feature",
   "geometry": {
    "type": "Point",
    "coordinates": [
     -0.000687251785173126,
     -0.00015880718541788126
    ]
   },
   "properties": {
    "classname": "info_player_teamspawn",
    "team": "2",
    "targetname": "red_spawn",
    "hx": -4016.0,
    "hy": -928.0,
    "hz": 32.0
   }
  },
  {
   "type": "Feature",
   "geometry": {
    "type": "Point",
    "coordinates": [
     -0.0005503490391236677,
     -0.0001916638444698567
    ]
   },
   "properties": {
    "classname": "info_player_teamspawn",
    "team": "2",
    "targetname": "red_spawn",
    "hx": -3216.0,
    "hy": -1120.0,
    "hz": 32.0
   }
  },
  {
   "type": "Feature",
   "geometry": {
    "type": "Point",
    "coordinates": [
     -0.0005667773686497474,
     -0.0001916638444698567
    ]
   },
   "properties": {
    "classname": "info_player_teamspawn",
    "team": "2",
    "targetname": "red_spawn",
    "hx": -3312.0,
    "hy": -1120.0,
    "hz": 32.0
   }
  },
  {
   "type": "Feature",
   "geometry": {
    "type": "Point",
    "coordinates": [
     -0.0005832056981758271,
     -0.0001916638444698567
    ]
   },
   "properties": {
    "classname": "info_player_teamspawn",
    "team": "2",
    "targetname": "red_spawn",
    "hx": -3408.0,
    "hy": -1120.0,
    "hz": 32.0
   }
  },
  {
   "type": "Feature",
   "geometry": {
    "type": "Point",
    "coordinates": [
     -0.0005503490391231626,
     -0.000175235514943869
    ]
   },
   "properties": {
    "classname": "info_player_teamspawn",
    "team": "2",
    "targetname": "red_spawn",
    "hx": -3216.0,
    "hy": -1024.0,
    "hz": 32.0
   }
  },
  {
   "type": "Feature",
   "geometry": {
    "type": "Point",
    "coordinates": [
     -0.0005667773686492271,
     -0.000175235514943869
    ]
   },
   "properties": {
    "classname": "info_player_teamspawn",
    "team": "2",
    "targetname": "red_spawn",
    "hx": -3312.0,
    "hy": -1024.0,
    "hz": 32.0
   }
  },
  {
   "type": "Feature",
   "geometry": {
    "type": "Point",
    "coordinates": [
     -0.0005832056981752917,
     -0.000175235514943869
    ]
   },
   "properties": {
    "classname": "info_player_teamspawn",
    "team": "2",
    "targetname": "red_spawn",
    "hx": -3408.0,
    "hy": -1024.0,
    "hz": 32.0
   }
  },
  {
   "type": "Feature",
   "geometry": {
    "type": "Point",
    "coordinates": [
     -0.0005503490391227025,
     -0.00015880718541788126
    ]
   },
   "properties": {
    "classname": "info_player_teamspawn",
    "team": "2",
    "targetname": "red_spawn",
    "hx": -3216.0,
    "hy": -928.0,
    "hz": 32.0
   }
  },
  {
   "type": "Feature",
   "geometry": {
    "type": "Point",
    "coordinates": [
     -0.0005667773686487533,
     -0.00015880718541788126
    ]
   },
   "properties": {
    "classname": "info_player_teamspawn",
    "team": "2",
    "targetname": "red_spawn",
    "hx": -3312.0,
    "hy": -928.0,
    "hz": 32.0
   }
  },
  {
   "type": "Feature",
   "geometry": {
    "type": "Point",
    "coordinates": [
     -0.0005832056981748043,
     -0.00015880718541788126
    ]
   },
   "properties": {
    "classname": "info_player_teamspawn",
    "team": "2",
    "targetname": "red_spawn",
    "hx": -3408.0,
    "hy": -928.0,
    "hz": 32.0
   }
  },
  {
   "type": "Feature",
   "geometry": {
    "type": "Point",
    "coordinates": [
     -0.0007447509385152606,
     0.00018344967970686287
    ]
   },
   "properties": {
    "classname": "item_healthkit_medium",
    "team": "",
    "targetname": "",
    "hx": -4352.0,
    "hy": 1072.0,
    "hz": -14.0
   }
  },
  {
   "type": "Feature",
   "geometry": {
    "type": "Point",
    "coordinates": [
     -0.0007557031581993086,
     0.00018344967970686287
    ]
   },
   "properties": {
    "classname": "item_ammopack_medium",
    "team": "",
    "targetname": "",
    "hx": -4416.0,
    "hy": 1072.0,
    "hz": -14.0
   }
  },
  {
   "type": "Feature",
   "geometry": {
    "type": "Point",
    "coordinates": [
     -0.0007981430095015491,
     0.0005020908211379997
    ]
   },
   "properties": {
    "classname": "item_healthkit_small",
    "team": "",
    "targetname": "",
    "hx": -4664.0,
    "hy": 2934.0,
    "hz": 80.0
   }
  },
  {
   "type": "Feature",
   "geometry": {
    "type": "Point",
    "coordinates": [
     -0.0002313656408250552,
     0.00014374788335239254
    ]
   },
   "properties": {
    "classname": "item_healthkit_medium",
    "team": "",
    "targetname": "",
    "hx": -1352.0,
    "hy": 840.0,
    "hz": -4848.0
   }
  },
  {
   "type": "Feature",
   "geometry": {
    "type": "Point",
    "coordinates": [
     -5.476109841997132e-06,
     3.833276889397134e-05
    ]
   },
   "properties": {
    "classname": "item_healthkit_medium",
    "team": "",
    "targetname": "",
    "hx": -32.0,
    "hy": 224.0,
    "hz": -5056.0
   }
  },
  {
   "type": "Feature",
   "geometry": {
    "type": "Point",
    "coordinates": [
     -0.00011499830668198349,
     6.297526318295293e-05
    ]
   },
   "properties": {
    "classname": "item_healthkit_small",
    "team": "",
    "targetname": "",
    "hx": -672.0,
    "hy": 368.0,
    "hz": -4848.0
   }
  },
  {
   "type": "Feature",
   "geometry": {
    "type": "Point",
    "coordinates": [
     -0.00012663504009741944,
     0.0002560081351133086
    ]
   },
   "properties": {
    "classname": "item_healthkit_small",
    "team": "",
    "targetname": "",
    "hx": -740.0,
    "hy": 1496.0,
    "hz": -4848.0
   }
  },
  {
   "type": "Feature",
   "geometry": {
    "type": "Point",
    "coordinates": [
     -0.0007064181696275901,
     0.0003066621511517707
    ]
   },
   "properties": {
    "classname": "item_healthkit_small",
    "team": "",
    "targetname": "",
    "hx": -4128.0,
    "hy": 1792.0,
    "hz": 16.0
   }
  },
  {
   "type": "Feature",
   "geometry": {
    "type": "Point",
    "coordinates": [
     -0.0007064181696472072,
     0.000525706544831607
    ]
   },
   "properties": {
    "classname": "item_healthkit_small",
    "team": "",
    "targetname": "",
    "hx": -4128.0,
    "hy": 3072.0,
    "hz": 16.0
   }
  }
 ]
}
