{
 "type": "FeatureCollection",
 "note": "pseudo-WGS84 via crs.local_to_wgs84 ((0,0)m maps to (0,0)deg); viewing only, not survey",
 "features": [
  {
   "type": "Feature",
   "geometry": {
    "type": "Point",
    "coordinates": [
     0.0,
     0.0004942189132401306
    ]
   },
   "properties": {
    "classname": "info_player_teamspawn",
    "team": "3",
    "targetname": "spawnbot_tunnel_main",
    "hx": 0.0,
    "hy": 2888.0,
    "hz": 352.0
   }
  },
  {
   "type": "Feature",
   "geometry": {
    "type": "Point",
    "coordinates": [
     -1.0952219684351107e-05,
     0.00046410030910915305
    ]
   },
   "properties": {
    "classname": "info_player_teamspawn",
    "team": "3",
    "targetname": "spawnbot_short",
    "hx": -64.0,
    "hy": 2712.0,
    "hz": 880.0
   }
  },
  {
   "type": "Feature",
   "geometry": {
    "type": "Point",
    "coordinates": [
     0.00011773636160714933,
     0.00048610400296802286
    ]
   },
   "properties": {
    "classname": "info_player_teamspawn",
    "team": "3",
    "targetname": "spawnbot_short",
    "hx": 688.0,
    "hy": 2840.58,
    "hz": 928.0
   }
  },
  {
   "type": "Feature",
   "geometry": {
    "type": "Point",
    "coordinates": [
     -2.9552169019436513e-05,
     -0.00023114317386199596
    ]
   },
   "properties": {
    "classname": "item_ammopack_medium",
    "team": "0",
    "targetname": "",
    "hx": -172.69,
    "hy": -1350.7,
    "hz": 420.211
   }
  },
  {
   "type": "Feature",
   "geometry": {
    "type": "Point",
    "coordinates": [
     0.00022041342114033623,
     -5.476109841995906e-06
    ]
   },
   "properties": {
    "classname": "item_ammopack_medium",
    "team": "0",
    "targetname": "",
    "hx": 1288.0,
    "hy": -32.0,
    "hz": 546.211
   }
  },
  {
   "type": "Feature",
   "geometry": {
    "type": "Point",
    "coordinates": [
     0.00022041342114033623,
     5.476109841995906e-06
    ]
   },
   "properties": {
    "classname": "item_healthkit_medium",
    "team": "0",
    "targetname": "",
    "hx": 1288.0,
    "hy": 32.0,
    "hz": 546.211
   }
  },
  {
   "type": "Feature",
   "geometry": {
    "type": "Point",
    "coordinates": [
     -2.738054920999754e-06,
     -6.571331810395088e-05
    ]
   },
   "properties": {
    "classname": "item_ammopack_small",
    "team": "0",
    "targetname": "",
    "hx": -16.0,
    "hy": -384.0,
    "hz": 578.211
   }
  },
  {
   "type": "Feature",
   "geometry": {
    "type": "Point",
    "coordinates": [
     -1.3690274604998769e-05,
     -6.571331810395088e-05
    ]
   },
   "properties": {
    "classname": "item_healthkit_full",
    "team": "0",
    "targetname": "",
    "hx": -80.0,
    "hy": -384.0,
    "hz": 578.211
   }
  },
  {
   "type": "Feature",
   "geometry": {
    "type": "Point",
    "coordinates": [
     -0.0001519620481198146,
     -0.00043740427362942295
    ]
   },
   "properties": {
    "classname": "info_player_teamspawn",
    "team": "2",
    "targetname": "respawnpoints",
    "hx": -888.0,
    "hy": -2556.0,
    "hz": 498.0
   }
  },
  {
   "type": "Feature",
   "geometry": {
    "type": "Point",
    "coordinates": [
     -0.0001656523227252033,
     -0.00043740427362942295
    ]
   },
   "properties": {
    "classname": "info_player_teamspawn",
    "team": "2",
    "targetname": "respawnpoints",
    "hx": -968.0,
    "hy": -2556.0,
    "hz": 498.0
   }
  },
  {
   "type": "Feature",
   "geometry": {
    "type": "Point",
    "coordinates": [
     -0.00013827177351442588,
     -0.00043740427362942295
    ]
   },
   "properties": {
    "classname": "info_player_teamspawn",
    "team": "2",
    "targetname": "respawnpoints",
    "hx": -808.0,
    "hy": -2556.0,
    "hz": 498.0
   }
  },
  {
   "type": "Feature",
   "geometry": {
    "type": "Point",
    "coordinates": [
     -0.00016086072661361525,
     -0.00045109454823441276
    ]
   },
   "properties": {
    "classname": "info_player_teamspawn",
    "team": "2",
    "targetname": "respawnpoints",
    "hx": -940.0,
    "hy": -2636.0,
    "hz": 498.0
   }
  },
  {
   "type": "Feature",
   "geometry": {
    "type": "Point",
    "coordinates": [
     -0.00014717045200820117,
     -0.00045109454823441276
    ]
   },
   "properties": {
    "classname": "info_player_teamspawn",
    "team": "2",
    "targetname": "respawnpoints",
    "hx": -860.0,
    "hy": -2636.0,
    "hz": 498.0
   }
  },
  {
   "type": "Feature",
   "geometry": {
    "type": "Point",
    "coordinates": [
     0.00011773636160626807,
     -0.00043261267751767654
    ]
   },
   "properties": {
    "classname": "info_player_teamspawn",
    "team": "2",
    "targetname": "respawnpoints",
    "hx": 688.0,
    "hy": -2528.0,
    "hz": 498.0
   }
  },
  {
   "type": "Feature",
   "geometry": {
    "type": "Point",
    "coordinates": [
     0.0001314266362116481,
     -0.00043261267751767654
    ]
   },
   "properties": {
    "classname": "info_player_teamspawn",
    "team": "2",
    "targetname": "respawnpoints",
    "hx": 768.0,
    "hy": -2528.0,
    "hz": 498.0
   }
  },
  {
   "type": "Feature",
   "geometry": {
    "type": "Point",
    "coordinates": [
     0.00010404608700088806,
     -0.00043261267751767654
    ]
   },
   "properties": {
    "classname": "info_player_teamspawn",
    "team": "2",
    "targetname": "respawnpoints",
    "hx": 608.0,
    "hy": -2528.0,
    "hz": 498.0
   }
  },
  {
   "type": "Feature",
   "geometry": {
    "type": "Point",
    "coordinates": [
     0.00012321247144855471,
     -0.0004408268422806704
    ]
   },
   "properties": {
    "classname": "info_player_teamspawn",
    "team": "2",
    "targetname": "respawnpoints",
    "hx": 720.0,
    "hy": -2576.0,
    "hz": 498.0
   }
  },
  {
   "type": "Feature",
   "geometry": {
    "type": "Point",
    "coordinates": [
     0.00011226025176423873,
     -0.0004408268422806704
    ]
   },
   "properties": {
    "classname": "info_player_teamspawn",
    "team": "2",
    "targetname": "respawnpoints",
    "hx": 656.0,
    "hy": -2576.0,
    "hz": 498.0
   }
  },
  {
   "type": "Feature",
   "geometry": {
    "type": "Point",
    "coordinates": [
     -0.00020466960534474597,
     -6.913588675519832e-05
    ]
   },
   "properties": {
    "classname": "item_ammopack_full",
    "team": "0",
    "targetname": "",
    "hx": -1196.0,
    "hy": -404.0,
    "hz": 738.211
   }
  },
  {
   "type": "Feature",
   "geometry": {
    "type": "Point",
    "coordinates": [
     -0.00020188876831589217,
     -0.00011876313219828621
    ]
   },
   "properties": {
    "classname": "item_healthkit_full",
    "team": "0",
    "targetname": "",
    "hx": -1179.75,
    "hy": -694.0,
    "hz": 738.211
   }
  },
  {
   "type": "Feature",
   "geometry": {
    "type": "Point",
    "coordinates": [
     0.0001040460869981736,
     0.00012595052636590586
    ]
   },
   "properties": {
    "classname": "item_ammopack_full",
    "team": "0",
    "targetname": "",
    "hx": 608.0,
    "hy": 736.0,
    "hz": 546.211
   }
  },
  {
   "type": "Feature",
   "geometry": {
    "type": "Point",
    "coordinates": [
     9.309386731415533e-05,
     0.00012595052636590586
    ]
   },
   "properties": {
    "classname": "item_healthkit_medium",
    "team": "0",
    "targetname": "",
    "hx": 544.0,
    "hy": 736.0,
    "hz": 546.211
   }
  },
  {
   "type": "Feature",
   "geometry": {
    "type": "Point",
    "coordinates": [
     -0.00014237885589244044,
     0.00015880718541788126
    ]
   },
   "properties": {
    "classname": "item_ammopack_medium",
    "team": "0",
    "targetname": "",
    "hx": -832.0,
    "hy": 928.0,
    "hz": 577.211
   }
  },
  {
   "type": "Feature",
   "geometry": {
    "type": "Point",
    "coordinates": [
     -0.00015333107557647432,
     0.00015880718541788126
    ]
   },
   "properties": {
    "classname": "item_healthkit_medium",
    "team": "0",
    "targetname": "",
    "hx": -896.0,
    "hy": 928.0,
    "hz": 577.211
   }
  },
  {
   "type": "Feature",
   "geometry": {
    "type": "Point",
    "coordinates": [
     9.856997715643912e-05,
     0.00018481870716736184
    ]
   },
   "properties": {
    "classname": "item_healthkit_medium",
    "team": "0",
    "targetname": "",
    "hx": 576.0,
    "hy": 1080.0,
    "hz": 353.211
   }
  },
  {
   "type": "Feature",
   "geometry": {
    "type": "Point",
    "coordinates": [
     2.7380549209987532e-05,
     -4.380887873596725e-05
    ]
   },
   "properties": {
    "classname": "item_ammopack_medium",
    "team": "0",
    "targetname": "",
    "hx": 160.0,
    "hy": -256.0,
    "hz": 354.211
   }
  },
  {
   "type": "Feature",
   "geometry": {
    "type": "Point",
    "coordinates": [
     -1.6599475071528284e-05,
     -0.00023102338395920228
    ]
   },
   "properties": {
    "classname": "item_healthkit_medium",
    "team": "0",
    "targetname": "",
    "hx": -97.0001,
    "hy": -1350.0,
    "hz": 418.211
   }
  },
  {
   "type": "Feature",
   "geometry": {
    "type": "Point",
    "coordinates": [
     -0.00012047441652688255,
     0.0004024940733866991
    ]
   },
   "properties": {
    "classname": "info_player_teamspawn",
    "team": "3",
    "targetname": "spawnbot_invasion",
    "hx": -704.0,
    "hy": 2352.0,
    "hz": 800.0
   }
  },
  {
   "type": "Feature",
   "geometry": {
    "type": "Point",
    "coordinates": [
     0.00011606580584707654,
     0.0004007040699820967
    ]
   },
   "properties": {
    "classname": "info_player_teamspawn",
    "team": "3",
    "targetname": "spawnbot_invasion",
    "hx": 678.238,
    "hy": 2341.54,
    "hz": 800.99
   }
  },
  {
   "type": "Feature",
   "geometry": {
    "type": "Point",
    "coordinates": [
     -1.2321247145254582e-05,
     0.0006379667965925231
    ]
   },
   "properties": {
    "classname": "info_player_teamspawn",
    "team": "3",
    "targetname": "spawnbot_invasion",
    "hx": -72.0,
    "hy": 3728.0,
    "hz": 1105.0
   }
  },
  {
   "type": "Feature",
   "geometry": {
    "type": "Point",
    "coordinates": [
     8.214164763451955e-05,
     0.0006051101375405476
    ]
   },
   "properties": {
    "classname": "info_player_teamspawn",
    "team": "3",
    "targetname": "spawnbot",
    "hx": 480.0,
    "hy": 3536.0,
    "hz": 1105.0
   }
  },
  {
   "type": "Feature",
   "geometry": {
    "type": "Point",
    "coordinates": [
     -0.00010678414192520316,
     0.0006215384670665353
    ]
   },
   "properties": {
    "classname": "info_player_teamspawn",
    "team": "3",
    "targetname": "spawnbot",
    "hx": -624.0,
    "hy": 3632.0,
    "hz": 1105.0
   }
  },
  {
   "type": "Feature",
   "geometry": {
    "type": "Point",
    "coordinates": [
     -1.5059302066422266e-05,
     0.0006379667965925231
    ]
   },
   "properties": {
    "classname": "info_player_teamspawn",
    "team": "3",
    "targetname": "spawnbot",
    "hx": -88.0,
    "hy": 3728.0,
    "hz": 1105.0
   }
  },
  {
   "type": "Feature",
   "geometry": {
    "type": "Point",
    "coordinates": [
     0.00011058969600494672,
     0.0004007040699820967
    ]
   },
   "properties": {
    "classname": "info_player_teamspawn",
    "team": "3",
    "targetname": "spawnbot_mission_sniper",
    "hx": 646.238,
    "hy": 2341.54,
    "hz": 800.99
   }
  },
  {
   "type": "Feature",
   "geometry": {
    "type": "Point",
    "coordinates": [
     -0.00011499830668475151,
     0.0004024940733866991
    ]
   },
   "properties": {
    "classname": "info_player_teamspawn",
    "team": "3",
    "targetname": "spawnbot_mission_sniper",
    "hx": -672.0,
    "hy": 2352.0,
    "hz": 800.0
   }
  },
  {
   "type": "Feature",
   "geometry": {
    "type": "Point",
    "coordinates": [
     -0.00011773636160581704,
     0.0004024940733866991
    ]
   },
   "properties": {
    "classname": "info_player_teamspawn",
    "team": "3",
    "targetname": "spawnbot_mission_spy",
    "hx": -688.0,
    "hy": 2352.0,
    "hz": 800.0
   }
  },
  {
   "type": "Feature",
   "geometry": {
    "type": "Point",
    "coordinates": [
     0.00011332775092601163,
     0.0004007040699820967
    ]
   },
   "properties": {
    "classname": "info_player_teamspawn",
    "team": "3",
    "targetname": "spawnbot_mission_spy",
    "hx": 662.238,
    "hy": 2341.54,
    "hz": 800.99
   }
  },
  {
   "type": "Feature",
   "geometry": {
    "type": "Point",
    "coordinates": [
     -5.647255387447441e-06,
     -0.00023102338395920228
    ]
   },
   "properties": {
    "classname": "item_ammopack_medium",
    "team": "0",
    "targetname": "",
    "hx": -33.0001,
    "hy": -1350.0,
    "hz": 418.211
   }
  },
  {
   "type": "Feature",
   "geometry": {
    "type": "Point",
    "coordinates": [
     -1.369027460583297e-05,
     0.0006359132554017746
    ]
   },
   "properties": {
    "classname": "info_player_teamspawn",
    "team": "3",
    "targetname": "spawnbot_single_flag",
    "hx": -80.0,
    "hy": 3716.0,
    "hz": 1105.0
   }
  },
  {
   "type": "Feature",
   "geometry": {
    "type": "Point",
    "coordinates": [
     -0.00012321247144794805,
     0.0004024940733866991
    ]
   },
   "properties": {
    "classname": "info_player_teamspawn",
    "team": "3",
    "targetname": "spawnbot_right",
    "hx": -720.0,
    "hy": 2352.0,
    "hz": 800.0
   }
  },
  {
   "type": "Feature",
   "geometry": {
    "type": "Point",
    "coordinates": [
     0.00011880386076814144,
     0.0004007040699820967
    ]
   },
   "properties": {
    "classname": "info_player_teamspawn",
    "team": "3",
    "targetname": "spawnbot_left",
    "hx": 694.238,
    "hy": 2341.54,
    "hz": 800.99
   }
  }
 ]
}
