{
 "type": "FeatureCollection",
 "note": "pseudo-WGS84 via crs.local_to_wgs84 ((0,0)m maps to (0,0)deg); viewing only, not survey",
 "features": [
  {
   "type": "Feature",
   "geometry": {
    "type": "Point",
    "coordinates": [
     -0.00018344967970812507,
     -0.0002125415132424661
    ]
   },
   "properties": {
    "classname": "team_control_point",
    "team": "",
    "targetname": "train_cp_A",
    "hx": -1072.0,
    "hy": -1242.0,
    "hz": 0.0
   }
  },
  {
   "type": "Feature",
   "geometry": {
    "type": "Point",
    "coordinates": [
     -0.00019987800923422584,
     -0.0002125415132424661
    ]
   },
   "properties": {
    "classname": "team_control_point",
    "team": "",
    "targetname": "train_cp_B",
    "hx": -1168.0,
    "hy": -1242.0,
    "hz": 0.0
   }
  },
  {
   "type": "Feature",
   "geometry": {
    "type": "Point",
    "coordinates": [
     -0.00021630633876032655,
     -0.0002125415132424661
    ]
   },
   "properties": {
    "classname": "team_control_point",
    "team": "",
    "targetname": "train_cp_C",
    "hx": -1264.0,
    "hy": -1242.0,
    "hz": 0.0
   }
  },
  {
   "type": "Feature",
   "geometry": {
    "type": "Point",
    "coordinates": [
     -0.00018344967970812507,
     -0.0002125415132424661
    ]
   },
   "properties": {
    "classname": "team_control_point",
    "team": "",
    "targetname": "train_hidden_A",
    "hx": -1072.0,
    "hy": -1242.0,
    "hz": 193.0
   }
  },
  {
   "type": "Feature",
   "geometry": {
    "type": "Point",
    "coordinates": [
     -0.00019987800923422584,
     -0.0002125415132424661
    ]
   },
   "properties": {
    "classname": "team_control_point",
    "team": "",
    "targetname": "train_hidden_B",
    "hx": -1168.0,
    "hy": -1242.0,
    "hz": 193.0
   }
  },
  {
   "type": "Feature",
   "geometry": {
    "type": "Point",
    "coordinates": [
     -0.00021630633876032655,
     -0.0002125415132424661
    ]
   },
   "properties": {
    "classname": "team_control_point",
    "team": "",
    "targetname": "train_hidden_C",
    "hx": -1264.0,
    "hy": -1242.0,
    "hz": 193.0
   }
  },
  {
   "type": "Feature",
   "geometry": {
    "type": "Point",
    "coordinates": [
     -0.0002327346682864299,
     -0.00021271264167502845
    ]
   },
   "properties": {
    "classname": "team_control_point",
    "team": "",
    "targetname": "train_cp_D",
    "hx": -1360.0,
    "hy": -1243.0,
    "hz": 0.0
   }
  },
  {
   "type": "Feature",
   "geometry": {
    "type": "Point",
    "coordinates": [
     -0.0002327346682864299,
     -0.00021271264167502845
    ]
   },
   "properties": {
    "classname": "team_control_point",
    "team": "",
    "targetname": "train_hidden_D",
    "hx": -1360.0,
    "hy": -1243.0,
    "hz": 193.0
   }
  },
  {
   "type": "Feature",
   "geometry": {
    "type": "Point",
    "coordinates": [
     0.00021904439368143698,
     0.00021904439367983623
    ]
   },
   "properties": {
    "classname": "info_player_teamspawn",
    "team": "2",
    "targetname": "spawnpoint_mvm",
    "hx": 1280.0,
    "hy": 1280.0,
    "hz": 128.0
   }
  },
  {
   "type": "Feature",
   "geometry": {
    "type": "Point",
    "coordinates": [
     -0.00013895628724084046,
     -9.583192223492836e-05
    ]
   },
   "properties": {
    "classname": "item_healthkit_small",
    "team": "",
    "targetname": "",
    "hx": -812.0,
    "hy": -560.0,
    "hz": -191.764
   }
  },
  {
   "type": "Feature",
   "geometry": {
    "type": "Point",
    "coordinates": [
     -0.00014580142454334496,
     -9.583192223492836e-05
    ]
   },
   "properties": {
    "classname": "item_ammopack_small",
    "team": "0",
    "targetname": "",
    "hx": -852.0,
    "hy": -560.0,
    "hz": -191.015
   }
  },
  {
   "type": "Feature",
   "geometry": {
    "type": "Point",
    "coordinates": [
     -0.0002772280607514305,
     -9.583192223492836e-05
    ]
   },
   "properties": {
    "classname": "item_ammopack_small",
    "team": "0",
    "targetname": "",
    "hx": -1620.0,
    "hy": -560.0,
    "hz": -191.016
   }
  },
  {
   "type": "Feature",
   "geometry": {
    "type": "Point",
    "coordinates": [
     -0.00027038292344892605,
     -9.583192223492836e-05
    ]
   },
   "properties": {
    "classname": "item_healthkit_small",
    "team": "",
    "targetname": "",
    "hx": -1580.0,
    "hy": -560.0,
    "hz": -191.765
   }
  },
  {
   "type": "Feature",
   "geometry": {
    "type": "Point",
    "coordinates": [
     -1.3690274604991657e-05,
     -3.0118604130977485e-05
    ]
   },
   "properties": {
    "classname": "item_ammopack_medium",
    "team": "0",
    "targetname": "",
    "hx": -80.0,
    "hy": -176.0,
    "hz": 64.985
   }
  },
  {
   "type": "Feature",
   "geometry": {
    "type": "Point",
    "coordinates": [
     -0.0004572551718098347,
     0.00021356828383784033
    ]
   },
   "properties": {
    "classname": "item_ammopack_medium",
    "team": "0",
    "targetname": "",
    "hx": -2672.0,
    "hy": 1248.0,
    "hz": -193.251
   }
  },
  {
   "type": "Feature",
   "geometry": {
    "type": "Point",
    "coordinates": [
     -0.00045041003450729225,
     0.00021356828383784033
    ]
   },
   "properties": {
    "classname": "item_healthkit_medium",
    "team": "",
    "targetname": "",
    "hx": -2632.0,
    "hy": 1248.0,
    "hz": -194.0
   }
  },
  {
   "type": "Feature",
   "geometry": {
    "type": "Point",
    "coordinates": [
     -0.00013998305783696497,
     0.00021048797205171763
    ]
   },
   "properties": {
    "classname": "item_ammopack_small",
    "team": "0",
    "targetname": "",
    "hx": -818.0,
    "hy": 1230.0,
    "hz": -191.015
   }
  },
  {
   "type": "Feature",
   "geometry": {
    "type": "Point",
    "coordinates": [
     -0.00013998305783690453,
     0.00020364283474922276
    ]
   },
   "properties": {
    "classname": "item_healthkit_small",
    "team": "",
    "targetname": "",
    "hx": -818.0,
    "hy": 1190.0,
    "hz": -191.764
   }
  },
  {
   "type": "Feature",
   "geometry": {
    "type": "Point",
    "coordinates": [
     -3.559471397336373e-05,
     0.0002683293822577994
    ]
   },
   "properties": {
    "classname": "item_ammopack_full",
    "team": "0",
    "targetname": "",
    "hx": -208.0,
    "hy": 1568.0,
    "hz": 64.985
   }
  },
  {
   "type": "Feature",
   "geometry": {
    "type": "Point",
    "coordinates": [
     -2.7380549210279796e-05,
     0.0002683293822577994
    ]
   },
   "properties": {
    "classname": "item_healthkit_medium",
    "team": "",
    "targetname": "",
    "hx": -160.0,
    "hy": 1568.0,
    "hz": 64.236
   }
  },
  {
   "type": "Feature",
   "geometry": {
    "type": "Point",
    "coordinates": [
     -0.00028509996865082635,
     0.00020997458675403051
    ]
   },
   "properties": {
    "classname": "item_ammopack_small",
    "team": "0",
    "targetname": "",
    "hx": -1666.0,
    "hy": 1227.0,
    "hz": -191.015
   }
  },
  {
   "type": "Feature",
   "geometry": {
    "type": "Point",
    "coordinates": [
     -0.0002782548313482855,
     0.00020997458675403051
    ]
   },
   "properties": {
    "classname": "item_healthkit_small",
    "team": "",
    "targetname": "",
    "hx": -1626.0,
    "hy": 1227.0,
    "hz": -191.764
   }
  },
  {
   "type": "Feature",
   "geometry": {
    "type": "Point",
    "coordinates": [
     -0.00016770586391956957,
     0.0005749915334095702
    ]
   },
   "properties": {
    "classname": "item_ammopack_small",
    "team": "0",
    "targetname": "",
    "hx": -980.0,
    "hy": 3360.0,
    "hz": 66.985
   }
  },
  {
   "type": "Feature",
   "geometry": {
    "type": "Point",
    "coordinates": [
     -0.00016086072661672998,
     0.0005749915334095702
    ]
   },
   "properties": {
    "classname": "item_healthkit_medium",
    "team": "",
    "targetname": "",
    "hx": -940.0,
    "hy": 3360.0,
    "hz": 66.236
   }
  },
  {
   "type": "Feature",
   "geometry": {
    "type": "Point",
    "coordinates": [
     0.00021904439368160104,
     0.00022999661336382804
    ]
   },
   "properties": {
    "classname": "info_player_teamspawn",
    "team": "2",
    "targetname": "spawnpoint_mvm",
    "hx": 1280.0,
    "hy": 1344.0,
    "hz": 128.0
   }
  },
  {
   "type": "Feature",
   "geometry": {
    "type": "Point",
    "coordinates": [
     0.00021904439368177313,
     0.00024094883304781988
    ]
   },
   "properties": {
    "classname": "info_player_teamspawn",
    "team": "2",
    "targetname": "spawnpoint_mvm",
    "hx": 1280.0,
    "hy": 1408.0,
    "hz": 128.0
   }
  },
  {
   "type": "Feature",
   "geometry": {
    "type": "Point",
    "coordinates": [
     0.00020809217399752098,
     0.00022999661336382804
    ]
   },
   "properties": {
    "classname": "info_player_teamspawn",
    "team": "2",
    "targetname": "spawnpoint_mvm",
    "hx": 1216.0,
    "hy": 1344.0,
    "hz": 128.0
   }
  },
  {
   "type": "Feature",
   "geometry": {
    "type": "Point",
    "coordinates": [
     0.00020809217399768448,
     0.00024094883304781988
    ]
   },
   "properties": {
    "classname": "info_player_teamspawn",
    "team": "2",
    "targetname": "spawnpoint_mvm",
    "hx": 1216.0,
    "hy": 1408.0,
    "hz": 128.0
   }
  },
  {
   "type": "Feature",
   "geometry": {
    "type": "Point",
    "coordinates": [
     0.00020809217399736513,
     0.00021904439367983623
    ]
   },
   "properties": {
    "classname": "info_player_teamspawn",
    "team": "2",
    "targetname": "spawnpoint_mvm",
    "hx": 1216.0,
    "hy": 1280.0,
    "hz": 128.0
   }
  },
  {
   "type": "Feature",
   "geometry": {
    "type": "Point",
    "coordinates": [
     0.00020809217399882498,
     0.0003066621511517707
    ]
   },
   "properties": {
    "classname": "info_player_teamspawn",
    "team": "2",
    "targetname": "spawnpoint_mvm",
    "hx": 1216.0,
    "hy": 1792.0,
    "hz": 128.0
   }
  },
  {
   "type": "Feature",
   "geometry": {
    "type": "Point",
    "coordinates": [
     0.0002080921739990417,
     0.0003176143708357625
    ]
   },
   "properties": {
    "classname": "info_player_teamspawn",
    "team": "2",
    "targetname": "spawnpoint_mvm",
    "hx": 1216.0,
    "hy": 1856.0,
    "hz": 128.0
   }
  },
  {
   "type": "Feature",
   "geometry": {
    "type": "Point",
    "coordinates": [
     0.000208092173999266,
     0.0003285665905197544
    ]
   },
   "properties": {
    "classname": "info_player_teamspawn",
    "team": "2",
    "targetname": "spawnpoint_mvm",
    "hx": 1216.0,
    "hy": 1920.0,
    "hz": 128.0
   }
  },
  {
   "type": "Feature",
   "geometry": {
    "type": "Point",
    "coordinates": [
     0.00021904439368343793,
     0.0003285665905197544
    ]
   },
   "properties": {
    "classname": "info_player_teamspawn",
    "team": "2",
    "targetname": "spawnpoint_mvm",
    "hx": 1280.0,
    "hy": 1920.0,
    "hz": 128.0
   }
  },
  {
   "type": "Feature",
   "geometry": {
    "type": "Point",
    "coordinates": [
     0.0002190443936832018,
     0.0003176143708357625
    ]
   },
   "properties": {
    "classname": "info_player_teamspawn",
    "team": "2",
    "targetname": "spawnpoint_mvm",
    "hx": 1280.0,
    "hy": 1856.0,
    "hz": 128.0
   }
  },
  {
   "type": "Feature",
   "geometry": {
    "type": "Point",
    "coordinates": [
     0.00021904439368297367,
     0.0003066621511517707
    ]
   },
   "properties": {
    "classname": "info_player_teamspawn",
    "team": "2",
    "targetname": "spawnpoint_mvm",
    "hx": 1280.0,
    "hy": 1792.0,
    "hz": 128.0
   }
  },
  {
   "type": "Feature",
   "geometry": {
    "type": "Point",
    "coordinates": [
     2.738054920999754e-06,
     6.571331810395088e-05
    ]
   },
   "properties": {
    "classname": "item_ammopack_small",
    "team": "0",
    "targetname": "",
    "hx": 16.0,
    "hy": 384.0,
    "hz": 64.9851
   }
  },
  {
   "type": "Feature",
   "geometry": {
    "type": "Point",
    "coordinates": [
     9.583192223499138e-06,
     6.571331810395088e-05
    ]
   },
   "properties": {
    "classname": "item_healthkit_medium",
    "team": "",
    "targetname": "",
    "hx": 56.0,
    "hy": 384.0,
    "hz": 64.2361
   }
  },
  {
   "type": "Feature",
   "geometry": {
    "type": "Point",
    "coordinates": [
     7.632328092447912e-05,
     0.0003780227075302799
    ]
   },
   "properties": {
    "classname": "item_healthkit_medium",
    "team": "0",
    "targetname": "",
    "hx": 446.0,
    "hy": 2209.0,
    "hz": 64.985
   }
  },
  {
   "type": "Feature",
   "geometry": {
    "type": "Point",
    "coordinates": [
     -2.7380549210888396e-05,
     0.000466838364030151
    ]
   },
   "properties": {
    "classname": "item_healthkit_medium",
    "team": "",
    "targetname": "",
    "hx": -160.0,
    "hy": 2728.0,
    "hz": 162.236
   }
  },
  {
   "type": "Feature",
   "geometry": {
    "type": "Point",
    "coordinates": [
     -2.7380549210861938e-05,
     0.0004599932267276561
    ]
   },
   "properties": {
    "classname": "item_ammopack_small",
    "team": "0",
    "targetname": "",
    "hx": -160.0,
    "hy": 2688.0,
    "hz": 162.985
   }
  },
  {
   "type": "Feature",
   "geometry": {
    "type": "Point",
    "coordinates": [
     0.00017523551494508634,
     -0.00021356828383784033
    ]
   },
   "properties": {
    "classname": "info_player_teamspawn",
    "team": "3",
    "targetname": "spawnbot_mission_sniper",
    "hx": 1024.0,
    "hy": -1248.0,
    "hz": 328.0
   }
  },
  {
   "type": "Feature",
   "geometry": {
    "type": "Point",
    "coordinates": [
     0.0001697594051029927,
     -0.00020809217399584442
    ]
   },
   "properties": {
    "classname": "info_player_teamspawn",
    "team": "3",
    "targetname": "spawnbot_right",
    "hx": 992.0,
    "hy": -1216.0,
    "hz": 328.0
   }
  },
  {
   "type": "Feature",
   "geometry": {
    "type": "Point",
    "coordinates": [
     0.00018071162478705674,
     -0.00020809217399584442
    ]
   },
   "properties": {
    "classname": "info_player_teamspawn",
    "team": "3",
    "targetname": "gatebot_right",
    "hx": 1056.0,
    "hy": -1216.0,
    "hz": 328.0
   }
  },
  {
   "type": "Feature",
   "geometry": {
    "type": "Point",
    "coordinates": [
     0.00039975601846713263,
     0.00015333107557588535
    ]
   },
   "properties": {
    "classname": "info_player_teamspawn",
    "team": "3",
    "targetname": "spawnbot_left",
    "hx": 2336.0,
    "hy": 896.0,
    "hz": 160.0
   }
  },
  {
   "type": "Feature",
   "geometry": {
    "type": "Point",
    "coordinates": [
     0.0003997560184669354,
     0.00014237885589189354
    ]
   },
   "properties": {
    "classname": "info_player_teamspawn",
    "team": "3",
    "targetname": "spawnbot",
    "hx": 2336.0,
    "hy": 832.0,
    "hz": 160.0
   }
  },
  {
   "type": "Feature",
   "geometry": {
    "type": "Point",
    "coordinates": [
     0.0003997560184657016,
     -2.738054920997953e-06
    ]
   },
   "properties": {
    "classname": "info_player_teamspawn",
    "team": "3",
    "targetname": "spawnbot_left",
    "hx": 2336.0,
    "hy": -16.0,
    "hz": 128.0
   }
  },
  {
   "type": "Feature",
   "geometry": {
    "type": "Point",
    "coordinates": [
     0.000399756018465703,
     5.476109841995906e-06
    ]
   },
   "properties": {
    "classname": "info_player_teamspawn",
    "team": "3",
    "targetname": "spawnbot",
    "hx": 2336.0,
    "hy": 32.0,
    "hz": 128.0
   }
  },
  {
   "type": "Feature",
   "geometry": {
    "type": "Point",
    "coordinates": [
     0.0004107082381496948,
     5.476109841995906e-06
    ]
   },
   "properties": {
    "classname": "info_player_teamspawn",
    "team": "3",
    "targetname": "gatebot_left",
    "hx": 2400.0,
    "hy": 32.0,
    "hz": 128.0
   }
  },
  {
   "type": "Feature",
   "geometry": {
    "type": "Point",
    "coordinates": [
     0.00041070823814969335,
     -2.738054920997953e-06
    ]
   },
   "properties": {
    "classname": "info_player_teamspawn",
    "team": "3",
    "targetname": "gatebot",
    "hx": 2400.0,
    "hy": -16.0,
    "hz": 128.0
   }
  },
  {
   "type": "Feature",
   "geometry": {
    "type": "Point",
    "coordinates": [
     0.00041618434799175726,
     -3.285665905197544e-05
    ]
   },
   "properties": {
    "classname": "info_player_teamspawn",
    "team": "3",
    "targetname": "spawnbot_mission_sentrybuster",
    "hx": 2432.0,
    "hy": -192.0,
    "hz": 128.0
   }
  },
  {
   "type": "Feature",
   "geometry": {
    "type": "Point",
    "coordinates": [
     0.0004161843479916893,
     2.738054920997953e-06
    ]
   },
   "properties": {
    "classname": "info_player_teamspawn",
    "team": "3",
    "targetname": "spawnbot_mission_spy",
    "hx": 2432.0,
    "hy": 16.0,
    "hz": 128.0
   }
  },
  {
   "type": "Feature",
   "geometry": {
    "type": "Point",
    "coordinates": [
     0.00016975940510302237,
     0.00021083022891684236
    ]
   },
   "properties": {
    "classname": "item_ammopack_medium",
    "team": "0",
    "targetname": "",
    "hx": 992.0,
    "hy": 1232.0,
    "hz": 122.985
   }
  },
  {
   "type": "Feature",
   "geometry": {
    "type": "Point",
    "coordinates": [
     0.00016975940510293455,
     0.00020261606415384855
    ]
   },
   "properties": {
    "classname": "item_healthkit_medium",
    "team": "",
    "targetname": "",
    "hx": 992.0,
    "hy": 1184.0,
    "hz": 122.236
   }
  },
  {
   "type": "Feature",
   "geometry": {
    "type": "Point",
    "coordinates": [
     0.00017249746002852992,
     0.00046410030910915305
    ]
   },
   "properties": {
    "classname": "item_ammopack_medium",
    "team": "0",
    "targetname": "",
    "hx": 1008.0,
    "hy": 2712.0,
    "hz": 192.985
   }
  },
  {
   "type": "Feature",
   "geometry": {
    "type": "Point",
    "coordinates": [
     0.000172497460028732,
     0.0004723144738721469
    ]
   },
   "properties": {
    "classname": "item_healthkit_medium",
    "team": "",
    "targetname": "",
    "hx": 1008.0,
    "hy": 2760.0,
    "hz": 192.236
   }
  },
  {
   "type": "Feature",
   "geometry": {
    "type": "Point",
    "coordinates": [
     -0.00010130803207824867,
     0.00029297187654678096
    ]
   },
   "properties": {
    "classname": "item_ammopack_medium",
    "team": "0",
    "targetname": "",
    "hx": -592.0,
    "hy": 1712.0,
    "hz": -477.015
   }
  },
  {
   "type": "Feature",
   "geometry": {
    "type": "Point",
    "coordinates": [
     -0.00010130803207817544,
     0.0002847577117837871
    ]
   },
   "properties": {
    "classname": "item_healthkit_full",
    "team": "",
    "targetname": "",
    "hx": -592.0,
    "hy": 1664.0,
    "hz": -477.764
   }
  },
  {
   "type": "Feature",
   "geometry": {
    "type": "Point",
    "coordinates": [
     -0.00023273466828786852,
     0.00029297187654678096
    ]
   },
   "properties": {
    "classname": "item_ammopack_medium",
    "team": "0",
    "targetname": "",
    "hx": -1360.0,
    "hy": 1712.0,
    "hz": -477.015
   }
  },
  {
   "type": "Feature",
   "geometry": {
    "type": "Point",
    "coordinates": [
     -0.00023273466828770034,
     0.0002847577117837871
    ]
   },
   "properties": {
    "classname": "item_healthkit_medium",
    "team": "",
    "targetname": "",
    "hx": -1360.0,
    "hy": 1664.0,
    "hz": -477.764
   }
  },
  {
   "type": "Feature",
   "geometry": {
    "type": "Point",
    "coordinates": [
     -0.0005079091878618811,
     0.000465469336569652
    ]
   },
   "properties": {
    "classname": "item_healthkit_medium",
    "team": "",
    "targetname": "",
    "hx": -2968.0,
    "hy": 2720.0,
    "hz": -61.764
   }
  },
  {
   "type": "Feature",
   "geometry": {
    "type": "Point",
    "coordinates": [
     -0.0005147543251646018,
     0.000465469336569652
    ]
   },
   "properties": {
    "classname": "item_ammopack_medium",
    "team": "0",
    "targetname": "",
    "hx": -3008.0,
    "hy": 2720.0,
    "hz": -61.015
   }
  },
  {
   "type": "Feature",
   "geometry": {
    "type": "Point",
    "coordinates": [
     -0.0003792206065596234,
     0.00015606913049688332
    ]
   },
   "properties": {
    "classname": "item_healthkit_small",
    "team": "",
    "targetname": "",
    "hx": -2216.0,
    "hy": 912.0,
    "hz": 66.236
   }
  },
  {
   "type": "Feature",
   "geometry": {
    "type": "Point",
    "coordinates": [
     -0.00038606574386214365,
     0.00015606913049688332
    ]
   },
   "properties": {
    "classname": "item_ammopack_medium",
    "team": "0",
    "targetname": "",
    "hx": -2256.0,
    "hy": 912.0,
    "hz": 66.985
   }
  },
  {
   "type": "Feature",
   "geometry": {
    "type": "Point",
    "coordinates": [
     0.0004134462930719674,
     0.00014237885589189354
    ]
   },
   "properties": {
    "classname": "info_player_teamspawn",
    "team": "3",
    "targetname": "gatebot_left",
    "hx": 2416.0,
    "hy": 832.0,
    "hz": 160.0
   }
  },
  {
   "type": "Feature",
   "geometry": {
    "type": "Point",
    "coordinates": [
     0.0004134462930721714,
     0.00015333107557588535
    ]
   },
   "properties": {
    "classname": "info_player_teamspawn",
    "team": "3",
    "targetname": "gatebot",
    "hx": 2416.0,
    "hy": 896.0,
    "hz": 160.0
   }
  },
  {
   "type": "Feature",
   "geometry": {
    "type": "Point",
    "coordinates": [
     0.0003997560184657906,
     -3.833276889397134e-05
    ]
   },
   "properties": {
    "classname": "info_player_teamspawn",
    "team": "3",
    "targetname": "spawnbot",
    "hx": 2336.0,
    "hy": -224.0,
    "hz": 128.0
   }
  },
  {
   "type": "Feature",
   "geometry": {
    "type": "Point",
    "coordinates": [
     0.0003997560184657564,
     -3.0118604130977485e-05
    ]
   },
   "properties": {
    "classname": "info_player_teamspawn",
    "team": "3",
    "targetname": "spawnbot_middle",
    "hx": 2336.0,
    "hy": -176.0,
    "hz": 128.0
   }
  },
  {
   "type": "Feature",
   "geometry": {
    "type": "Point",
    "coordinates": [
     0.0004107082381497497,
     -3.0118604130977485e-05
    ]
   },
   "properties": {
    "classname": "info_player_teamspawn",
    "team": "3",
    "targetname": "gatebot",
    "hx": 2400.0,
    "hy": -176.0,
    "hz": 128.0
   }
  },
  {
   "type": "Feature",
   "geometry": {
    "type": "Point",
    "coordinates": [
     0.00041070823814978486,
     -3.833276889397134e-05
    ]
   },
   "properties": {
    "classname": "info_player_teamspawn",
    "team": "3",
    "targetname": "gatebot_middle",
    "hx": 2400.0,
    "hy": -224.0,
    "hz": 128.0
   }
  },
  {
   "type": "Feature",
   "geometry": {
    "type": "Point",
    "coordinates": [
     0.0004052321283095924,
     -0.000175235514943869
    ]
   },
   "properties": {
    "classname": "info_player_teamspawn",
    "team": "3",
    "targetname": "spawnbot_middle",
    "hx": 2368.0,
    "hy": -1024.0,
    "hz": 128.0
   }
  },
  {
   "type": "Feature",
   "geometry": {
    "type": "Point",
    "coordinates": [
     0.00040523212830936286,
     -0.0001642832952598772
    ]
   },
   "properties": {
    "classname": "info_player_teamspawn",
    "team": "3",
    "targetname": "spawnbot",
    "hx": 2368.0,
    "hy": -960.0,
    "hz": 128.0
   }
  },
  {
   "type": "Feature",
   "geometry": {
    "type": "Point",
    "coordinates": [
     0.0004052321283097127,
     -0.0001807116247858649
    ]
   },
   "properties": {
    "classname": "info_player_teamspawn",
    "team": "3",
    "targetname": "gatebot_middle",
    "hx": 2368.0,
    "hy": -1056.0,
    "hz": 128.0
   }
  },
  {
   "type": "Feature",
   "geometry": {
    "type": "Point",
    "coordinates": [
     0.00040523212830947573,
     -0.0001697594051018731
    ]
   },
   "properties": {
    "classname": "info_player_teamspawn",
    "team": "3",
    "targetname": "gatebot",
    "hx": 2368.0,
    "hy": -992.0,
    "hz": 128.0
   }
  },
  {
   "type": "Feature",
   "geometry": {
    "type": "Point",
    "coordinates": [
     0.00040523212830983666,
     -0.0001861877346278608
    ]
   },
   "properties": {
    "classname": "info_player_teamspawn",
    "team": "3",
    "targetname": "spawnbot_boss",
    "hx": 2368.0,
    "hy": -1088.0,
    "hz": 128.0
   }
  },
  {
   "type": "Feature",
   "geometry": {
    "type": "Point",
    "coordinates": [
     0.0004052321283099644,
     -0.0001916638444698567
    ]
   },
   "properties": {
    "classname": "info_player_teamspawn",
    "team": "3",
    "targetname": "gatebot_boss",
    "hx": 2368.0,
    "hy": -1120.0,
    "hz": 128.0
   }
  }
 ]
}
