{
 "type": "FeatureCollection",
 "note": "pseudo-WGS84 via crs.local_to_wgs84 ((0,0)m maps to (0,0)deg); viewing only, not survey",
 "features": [
  {
   "type": "Feature",
   "geometry": {
    "type": "Point",
    "coordinates": [
     0.00016428329526430794,
     0.0004208048156708729
    ]
   },
   "properties": {
    "classname": "info_player_teamspawn",
    "team": "2",
    "targetname": "",
    "hx": 960.0,
    "hy": 2459.0,
    "hz": 192.0
   }
  },
  {
   "type": "Feature",
   "geometry": {
    "type": "Point",
    "coordinates": [
     0.00016428329526396872,
     0.0004043764861448852
    ]
   },
   "properties": {
    "classname": "info_player_teamspawn",
    "team": "2",
    "targetname": "",
    "hx": 960.0,
    "hy": 2363.0,
    "hz": 192.0
   }
  },
  {
   "type": "Feature",
   "geometry": {
    "type": "Point",
    "coordinates": [
     0.00019132158760949694,
     0.0004043764861448852
    ]
   },
   "properties": {
    "classname": "info_player_teamspawn",
    "team": "2",
    "targetname": "",
    "hx": 1118.0,
    "hy": 2363.0,
    "hz": 192.0
   }
  },
  {
   "type": "Feature",
   "geometry": {
    "type": "Point",
    "coordinates": [
     0.0001920061013393828,
     0.0003879481566188975
    ]
   },
   "properties": {
    "classname": "info_player_teamspawn",
    "team": "2",
    "targetname": "",
    "hx": 1122.0,
    "hy": 2267.0,
    "hz": 192.0
   }
  },
  {
   "type": "Feature",
   "geometry": {
    "type": "Point",
    "coordinates": [
     0.00016428329526502688,
     0.00045366147472284833
    ]
   },
   "properties": {
    "classname": "info_player_teamspawn",
    "team": "2",
    "targetname": "",
    "hx": 960.0,
    "hy": 2651.0,
    "hz": 192.0
   }
  },
  {
   "type": "Feature",
   "geometry": {
    "type": "Point",
    "coordinates": [
     0.00016428329526466066,
     0.0004372331451968606
    ]
   },
   "properties": {
    "classname": "info_player_teamspawn",
    "team": "2",
    "targetname": "",
    "hx": 960.0,
    "hy": 2555.0,
    "hz": 192.0
   }
  },
  {
   "type": "Feature",
   "geometry": {
    "type": "Point",
    "coordinates": [
     0.00019166384447502597,
     0.0004208048156708729
    ]
   },
   "properties": {
    "classname": "info_player_teamspawn",
    "team": "2",
    "targetname": "",
    "hx": 1120.0,
    "hy": 2459.0,
    "hz": 192.0
   }
  },
  {
   "type": "Feature",
   "geometry": {
    "type": "Point",
    "coordinates": [
     0.00019132158761030275,
     0.0004372331451968606
    ]
   },
   "properties": {
    "classname": "info_player_teamspawn",
    "team": "2",
    "targetname": "",
    "hx": 1118.0,
    "hy": 2555.0,
    "hz": 192.0
   }
  },
  {
   "type": "Feature",
   "geometry": {
    "type": "Point",
    "coordinates": [
     0.0001916638444758647,
     0.00045366147472284833
    ]
   },
   "properties": {
    "classname": "info_player_teamspawn",
    "team": "2",
    "targetname": "",
    "hx": 1120.0,
    "hy": 2651.0,
    "hz": 192.0
   }
  },
  {
   "type": "Feature",
   "geometry": {
    "type": "Point",
    "coordinates": [
     0.00019166384447630771,
     0.00047008980424883607
    ]
   },
   "properties": {
    "classname": "info_player_teamspawn",
    "team": "2",
    "targetname": "",
    "hx": 1120.0,
    "hy": 2747.0,
    "hz": 192.0
   }
  },
  {
   "type": "Feature",
   "geometry": {
    "type": "Point",
    "coordinates": [
     -0.0004167405153976435,
     4.470764526378483e-05
    ]
   },
   "properties": {
    "classname": "item_healthkit_medium",
    "team": "",
    "targetname": "",
    "hx": -2435.25,
    "hy": 261.252,
    "hz": -26.5594
   }
  },
  {
   "type": "Feature",
   "geometry": {
    "type": "Point",
    "coordinates": [
     0.0001533310755762518,
     0.00012526601263565635
    ]
   },
   "properties": {
    "classname": "item_ammopack_medium",
    "team": "",
    "targetname": "",
    "hx": 896.0,
    "hy": 732.0,
    "hz": 184.256
   }
  },
  {
   "type": "Feature",
   "geometry": {
    "type": "Point",
    "coordinates": [
     -1.3690274604990015e-06,
     1.0952219683991812e-05
    ]
   },
   "properties": {
    "classname": "item_ammopack_medium",
    "team": "",
    "targetname": "",
    "hx": -8.0,
    "hy": 64.0,
    "hz": -20.097
   }
  },
  {
   "type": "Feature",
   "geometry": {
    "type": "Point",
    "coordinates": [
     -0.00014237885589323245,
     -0.00024847848408056426
    ]
   },
   "properties": {
    "classname": "item_ammopack_medium",
    "team": "",
    "targetname": "",
    "hx": -832.0,
    "hy": -1452.0,
    "hz": 364.21
   }
  },
  {
   "type": "Feature",
   "geometry": {
    "type": "Point",
    "coordinates": [
     -0.0002936563902988127,
     -0.0006978617479893533
    ]
   },
   "properties": {
    "classname": "info_player_teamspawn",
    "team": "3",
    "targetname": "spawnbot_invasion",
    "hx": -1716.0,
    "hy": -4078.0,
    "hz": 520.0
   }
  },
  {
   "type": "Feature",
   "geometry": {
    "type": "Point",
    "coordinates": [
     -0.0002662758410868022,
     -0.0006978617479893533
    ]
   },
   "properties": {
    "classname": "info_player_teamspawn",
    "team": "3",
    "targetname": "spawnbot_invasion",
    "hx": -1556.0,
    "hy": -4078.0,
    "hz": 520.0
   }
  },
  {
   "type": "Feature",
   "geometry": {
    "type": "Point",
    "coordinates": [
     0.00015333107557619421,
     0.00011499830668191402
    ]
   },
   "properties": {
    "classname": "item_healthkit_medium",
    "team": "",
    "targetname": "",
    "hx": 896.0,
    "hy": 672.0,
    "hz": 184.236
   }
  },
  {
   "type": "Feature",
   "geometry": {
    "type": "Point",
    "coordinates": [
     -0.0002799661156928075,
     -0.0006978617479893533
    ]
   },
   "properties": {
    "classname": "info_player_teamspawn",
    "team": "3",
    "targetname": "spawnbot_mission_spy",
    "hx": -1636.0,
    "hy": -4078.0,
    "hz": 520.0
   }
  },
  {
   "type": "Feature",
   "geometry": {
    "type": "Point",
    "coordinates": [
     0.00014511691081308306,
     9.30938673139304e-05
    ]
   },
   "properties": {
    "classname": "item_ammopack_full",
    "team": "",
    "targetname": "",
    "hx": 848.0,
    "hy": 544.0,
    "hz": -26.995
   }
  },
  {
   "type": "Feature",
   "geometry": {
    "type": "Point",
    "coordinates": [
     -6.571331810420986e-05,
     -0.00016086072660862974
    ]
   },
   "properties": {
    "classname": "item_ammopack_medium",
    "team": "",
    "targetname": "",
    "hx": -384.0,
    "hy": -940.0,
    "hz": 104.0
   }
  },
  {
   "type": "Feature",
   "geometry": {
    "type": "Point",
    "coordinates": [
     4.928498857839896e-05,
     0.00024094883304781988
    ]
   },
   "properties": {
    "classname": "item_ammopack_medium",
    "team": "",
    "targetname": "",
    "hx": 288.0,
    "hy": 1408.0,
    "hz": -8.224
   }
  },
  {
   "type": "Feature",
   "geometry": {
    "type": "Point",
    "coordinates": [
     6.023720826248762e-05,
     0.00024094883304781988
    ]
   },
   "properties": {
    "classname": "item_healthkit_small",
    "team": "",
    "targetname": "",
    "hx": 352.0,
    "hy": 1408.0,
    "hz": -8.224
   }
  },
  {
   "type": "Feature",
   "geometry": {
    "type": "Point",
    "coordinates": [
     -6.845137302494895e-06,
     3.422568651247441e-06
    ]
   },
   "properties": {
    "classname": "item_healthkit_medium",
    "team": "",
    "targetname": "",
    "hx": -40.0,
    "hy": 20.0,
    "hz": -21.297
   }
  },
  {
   "type": "Feature",
   "geometry": {
    "type": "Point",
    "coordinates": [
     -0.0004661538503126895,
     -0.0004243985127546827
    ]
   },
   "properties": {
    "classname": "info_player_teamspawn",
    "team": "3",
    "targetname": "spawnbot_mission_sniper",
    "hx": -2724.0,
    "hy": -2480.0,
    "hz": 410.0
   }
  },
  {
   "type": "Feature",
   "geometry": {
    "type": "Point",
    "coordinates": [
     -0.0002936563902978827,
     -0.0006828024459238645
    ]
   },
   "properties": {
    "classname": "info_player_teamspawn",
    "team": "3",
    "targetname": "spawnbot",
    "hx": -1716.0,
    "hy": -3990.0,
    "hz": 520.0
   }
  },
  {
   "type": "Feature",
   "geometry": {
    "type": "Point",
    "coordinates": [
     -0.00029365639029958865,
     -0.0007101829951338441
    ]
   },
   "properties": {
    "classname": "info_player_teamspawn",
    "team": "3",
    "targetname": "spawnbot",
    "hx": -1716.0,
    "hy": -4150.0,
    "hz": 520.0
   }
  },
  {
   "type": "Feature",
   "geometry": {
    "type": "Point",
    "coordinates": [
     -0.0002662758410875058,
     -0.0007101829951338441
    ]
   },
   "properties": {
    "classname": "info_player_teamspawn",
    "team": "3",
    "targetname": "spawnbot",
    "hx": -1556.0,
    "hy": -4150.0,
    "hz": 520.0
   }
  },
  {
   "type": "Feature",
   "geometry": {
    "type": "Point",
    "coordinates": [
     -0.0002662758410859589,
     -0.0006828024459238645
    ]
   },
   "properties": {
    "classname": "info_player_teamspawn",
    "team": "3",
    "targetname": "spawnbot",
    "hx": -1556.0,
    "hy": -3990.0,
    "hz": 520.0
   }
  },
  {
   "type": "Feature",
   "geometry": {
    "type": "Point",
    "coordinates": [
     -0.00022109793487096378,
     0.00010609962818867068
    ]
   },
   "properties": {
    "classname": "item_ammopack_medium",
    "team": "",
    "targetname": "",
    "hx": -1292.0,
    "hy": 620.0,
    "hz": 6.0
   }
  },
  {
   "type": "Feature",
   "geometry": {
    "type": "Point",
    "coordinates": [
     -0.00023205015455494418,
     0.00010199254580717376
    ]
   },
   "properties": {
    "classname": "item_healthkit_medium",
    "team": "",
    "targetname": "",
    "hx": -1356.0,
    "hy": 596.0,
    "hz": 1.7164
   }
  },
  {
   "type": "Feature",
   "geometry": {
    "type": "Point",
    "coordinates": [
     5.27075572321235e-05,
     0.0006023720826195497
    ]
   },
   "properties": {
    "classname": "item_ammopack_medium",
    "team": "",
    "targetname": "",
    "hx": 308.0,
    "hy": 3520.0,
    "hz": 185.005
   }
  },
  {
   "type": "Feature",
   "geometry": {
    "type": "Point",
    "coordinates": [
     4.380887873838837e-05,
     0.0006023720826195497
    ]
   },
   "properties": {
    "classname": "item_healthkit_medium",
    "team": "",
    "targetname": "",
    "hx": 256.0,
    "hy": 3520.0,
    "hz": 185.005
   }
  },
  {
   "type": "Feature",
   "geometry": {
    "type": "Point",
    "coordinates": [
     1.505930206570348e-05,
     0.00030597763742152125
    ]
   },
   "properties": {
    "classname": "item_ammopack_medium",
    "team": "",
    "targetname": "",
    "hx": 88.0,
    "hy": 1788.0,
    "hz": 12.0
   }
  },
  {
   "type": "Feature",
   "geometry": {
    "type": "Point",
    "coordinates": [
     -0.00031008471981036016,
     0.0003942799086237053
    ]
   },
   "properties": {
    "classname": "item_healthkit_medium",
    "team": "",
    "targetname": "",
    "hx": -1812.0,
    "hy": 2304.0,
    "hz": 73.0046
   }
  },
  {
   "type": "Feature",
   "geometry": {
    "type": "Point",
    "coordinates": [
     -0.0002977634726655776,
     0.0003942799086237053
    ]
   },
   "properties": {
    "classname": "item_ammopack_medium",
    "team": "",
    "targetname": "",
    "hx": -1740.0,
    "hy": 2304.0,
    "hz": 73.0046
   }
  },
  {
   "type": "Feature",
   "geometry": {
    "type": "Point",
    "coordinates": [
     -0.00019850898178457808,
     0.0006359132554017746
    ]
   },
   "properties": {
    "classname": "item_healthkit_medium",
    "team": "",
    "targetname": "",
    "hx": -1160.0,
    "hy": 3716.0,
    "hz": 369.005
   }
  },
  {
   "type": "Feature",
   "geometry": {
    "type": "Point",
    "coordinates": [
     -0.00026969840971879727,
     -0.0001102067105701676
    ]
   },
   "properties": {
    "classname": "item_healthkit_medium",
    "team": "",
    "targetname": "",
    "hx": -1576.0,
    "hy": -644.0,
    "hz": -3.0893
   }
  },
  {
   "type": "Feature",
   "geometry": {
    "type": "Point",
    "coordinates": [
     -0.0002799661156725522,
     -0.00010952219683991812
    ]
   },
   "properties": {
    "classname": "item_ammopack_medium",
    "team": "",
    "targetname": "",
    "hx": -1636.0,
    "hy": -640.0,
    "hz": -1.8036
   }
  },
  {
   "type": "Feature",
   "geometry": {
    "type": "Point",
    "coordinates": [
     0.00011392190884204676,
     -0.00023399588483281064
    ]
   },
   "properties": {
    "classname": "item_ammopack_full",
    "team": "",
    "targetname": "",
    "hx": 665.71,
    "hy": -1367.37,
    "hz": 165.359
   }
  },
  {
   "type": "Feature",
   "geometry": {
    "type": "Point",
    "coordinates": [
     0.00011355569399644876,
     -0.0002446879892993077
    ]
   },
   "properties": {
    "classname": "item_healthkit_medium",
    "team": "",
    "targetname": "",
    "hx": 663.57,
    "hy": -1429.85,
    "hz": 171.38
   }
  },
  {
   "type": "Feature",
   "geometry": {
    "type": "Point",
    "coordinates": [
     -8.943873512376069e-05,
     -0.00026128573597353216
    ]
   },
   "properties": {
    "classname": "item_healthkit_medium",
    "team": "",
    "targetname": "",
    "hx": -522.641,
    "hy": -1526.84,
    "hz": 178.522
   }
  },
  {
   "type": "Feature",
   "geometry": {
    "type": "Point",
    "coordinates": [
     -0.000401099376662834,
     0.00015764488110391763
    ]
   },
   "properties": {
    "classname": "item_healthkit_full",
    "team": "0",
    "targetname": "",
    "hx": -2343.85,
    "hy": 921.208,
    "hz": 41.2279
   }
  },
  {
   "type": "Feature",
   "geometry": {
    "type": "Point",
    "coordinates": [
     -0.0001800271110623499,
     0.0004955879407006295
    ]
   },
   "properties": {
    "classname": "item_ammopack_medium",
    "team": "",
    "targetname": "",
    "hx": -1052.0,
    "hy": 2896.0,
    "hz": 88.0
   }
  },
  {
   "type": "Feature",
   "geometry": {
    "type": "Point",
    "coordinates": [
     -0.00018002711106209198,
     0.00048600474847713666
    ]
   },
   "properties": {
    "classname": "item_healthkit_small",
    "team": "",
    "targetname": "",
    "hx": -1052.0,
    "hy": 2840.0,
    "hz": 89.9446
   }
  },
  {
   "type": "Feature",
   "geometry": {
    "type": "Point",
    "coordinates": [
     -0.0001861877346311034,
     0.0003381497827432472
    ]
   },
   "properties": {
    "classname": "item_ammopack_medium",
    "team": "",
    "targetname": "",
    "hx": -1088.0,
    "hy": 1976.0,
    "hz": 184.256
   }
  },
  {
   "type": "Feature",
   "geometry": {
    "type": "Point",
    "coordinates": [
     -0.00019371738566397893,
     0.0003381497827432472
    ]
   },
   "properties": {
    "classname": "item_healthkit_small",
    "team": "",
    "targetname": "",
    "hx": -1132.0,
    "hy": 1976.0,
    "hz": 184.235
   }
  },
  {
   "type": "Feature",
   "geometry": {
    "type": "Point",
    "coordinates": [
     -0.00012252795771553713,
     0.00021699085248908778
    ]
   },
   "properties": {
    "classname": "item_healthkit_full",
    "team": "",
    "targetname": "",
    "hx": -716.0,
    "hy": 1268.0,
    "hz": 96.2694
   }
  },
  {
   "type": "Feature",
   "geometry": {
    "type": "Point",
    "coordinates": [
     -0.00013690274605087944,
     0.00021699085248908778
    ]
   },
   "properties": {
    "classname": "item_ammopack_full",
    "team": "",
    "targetname": "",
    "hx": -800.0,
    "hy": 1268.0,
    "hz": 96.2106
   }
  },
  {
   "type": "Feature",
   "geometry": {
    "type": "Point",
    "coordinates": [
     -9.788546342863735e-05,
     -0.0004456184383924168
    ]
   },
   "properties": {
    "classname": "item_healthkit_full",
    "team": "",
    "targetname": "",
    "hx": -572.0,
    "hy": -2604.0,
    "hz": 255.464
   }
  },
  {
   "type": "Feature",
   "geometry": {
    "type": "Point",
    "coordinates": [
     -0.00022657404471450519,
     0.00023615723693607346
    ]
   },
   "properties": {
    "classname": "item_ammopack_medium",
    "team": "",
    "targetname": "",
    "hx": -1324.0,
    "hy": 1380.0,
    "hz": 96.2106
   }
  },
  {
   "type": "Feature",
   "geometry": {
    "type": "Point",
    "coordinates": [
     5.476109842305464e-06,
     -0.0006092172199220444
    ]
   },
   "properties": {
    "classname": "info_player_teamspawn",
    "team": "3",
    "targetname": "spawnbot_boss",
    "hx": 32.0,
    "hy": -3560.0,
    "hz": 528.0
   }
  },
  {
   "type": "Feature",
   "geometry": {
    "type": "Point",
    "coordinates": [
     0.000298447986410204,
     -0.000686570694008888
    ]
   },
   "properties": {
    "classname": "info_player_teamspawn",
    "team": "3",
    "targetname": "flankers",
    "hx": 1744.0,
    "hy": -4012.02,
    "hz": 608.0
   }
  },
  {
   "type": "Feature",
   "geometry": {
    "type": "Point",
    "coordinates": [
     0.00031702397776626877,
     -0.0006878610023904083
    ]
   },
   "properties": {
    "classname": "info_player_teamspawn",
    "team": "3",
    "targetname": "spawnbot_invasion",
    "hx": 1852.55,
    "hy": -4019.56,
    "hz": 608.0
   }
  },
  {
   "type": "Feature",
   "geometry": {
    "type": "Point",
    "coordinates": [
     0.0003345509518305987,
     -0.0006882699993442323
    ]
   },
   "properties": {
    "classname": "info_player_teamspawn",
    "team": "3",
    "targetname": "flankers",
    "hx": 1954.97,
    "hy": -4021.95,
    "hz": 608.0
   }
  },
  {
   "type": "Feature",
   "geometry": {
    "type": "Point",
    "coordinates": [
     0.0003125267225570377,
     -0.0006697898399118218
    ]
   },
   "properties": {
    "classname": "info_player_teamspawn",
    "team": "3",
    "targetname": "flankers",
    "hx": 1826.27,
    "hy": -3913.96,
    "hz": 608.0
   }
  },
  {
   "type": "Feature",
   "geometry": {
    "type": "Point",
    "coordinates": [
     0.0003204722156838177,
     -0.000705049142156973
    ]
   },
   "properties": {
    "classname": "info_player_teamspawn",
    "team": "3",
    "targetname": "flankers",
    "hx": 1872.7,
    "hy": -4120.0,
    "hz": 608.0
   }
  }
 ]
}
