{
 "type": "FeatureCollection",
 "note": "pseudo-WGS84 via crs.local_to_wgs84 ((0,0)m maps to (0,0)deg); viewing only, not survey",
 "features": [
  {
   "type": "Feature",
   "geometry": {
    "type": "Point",
    "coordinates": [
     3.559471397299131e-05,
     5.749915334095701e-05
    ]
   },
   "properties": {
    "classname": "item_ammopack_full",
    "team": "0",
    "targetname": "",
    "hx": 208.0,
    "hy": 336.0,
    "hz": 672.0
   }
  },
  {
   "type": "Feature",
   "geometry": {
    "type": "Point",
    "coordinates": [
     -3.559471397299131e-05,
     5.749915334095701e-05
    ]
   },
   "properties": {
    "classname": "item_healthkit_full",
    "team": "0",
    "targetname": "",
    "hx": -208.0,
    "hy": 336.0,
    "hz": 672.0
   }
  },
  {
   "type": "Feature",
   "geometry": {
    "type": "Point",
    "coordinates": [
     0.00015880718542023788,
     -0.00031213826099376664
    ]
   },
   "properties": {
    "classname": "item_ammopack_full",
    "team": "0",
    "targetname": "",
    "hx": 928.0,
    "hy": -1824.0,
    "hz": 513.211
   }
  },
  {
   "type": "Feature",
   "geometry": {
    "type": "Point",
    "coordinates": [
     -0.0002628532724159007,
     -4.928498857796316e-05
    ]
   },
   "properties": {
    "classname": "item_healthkit_full",
    "team": "0",
    "targetname": "",
    "hx": -1536.0,
    "hy": -288.0,
    "hz": 578.0
   }
  },
  {
   "type": "Feature",
   "geometry": {
    "type": "Point",
    "coordinates": [
     -0.00026285327241586234,
     -3.833276889397134e-05
    ]
   },
   "properties": {
    "classname": "item_ammopack_full",
    "team": "0",
    "targetname": "",
    "hx": -1536.0,
    "hy": -224.0,
    "hz": 578.0
   }
  },
  {
   "type": "Feature",
   "geometry": {
    "type": "Point",
    "coordinates": [
     0.0002874957667050805,
     -8.21416476299386e-05
    ]
   },
   "properties": {
    "classname": "item_ammopack_full",
    "team": "0",
    "targetname": "",
    "hx": 1680.0,
    "hy": -480.0,
    "hz": 736.0
   }
  },
  {
   "type": "Feature",
   "geometry": {
    "type": "Point",
    "coordinates": [
     0.00028749576670516455,
     -9.30938673139304e-05
    ]
   },
   "properties": {
    "classname": "item_healthkit_medium",
    "team": "0",
    "targetname": "",
    "hx": 1680.0,
    "hy": -544.0,
    "hz": 736.0
   }
  },
  {
   "type": "Feature",
   "geometry": {
    "type": "Point",
    "coordinates": [
     0.00028749576670999684,
     -0.00034499492004574206
    ]
   },
   "properties": {
    "classname": "item_healthkit_full",
    "team": "0",
    "targetname": "",
    "hx": 1680.0,
    "hy": -2016.0,
    "hz": 704.0
   }
  },
  {
   "type": "Feature",
   "geometry": {
    "type": "Point",
    "coordinates": [
     0.00028749576670967115,
     -0.00033404270036175025
    ]
   },
   "properties": {
    "classname": "item_ammopack_full",
    "team": "0",
    "targetname": "",
    "hx": 1680.0,
    "hy": -1952.0,
    "hz": 704.0
   }
  },
  {
   "type": "Feature",
   "geometry": {
    "type": "Point",
    "coordinates": [
     5.476109842032023e-06,
     -0.00020809217399584442
    ]
   },
   "properties": {
    "classname": "item_ammopack_full",
    "team": "0",
    "targetname": "",
    "hx": 32.0,
    "hy": -1216.0,
    "hz": 323.211
   }
  },
  {
   "type": "Feature",
   "geometry": {
    "type": "Point",
    "coordinates": [
     -5.476109842032023e-06,
     -0.00020809217399584442
    ]
   },
   "properties": {
    "classname": "item_healthkit_full",
    "team": "0",
    "targetname": "",
    "hx": -32.0,
    "hy": -1216.0,
    "hz": 323.211
   }
  },
  {
   "type": "Feature",
   "geometry": {
    "type": "Point",
    "coordinates": [
     -8.214164762998821e-05,
     -6.297526318295293e-05
    ]
   },
   "properties": {
    "classname": "item_ammopack_medium",
    "team": "0",
    "targetname": "",
    "hx": -480.0,
    "hy": -368.0,
    "hz": 738.0
   }
  },
  {
   "type": "Feature",
   "geometry": {
    "type": "Point",
    "coordinates": [
     8.036396547252783e-05,
     -6.207598326983765e-05
    ]
   },
   "properties": {
    "classname": "item_ammopack_medium",
    "team": "0",
    "targetname": "",
    "hx": 469.612,
    "hy": -362.745,
    "hz": 738.0
   }
  },
  {
   "type": "Feature",
   "geometry": {
    "type": "Point",
    "coordinates": [
     -0.00015333107557674325,
     0.0001916638444698567
    ]
   },
   "properties": {
    "classname": "item_ammopack_full",
    "team": "0",
    "targetname": "",
    "hx": -896.0,
    "hy": 1120.0,
    "hz": 464.0
   }
  },
  {
   "type": "Feature",
   "geometry": {
    "type": "Point",
    "coordinates": [
     0.00018071162478665808,
     0.0001697594051018731
    ]
   },
   "properties": {
    "classname": "item_ammopack_full",
    "team": "0",
    "targetname": "",
    "hx": 1056.0,
    "hy": 992.0,
    "hz": 576.0
   }
  },
  {
   "type": "Feature",
   "geometry": {
    "type": "Point",
    "coordinates": [
     2.4642494288990694e-05,
     4.928498857796316e-05
    ]
   },
   "properties": {
    "classname": "item_ammopack_full",
    "team": "0",
    "targetname": "",
    "hx": 144.0,
    "hy": 288.0,
    "hz": 450.0
   }
  },
  {
   "type": "Feature",
   "geometry": {
    "type": "Point",
    "coordinates": [
     0.00019166384447069797,
     0.0001697594051018731
    ]
   },
   "properties": {
    "classname": "item_healthkit_medium",
    "team": "0",
    "targetname": "",
    "hx": 1120.0,
    "hy": 992.0,
    "hz": 578.0
   }
  },
  {
   "type": "Feature",
   "geometry": {
    "type": "Point",
    "coordinates": [
     -0.00015880718542076014,
     -0.00034499492004574206
    ]
   },
   "properties": {
    "classname": "item_healthkit_full",
    "team": "0",
    "targetname": "",
    "hx": -928.0,
    "hy": -2016.0,
    "hz": 355.211
   }
  },
  {
   "type": "Feature",
   "geometry": {
    "type": "Point",
    "coordinates": [
     -0.00015880718542058024,
     -0.00033404270036175025
    ]
   },
   "properties": {
    "classname": "item_ammopack_full",
    "team": "0",
    "targetname": "",
    "hx": -928.0,
    "hy": -1952.0,
    "hz": 355.211
   }
  },
  {
   "type": "Feature",
   "geometry": {
    "type": "Point",
    "coordinates": [
     -0.00013690274605207428,
     -0.00032309048067775845
    ]
   },
   "properties": {
    "classname": "item_healthkit_medium",
    "team": "0",
    "targetname": "",
    "hx": -800.0,
    "hy": -1888.0,
    "hz": 642.0
   }
  },
  {
   "type": "Feature",
   "geometry": {
    "type": "Point",
    "coordinates": [
     -0.00013690274605192922,
     -0.00031213826099376664
    ]
   },
   "properties": {
    "classname": "item_ammopack_medium",
    "team": "0",
    "targetname": "",
    "hx": -800.0,
    "hy": -1824.0,
    "hz": 642.0
   }
  },
  {
   "type": "Feature",
   "geometry": {
    "type": "Point",
    "coordinates": [
     -8.214164763099245e-05,
     0.00029023382162578307
    ]
   },
   "properties": {
    "classname": "item_ammopack_full",
    "team": "0",
    "targetname": "",
    "hx": -480.0,
    "hy": 1696.0,
    "hz": 497.0
   }
  },
  {
   "type": "Feature",
   "geometry": {
    "type": "Point",
    "coordinates": [
     8.761775747400905e-05,
     0.0003942799086237053
    ]
   },
   "properties": {
    "classname": "item_ammopack_full",
    "team": "0",
    "targetname": "",
    "hx": 512.0,
    "hy": 2304.0,
    "hz": 496.0
   }
  },
  {
   "type": "Feature",
   "geometry": {
    "type": "Point",
    "coordinates": [
     0.00019166384447390458,
     0.0003723754692557216
    ]
   },
   "properties": {
    "classname": "info_player_teamspawn",
    "team": "3",
    "targetname": "spawnbot_giant",
    "hx": 1120.0,
    "hy": 2176.0,
    "hz": 448.0
   }
  },
  {
   "type": "Feature",
   "geometry": {
    "type": "Point",
    "coordinates": [
     -0.0003011860413175128,
     0.0004107082381496929
    ]
   },
   "properties": {
    "classname": "info_player_teamspawn",
    "team": "3",
    "targetname": "spawnbot_giant",
    "hx": -1760.0,
    "hy": 2400.0,
    "hz": 256.0
   }
  },
  {
   "type": "Feature",
   "geometry": {
    "type": "Point",
    "coordinates": [
     3.755858386964099e-05,
     0.0008949572089087396
    ]
   },
   "properties": {
    "classname": "info_player_teamspawn",
    "team": "3",
    "targetname": "spawnbot",
    "hx": 219.476,
    "hy": 5229.74,
    "hz": 411.82
   }
  },
  {
   "type": "Feature",
   "geometry": {
    "type": "Point",
    "coordinates": [
     3.7558583869585094e-05,
     0.0008894810990667438
    ]
   },
   "properties": {
    "classname": "info_player_teamspawn",
    "team": "3",
    "targetname": "spawnbot_invasion",
    "hx": 219.476,
    "hy": 5197.74,
    "hz": 411.82
   }
  },
  {
   "type": "Feature",
   "geometry": {
    "type": "Point",
    "coordinates": [
     1.017796620494824e-05,
     0.0008949572089087396
    ]
   },
   "properties": {
    "classname": "info_player_teamspawn",
    "team": "3",
    "targetname": "spawnbot",
    "hx": 59.4756,
    "hy": 5229.74,
    "hz": 411.82
   }
  },
  {
   "type": "Feature",
   "geometry": {
    "type": "Point",
    "coordinates": [
     1.0177966204933093e-05,
     0.0008894810990667438
    ]
   },
   "properties": {
    "classname": "info_player_teamspawn",
    "team": "3",
    "targetname": "spawnbot_invasion",
    "hx": 59.4756,
    "hy": 5197.74,
    "hz": 411.82
   }
  },
  {
   "type": "Feature",
   "geometry": {
    "type": "Point",
    "coordinates": [
     1.0177966204918038e-05,
     0.0008840049892247479
    ]
   },
   "properties": {
    "classname": "info_player_teamspawn",
    "team": "3",
    "targetname": "spawnbot_mission_spy",
    "hx": 59.4756,
    "hy": 5165.74,
    "hz": 411.82
   }
  },
  {
   "type": "Feature",
   "geometry": {
    "type": "Point",
    "coordinates": [
     -1.7202514556998446e-05,
     0.0008949572089087396
    ]
   },
   "properties": {
    "classname": "info_player_teamspawn",
    "team": "3",
    "targetname": "spawnbot",
    "hx": -100.524,
    "hy": 5229.74,
    "hz": 411.82
   }
  },
  {
   "type": "Feature",
   "geometry": {
    "type": "Point",
    "coordinates": [
     -1.7202514556972845e-05,
     0.0008894810990667438
    ]
   },
   "properties": {
    "classname": "info_player_teamspawn",
    "team": "3",
    "targetname": "spawnbot_invasion",
    "hx": -100.524,
    "hy": 5197.74,
    "hz": 411.82
   }
  },
  {
   "type": "Feature",
   "geometry": {
    "type": "Point",
    "coordinates": [
     0.0001916638444741462,
     0.0003833276889397134
    ]
   },
   "properties": {
    "classname": "info_player_teamspawn",
    "team": "3",
    "targetname": "spawnbot_mission_sniper",
    "hx": 1120.0,
    "hy": 2240.0,
    "hz": 448.0
   }
  },
  {
   "type": "Feature",
   "geometry": {
    "type": "Point",
    "coordinates": [
     -0.0002792816019489664,
     0.0004107082381496929
    ]
   },
   "properties": {
    "classname": "info_player_teamspawn",
    "team": "3",
    "targetname": "spawnbot_mission_sniper",
    "hx": -1632.0,
    "hy": 2400.0,
    "hz": 256.0
   }
  },
  {
   "type": "Feature",
   "geometry": {
    "type": "Point",
    "coordinates": [
     0.00019166384447402452,
     0.00037785157909771754
    ]
   },
   "properties": {
    "classname": "info_player_teamspawn",
    "team": "3",
    "targetname": "spawnbot_invasion",
    "hx": 1120.0,
    "hy": 2208.0,
    "hz": 448.0
   }
  },
  {
   "type": "Feature",
   "geometry": {
    "type": "Point",
    "coordinates": [
     -0.00028886479417270547,
     0.0004107082381496929
    ]
   },
   "properties": {
    "classname": "info_player_teamspawn",
    "team": "3",
    "targetname": "spawnbot_invasion",
    "hx": -1688.0,
    "hy": 2400.0,
    "hz": 256.0
   }
  },
  {
   "type": "Feature",
   "geometry": {
    "type": "Point",
    "coordinates": [
     0.00016428329526327066,
     -0.0003682683868742247
    ]
   },
   "properties": {
    "classname": "item_ammopack_full",
    "team": "0",
    "targetname": "",
    "hx": 960.0,
    "hy": -2152.0,
    "hz": 398.315
   }
  },
  {
   "type": "Feature",
   "geometry": {
    "type": "Point",
    "coordinates": [
     0.00028065062940261837,
     -8.76177574719345e-05
    ]
   },
   "properties": {
    "classname": "item_ammopack_medium",
    "team": "0",
    "targetname": "",
    "hx": 1640.0,
    "hy": -512.0,
    "hz": 736.0
   }
  },
  {
   "type": "Feature",
   "geometry": {
    "type": "Point",
    "coordinates": [
     0.00014922399320009468,
     -0.0005010640505426254
    ]
   },
   "properties": {
    "classname": "info_player_teamspawn",
    "team": "2",
    "targetname": "respawnpoints",
    "hx": 872.0,
    "hy": -2928.0,
    "hz": 528.0
   }
  },
  {
   "type": "Feature",
   "geometry": {
    "type": "Point",
    "coordinates": [
     0.00016291426780560796,
     -0.0005010640505426254
    ]
   },
   "properties": {
    "classname": "info_player_teamspawn",
    "team": "2",
    "targetname": "respawnpoints",
    "hx": 952.0,
    "hy": -2928.0,
    "hz": 528.0
   }
  },
  {
   "type": "Feature",
   "geometry": {
    "type": "Point",
    "coordinates": [
     0.0001410098284364961,
     -0.00048737377593763563
    ]
   },
   "properties": {
    "classname": "info_player_teamspawn",
    "team": "2",
    "targetname": "respawnpoints",
    "hx": 824.0,
    "hy": -2848.0,
    "hz": 528.0
   }
  },
  {
   "type": "Feature",
   "geometry": {
    "type": "Point",
    "coordinates": [
     0.00013690274605513274,
     -0.0005010640505426254
    ]
   },
   "properties": {
    "classname": "info_player_teamspawn",
    "team": "2",
    "targetname": "respawnpoints",
    "hx": 800.0,
    "hy": -2928.0,
    "hz": 528.0
   }
  },
  {
   "type": "Feature",
   "geometry": {
    "type": "Point",
    "coordinates": [
     0.00015470010304198114,
     -0.00048737377593763563
    ]
   },
   "properties": {
    "classname": "info_player_teamspawn",
    "team": "2",
    "targetname": "respawnpoints",
    "hx": 904.0,
    "hy": -2848.0,
    "hz": 528.0
   }
  },
  {
   "type": "Feature",
   "geometry": {
    "type": "Point",
    "coordinates": [
     -0.00014100982843661138,
     -0.0004928498857796316
    ]
   },
   "properties": {
    "classname": "info_player_teamspawn",
    "team": "2",
    "targetname": "respawnpoints",
    "hx": -824.0,
    "hy": -2880.0,
    "hz": 536.0
   }
  },
  {
   "type": "Feature",
   "geometry": {
    "type": "Point",
    "coordinates": [
     -0.00014648593827911512,
     -0.0005065401603846214
    ]
   },
   "properties": {
    "classname": "info_player_teamspawn",
    "team": "2",
    "targetname": "respawnpoints",
    "hx": -856.0,
    "hy": -2960.0,
    "hz": 536.0
   }
  },
  {
   "type": "Feature",
   "geometry": {
    "type": "Point",
    "coordinates": [
     -0.0001547001030421076,
     -0.0004928498857796316
    ]
   },
   "properties": {
    "classname": "info_player_teamspawn",
    "team": "2",
    "targetname": "respawnpoints",
    "hx": -904.0,
    "hy": -2880.0,
    "hz": 536.0
   }
  },
  {
   "type": "Feature",
   "geometry": {
    "type": "Point",
    "coordinates": [
     -0.00016017621288463992,
     -0.0005065401603846214
    ]
   },
   "properties": {
    "classname": "info_player_teamspawn",
    "team": "2",
    "targetname": "respawnpoints",
    "hx": -936.0,
    "hy": -2960.0,
    "hz": 536.0
   }
  },
  {
   "type": "Feature",
   "geometry": {
    "type": "Point",
    "coordinates": [
     -0.00016839037764760387,
     -0.0004928498857796316
    ]
   },
   "properties": {
    "classname": "info_player_teamspawn",
    "team": "2",
    "targetname": "respawnpoints",
    "hx": -984.0,
    "hy": -2880.0,
    "hz": 536.0
   }
  }
 ]
}
