{
 "type": "FeatureCollection",
 "note": "pseudo-WGS84 via crs.local_to_wgs84 ((0,0)m maps to (0,0)deg); viewing only, not survey",
 "features": [
  {
   "type": "Feature",
   "geometry": {
    "type": "Point",
    "coordinates": [
     -0.0009856997716011877,
     0.0005284445997526049
    ]
   },
   "properties": {
    "classname": "info_player_teamspawn",
    "team": "2",
    "targetname": "red_spawn_forward",
    "hx": -5760.0,
    "hy": 3088.0,
    "hz": 655.84
   }
  },
  {
   "type": "Feature",
   "geometry": {
    "type": "Point",
    "coordinates": [
     -0.0009856997716029435,
     0.0005393968194365967
    ]
   },
   "properties": {
    "classname": "info_player_teamspawn",
    "team": "2",
    "targetname": "red_spawn_forward",
    "hx": -5760.0,
    "hy": 3152.0,
    "hz": 655.84
   }
  },
  {
   "type": "Feature",
   "geometry": {
    "type": "Point",
    "coordinates": [
     -0.0017797356990367549,
     0.0011965300004761054
    ]
   },
   "properties": {
    "classname": "info_player_teamspawn",
    "team": "3",
    "targetname": "blu_spawn_forward",
    "hx": -10400.0,
    "hy": 6992.0,
    "hz": 655.84
   }
  },
  {
   "type": "Feature",
   "geometry": {
    "type": "Point",
    "coordinates": [
     -0.0017906879187321212,
     0.0012102202750810952
    ]
   },
   "properties": {
    "classname": "info_player_teamspawn",
    "team": "3",
    "targetname": "blu_spawn_forward",
    "hx": -10464.0,
    "hy": 7072.0,
    "hz": 655.84
   }
  },
  {
   "type": "Feature",
   "geometry": {
    "type": "Point",
    "coordinates": [
     -0.002097350069910918,
     0.0011554591766611362
    ]
   },
   "properties": {
    "classname": "info_player_teamspawn",
    "team": "3",
    "targetname": "blu_spawn_defense",
    "hx": -12256.0,
    "hy": 6752.0,
    "hz": 576.0
   }
  },
  {
   "type": "Feature",
   "geometry": {
    "type": "Point",
    "coordinates": [
     -0.0020973500699190415,
     0.0011664113963451282
    ]
   },
   "properties": {
    "classname": "info_player_teamspawn",
    "team": "3",
    "targetname": "blu_spawn_defense",
    "hx": -12256.0,
    "hy": 6816.0,
    "hz": 576.0
   }
  },
  {
   "type": "Feature",
   "geometry": {
    "type": "Point",
    "coordinates": [
     -0.002124730619155608,
     0.0011937919455551073
    ]
   },
   "properties": {
    "classname": "info_player_teamspawn",
    "team": "3",
    "targetname": "blu_spawn_defense",
    "hx": -12416.0,
    "hy": 6976.0,
    "hz": 576.0
   }
  },
  {
   "type": "Feature",
   "geometry": {
    "type": "Point",
    "coordinates": [
     -0.002130206729011606,
     0.0012102202750810952
    ]
   },
   "properties": {
    "classname": "info_player_teamspawn",
    "team": "3",
    "targetname": "blu_spawn_defense",
    "hx": -12448.0,
    "hy": 7072.0,
    "hz": 576.0
   }
  },
  {
   "type": "Feature",
   "geometry": {
    "type": "Point",
    "coordinates": [
     -0.002141158948698041,
     0.0012102202750810952
    ]
   },
   "properties": {
    "classname": "info_player_teamspawn",
    "team": "3",
    "targetname": "blu_spawn_defense",
    "hx": -12512.0,
    "hy": 7072.0,
    "hz": 576.0
   }
  },
  {
   "type": "Feature",
   "geometry": {
    "type": "Point",
    "coordinates": [
     -0.002135682838841977,
     0.0011937919455551073
    ]
   },
   "properties": {
    "classname": "info_player_teamspawn",
    "team": "3",
    "targetname": "blu_spawn_defense",
    "hx": -12480.0,
    "hy": 6976.0,
    "hz": 576.0
   }
  },
  {
   "type": "Feature",
   "geometry": {
    "type": "Point",
    "coordinates": [
     -0.002152111168384476,
     0.0012102202750810952
    ]
   },
   "properties": {
    "classname": "info_player_teamspawn",
    "team": "3",
    "targetname": "blu_spawn_defense",
    "hx": -12576.0,
    "hy": 7072.0,
    "hz": 576.0
   }
  },
  {
   "type": "Feature",
   "geometry": {
    "type": "Point",
    "coordinates": [
     -0.0020973500699272415,
     0.0011773636160291197
    ]
   },
   "properties": {
    "classname": "info_player_teamspawn",
    "team": "3",
    "targetname": "blu_spawn_defense",
    "hx": -12256.0,
    "hy": 6880.0,
    "hz": 576.0
   }
  },
  {
   "type": "Feature",
   "geometry": {
    "type": "Point",
    "coordinates": [
     -0.0021466350585283463,
     0.0011937919455551073
    ]
   },
   "properties": {
    "classname": "info_player_teamspawn",
    "team": "3",
    "targetname": "blu_spawn_defense",
    "hx": -12544.0,
    "hy": 6976.0,
    "hz": 576.0
   }
  },
  {
   "type": "Feature",
   "geometry": {
    "type": "Point",
    "coordinates": [
     -0.002163063388070911,
     0.0012102202750810952
    ]
   },
   "properties": {
    "classname": "info_player_teamspawn",
    "team": "3",
    "targetname": "blu_spawn_defense",
    "hx": -12640.0,
    "hy": 7072.0,
    "hz": 576.0
   }
  },
  {
   "type": "Feature",
   "geometry": {
    "type": "Point",
    "coordinates": [
     -0.002157587278214715,
     0.0011937919455551073
    ]
   },
   "properties": {
    "classname": "info_player_teamspawn",
    "team": "3",
    "targetname": "blu_spawn_defense",
    "hx": -12608.0,
    "hy": 6976.0,
    "hz": 576.0
   }
  },
  {
   "type": "Feature",
   "geometry": {
    "type": "Point",
    "coordinates": [
     -0.002119254509325171,
     0.0012102202750810952
    ]
   },
   "properties": {
    "classname": "info_player_teamspawn",
    "team": "3",
    "targetname": "blu_spawn_defense",
    "hx": -12384.0,
    "hy": 7072.0,
    "hz": 576.0
   }
  },
  {
   "type": "Feature",
   "geometry": {
    "type": "Point",
    "coordinates": [
     -0.0020973500699355183,
     0.0011883158357131115
    ]
   },
   "properties": {
    "classname": "info_player_teamspawn",
    "team": "3",
    "targetname": "blu_spawn_defense",
    "hx": -12256.0,
    "hy": 6944.0,
    "hz": 576.0
   }
  },
  {
   "type": "Feature",
   "geometry": {
    "type": "Point",
    "coordinates": [
     -0.002113778399452556,
     0.0011718875061871238
    ]
   },
   "properties": {
    "classname": "info_player_teamspawn",
    "team": "3",
    "targetname": "blu_spawn_defense",
    "hx": -12352.0,
    "hy": 6848.0,
    "hz": 576.0
   }
  },
  {
   "type": "Feature",
   "geometry": {
    "type": "Point",
    "coordinates": [
     -0.0021137783994608587,
     0.0011828397258711156
    ]
   },
   "properties": {
    "classname": "info_player_teamspawn",
    "team": "3",
    "targetname": "blu_spawn_defense",
    "hx": -12352.0,
    "hy": 6912.0,
    "hz": 576.0
   }
  },
  {
   "type": "Feature",
   "geometry": {
    "type": "Point",
    "coordinates": [
     -0.0021137783994443302,
     0.0011609352865031323
    ]
   },
   "properties": {
    "classname": "info_player_teamspawn",
    "team": "3",
    "targetname": "blu_spawn_defense",
    "hx": -12352.0,
    "hy": 6784.0,
    "hz": 576.0
   }
  },
  {
   "type": "Feature",
   "geometry": {
    "type": "Point",
    "coordinates": [
     -0.001949495103940343,
     0.0007995120369314023
    ]
   },
   "properties": {
    "classname": "item_ammopack_medium",
    "team": "",
    "targetname": "",
    "hx": -11392.0,
    "hy": 4672.0,
    "hz": 428.0
   }
  },
  {
   "type": "Feature",
   "geometry": {
    "type": "Point",
    "coordinates": [
     -0.0019494951039300855,
     0.0007776075975634187
    ]
   },
   "properties": {
    "classname": "item_healthkit_medium",
    "team": "",
    "targetname": "",
    "hx": -11392.0,
    "hy": 4544.0,
    "hz": 420.0
   }
  },
  {
   "type": "Feature",
   "geometry": {
    "type": "Point",
    "coordinates": [
     -0.0008542731354694925,
     0.0009528431125072877
    ]
   },
   "properties": {
    "classname": "item_ammopack_medium",
    "team": "",
    "targetname": "",
    "hx": -4992.0,
    "hy": 5568.0,
    "hz": 428.0
   }
  },
  {
   "type": "Feature",
   "geometry": {
    "type": "Point",
    "coordinates": [
     -0.0008542731354749862,
     0.0009747475518752713
    ]
   },
   "properties": {
    "classname": "item_healthkit_medium",
    "team": "",
    "targetname": "",
    "hx": -4992.0,
    "hy": 5696.0,
    "hz": 420.0
   }
  },
  {
   "type": "Feature",
   "geometry": {
    "type": "Point",
    "coordinates": [
     -0.0015579532501756065,
     0.0007337987188274515
    ]
   },
   "properties": {
    "classname": "item_ammopack_medium",
    "team": "",
    "targetname": "",
    "hx": -9104.0,
    "hy": 4288.0,
    "hz": 1032.0
   }
  },
  {
   "type": "Feature",
   "geometry": {
    "type": "Point",
    "coordinates": [
     -0.0015743815797029416,
     0.0007337987188274515
    ]
   },
   "properties": {
    "classname": "item_healthkit_medium",
    "team": "",
    "targetname": "",
    "hx": -9200.0,
    "hy": 4288.0,
    "hz": 1031.98
   }
  },
  {
   "type": "Feature",
   "geometry": {
    "type": "Point",
    "coordinates": [
     -0.0010185564306601153,
     0.0005613012588045804
    ]
   },
   "properties": {
    "classname": "info_player_teamspawn",
    "team": "2",
    "targetname": "red_spawn_forward",
    "hx": -5952.0,
    "hy": 3280.0,
    "hz": 655.84
   }
  },
  {
   "type": "Feature",
   "geometry": {
    "type": "Point",
    "coordinates": [
     -0.0009966519912892324,
     0.0005503490391205885
    ]
   },
   "properties": {
    "classname": "info_player_teamspawn",
    "team": "2",
    "targetname": "red_spawn_forward",
    "hx": -5824.0,
    "hy": 3216.0,
    "hz": 655.84
   }
  },
  {
   "type": "Feature",
   "geometry": {
    "type": "Point",
    "coordinates": [
     -0.0010076042109718978,
     0.0005393968194365967
    ]
   },
   "properties": {
    "classname": "info_player_teamspawn",
    "team": "2",
    "targetname": "red_spawn_forward",
    "hx": -5888.0,
    "hy": 3152.0,
    "hz": 655.84
   }
  },
  {
   "type": "Feature",
   "geometry": {
    "type": "Point",
    "coordinates": [
     -0.001007604210970103,
     0.0005284445997526049
    ]
   },
   "properties": {
    "classname": "info_player_teamspawn",
    "team": "2",
    "targetname": "red_spawn_forward",
    "hx": -5888.0,
    "hy": 3088.0,
    "hz": 655.84
   }
  },
  {
   "type": "Feature",
   "geometry": {
    "type": "Point",
    "coordinates": [
     -0.0010185564306545605,
     0.0005284445997526049
    ]
   },
   "properties": {
    "classname": "info_player_teamspawn",
    "team": "2",
    "targetname": "red_spawn_forward",
    "hx": -5952.0,
    "hy": 3088.0,
    "hz": 655.84
   }
  },
  {
   "type": "Feature",
   "geometry": {
    "type": "Point",
    "coordinates": [
     -0.0010185564306582266,
     0.0005503490391205885
    ]
   },
   "properties": {
    "classname": "info_player_teamspawn",
    "team": "2",
    "targetname": "red_spawn_forward",
    "hx": -5952.0,
    "hy": 3216.0,
    "hz": 655.84
   }
  },
  {
   "type": "Feature",
   "geometry": {
    "type": "Point",
    "coordinates": [
     -0.001018556430656375,
     0.0005393968194365967
    ]
   },
   "properties": {
    "classname": "info_player_teamspawn",
    "team": "2",
    "targetname": "red_spawn_forward",
    "hx": -5952.0,
    "hy": 3152.0,
    "hz": 655.84
   }
  },
  {
   "type": "Feature",
   "geometry": {
    "type": "Point",
    "coordinates": [
     -0.0009966519912856452,
     0.0005284445997526049
    ]
   },
   "properties": {
    "classname": "info_player_teamspawn",
    "team": "2",
    "targetname": "red_spawn_forward",
    "hx": -5824.0,
    "hy": 3088.0,
    "hz": 655.84
   }
  },
  {
   "type": "Feature",
   "geometry": {
    "type": "Point",
    "coordinates": [
     -0.0010295086503390183,
     0.0005284445997526049
    ]
   },
   "properties": {
    "classname": "info_player_teamspawn",
    "team": "2",
    "targetname": "red_spawn_forward",
    "hx": -6016.0,
    "hy": 3088.0,
    "hz": 655.84
   }
  },
  {
   "type": "Feature",
   "geometry": {
    "type": "Point",
    "coordinates": [
     -0.0010295086503427236,
     0.0005503490391205885
    ]
   },
   "properties": {
    "classname": "info_player_teamspawn",
    "team": "2",
    "targetname": "red_spawn_forward",
    "hx": -6016.0,
    "hy": 3216.0,
    "hz": 655.84
   }
  },
  {
   "type": "Feature",
   "geometry": {
    "type": "Point",
    "coordinates": [
     -0.001029508650340852,
     0.0005393968194365967
    ]
   },
   "properties": {
    "classname": "info_player_teamspawn",
    "team": "2",
    "targetname": "red_spawn_forward",
    "hx": -6016.0,
    "hy": 3152.0,
    "hz": 655.84
   }
  },
  {
   "type": "Feature",
   "geometry": {
    "type": "Point",
    "coordinates": [
     -0.0010295086503446327,
     0.0005613012588045804
    ]
   },
   "properties": {
    "classname": "info_player_teamspawn",
    "team": "2",
    "targetname": "red_spawn_forward",
    "hx": -6016.0,
    "hy": 3280.0,
    "hz": 655.84
   }
  },
  {
   "type": "Feature",
   "geometry": {
    "type": "Point",
    "coordinates": [
     -0.0009966519912874207,
     0.0005393968194365967
    ]
   },
   "properties": {
    "classname": "info_player_teamspawn",
    "team": "2",
    "targetname": "red_spawn_forward",
    "hx": -5824.0,
    "hy": 3152.0,
    "hz": 655.84
   }
  },
  {
   "type": "Feature",
   "geometry": {
    "type": "Point",
    "coordinates": [
     -0.001801640138409515,
     0.0011965300004761054
    ]
   },
   "properties": {
    "classname": "info_player_teamspawn",
    "team": "3",
    "targetname": "blu_spawn_forward",
    "hx": -10528.0,
    "hy": 6992.0,
    "hz": 655.84
   }
  },
  {
   "type": "Feature",
   "geometry": {
    "type": "Point",
    "coordinates": [
     -0.0018235445777914263,
     0.0012102202750810952
    ]
   },
   "properties": {
    "classname": "info_player_teamspawn",
    "team": "3",
    "targetname": "blu_spawn_forward",
    "hx": -10656.0,
    "hy": 7072.0,
    "hz": 655.84
   }
  },
  {
   "type": "Feature",
   "geometry": {
    "type": "Point",
    "coordinates": [
     -0.0018125923581049912,
     0.0012102202750810952
    ]
   },
   "properties": {
    "classname": "info_player_teamspawn",
    "team": "3",
    "targetname": "blu_spawn_forward",
    "hx": -10592.0,
    "hy": 7072.0,
    "hz": 655.84
   }
  },
  {
   "type": "Feature",
   "geometry": {
    "type": "Point",
    "coordinates": [
     -0.0018016401384185563,
     0.0012102202750810952
    ]
   },
   "properties": {
    "classname": "info_player_teamspawn",
    "team": "3",
    "targetname": "blu_spawn_forward",
    "hx": -10528.0,
    "hy": 7072.0,
    "hz": 655.84
   }
  },
  {
   "type": "Feature",
   "geometry": {
    "type": "Point",
    "coordinates": [
     -0.00179068791874121,
     0.001223910549686085
    ]
   },
   "properties": {
    "classname": "info_player_teamspawn",
    "team": "3",
    "targetname": "blu_spawn_forward",
    "hx": -10464.0,
    "hy": 7152.0,
    "hz": 655.84
   }
  },
  {
   "type": "Feature",
   "geometry": {
    "type": "Point",
    "coordinates": [
     -0.0018016401384277007,
     0.001223910549686085
    ]
   },
   "properties": {
    "classname": "info_player_teamspawn",
    "team": "3",
    "targetname": "blu_spawn_forward",
    "hx": -10528.0,
    "hy": 7152.0,
    "hz": 655.84
   }
  },
  {
   "type": "Feature",
   "geometry": {
    "type": "Point",
    "coordinates": [
     -0.0018125923581141913,
     0.001223910549686085
    ]
   },
   "properties": {
    "classname": "info_player_teamspawn",
    "team": "3",
    "targetname": "blu_spawn_forward",
    "hx": -10592.0,
    "hy": 7152.0,
    "hz": 655.84
   }
  },
  {
   "type": "Feature",
   "geometry": {
    "type": "Point",
    "coordinates": [
     -0.001823544577800682,
     0.001223910549686085
    ]
   },
   "properties": {
    "classname": "info_player_teamspawn",
    "team": "3",
    "targetname": "blu_spawn_forward",
    "hx": -10656.0,
    "hy": 7152.0,
    "hz": 655.84
   }
  },
  {
   "type": "Feature",
   "geometry": {
    "type": "Point",
    "coordinates": [
     -0.0017687834793503748,
     0.0011965300004761054
    ]
   },
   "properties": {
    "classname": "info_player_teamspawn",
    "team": "3",
    "targetname": "blu_spawn_forward",
    "hx": -10336.0,
    "hy": 6992.0,
    "hz": 655.84
   }
  },
  {
   "type": "Feature",
   "geometry": {
    "type": "Point",
    "coordinates": [
     -0.0017687834793592512,
     0.0012102202750810952
    ]
   },
   "properties": {
    "classname": "info_player_teamspawn",
    "team": "3",
    "targetname": "blu_spawn_forward",
    "hx": -10336.0,
    "hy": 7072.0,
    "hz": 655.84
   }
  },
  {
   "type": "Feature",
   "geometry": {
    "type": "Point",
    "coordinates": [
     -0.0017797356990547197,
     0.001223910549686085
    ]
   },
   "properties": {
    "classname": "info_player_teamspawn",
    "team": "3",
    "targetname": "blu_spawn_forward",
    "hx": -10400.0,
    "hy": 7152.0,
    "hz": 655.84
   }
  },
  {
   "type": "Feature",
   "geometry": {
    "type": "Point",
    "coordinates": [
     -0.0017797356990456863,
     0.0012102202750810952
    ]
   },
   "properties": {
    "classname": "info_player_teamspawn",
    "team": "3",
    "targetname": "blu_spawn_forward",
    "hx": -10400.0,
    "hy": 7072.0,
    "hz": 655.84
   }
  },
  {
   "type": "Feature",
   "geometry": {
    "type": "Point",
    "coordinates": [
     -0.001790687918723135,
     0.0011965300004761054
    ]
   },
   "properties": {
    "classname": "info_player_teamspawn",
    "team": "3",
    "targetname": "blu_spawn_forward",
    "hx": -10464.0,
    "hy": 6992.0,
    "hz": 655.84
   }
  },
  {
   "type": "Feature",
   "geometry": {
    "type": "Point",
    "coordinates": [
     -0.001768783479368229,
     0.001223910549686085
    ]
   },
   "properties": {
    "classname": "info_player_teamspawn",
    "team": "3",
    "targetname": "blu_spawn_forward",
    "hx": -10336.0,
    "hy": 7152.0,
    "hz": 655.84
   }
  },
  {
   "type": "Feature",
   "geometry": {
    "type": "Point",
    "coordinates": [
     -0.0013443849663927086,
     0.0009446289477442938
    ]
   },
   "properties": {
    "classname": "item_healthkit_medium",
    "team": "",
    "targetname": "",
    "hx": -7856.0,
    "hy": 5520.0,
    "hz": 566.486
   }
  },
  {
   "type": "Feature",
   "geometry": {
    "type": "Point",
    "coordinates": [
     -0.0016447786831605042,
     0.0010637976543277528
    ]
   },
   "properties": {
    "classname": "item_healthkit_small",
    "team": "",
    "targetname": "",
    "hx": -9611.37,
    "hy": 6216.37,
    "hz": 529.815
   }
  },
  {
   "type": "Feature",
   "geometry": {
    "type": "Point",
    "coordinates": [
     -0.001646041610828052,
     0.000688189568980928
    ]
   },
   "properties": {
    "classname": "item_healthkit_small",
    "team": "",
    "targetname": "",
    "hx": -9618.75,
    "hy": 4021.48,
    "hz": 526.044
   }
  },
  {
   "type": "Feature",
   "geometry": {
    "type": "Point",
    "coordinates": [
     -0.00115768384648415,
     0.0010642288979778101
    ]
   },
   "properties": {
    "classname": "item_healthkit_small",
    "team": "",
    "targetname": "",
    "hx": -6765.0,
    "hy": 6218.89,
    "hz": 526.044
   }
  },
  {
   "type": "Feature",
   "geometry": {
    "type": "Point",
    "coordinates": [
     -0.0011589467742004619,
     0.0006886208126309852
    ]
   },
   "properties": {
    "classname": "item_healthkit_small",
    "team": "",
    "targetname": "",
    "hx": -6772.38,
    "hy": 4024.0,
    "hz": 529.815
   }
  },
  {
   "type": "Feature",
   "geometry": {
    "type": "Point",
    "coordinates": [
     -0.0012239105498794796,
     0.0010185564306112386
    ]
   },
   "properties": {
    "classname": "item_healthkit_medium",
    "team": "",
    "targetname": "",
    "hx": -7152.0,
    "hy": 5952.0,
    "hz": 1031.98
   }
  },
  {
   "type": "Feature",
   "geometry": {
    "type": "Point",
    "coordinates": [
     -0.0012403388794080632,
     0.0010185564306112386
    ]
   },
   "properties": {
    "classname": "item_ammopack_medium",
    "team": "",
    "targetname": "",
    "hx": -7248.0,
    "hy": 5952.0,
    "hz": 1032.0
   }
  },
  {
   "type": "Feature",
   "geometry": {
    "type": "Point",
    "coordinates": [
     -0.0007693934328727886,
     0.0007858217623264125
    ]
   },
   "properties": {
    "classname": "item_healthkit_small",
    "team": "",
    "targetname": "",
    "hx": -4496.0,
    "hy": 4592.0,
    "hz": 640.235
   }
  },
  {
   "type": "Feature",
   "geometry": {
    "type": "Point",
    "coordinates": [
     -0.0007803456525598706,
     0.0007967739820104044
    ]
   },
   "properties": {
    "classname": "item_ammopack_small",
    "team": "",
    "targetname": "",
    "hx": -4560.0,
    "hy": 4656.0,
    "hz": 640.261
   }
  },
  {
   "type": "Feature",
   "geometry": {
    "type": "Point",
    "coordinates": [
     -0.001971399543275415,
     0.0007228464991434596
    ]
   },
   "properties": {
    "classname": "item_healthkit_small",
    "team": "",
    "targetname": "",
    "hx": -11520.0,
    "hy": 4224.0,
    "hz": 576.235
   }
  },
  {
   "type": "Feature",
   "geometry": {
    "type": "Point",
    "coordinates": [
     -0.001933066774378393,
     0.0007228464991434596
    ]
   },
   "properties": {
    "classname": "item_ammopack_small",
    "team": "",
    "targetname": "",
    "hx": -11296.0,
    "hy": 4224.0,
    "hz": 576.256
   }
  },
  {
   "type": "Feature",
   "geometry": {
    "type": "Point",
    "coordinates": [
     -0.0008323686961177471,
     0.0010295086502952304
    ]
   },
   "properties": {
    "classname": "item_healthkit_small",
    "team": "",
    "targetname": "",
    "hx": -4864.0,
    "hy": 6016.0,
    "hz": 576.235
   }
  },
  {
   "type": "Feature",
   "geometry": {
    "type": "Point",
    "coordinates": [
     -0.0008707014650179065,
     0.0010295086502952304
    ]
   },
   "properties": {
    "classname": "item_ammopack_small",
    "team": "",
    "targetname": "",
    "hx": -5088.0,
    "hy": 6016.0,
    "hz": 576.256
   }
  },
  {
   "type": "Feature",
   "geometry": {
    "type": "Point",
    "coordinates": [
     -0.0007064181696558059,
     0.0005968959727775537
    ]
   },
   "properties": {
    "classname": "info_player_teamspawn",
    "team": "2",
    "targetname": "red_spawn_defense",
    "hx": -4128.0,
    "hy": 3488.0,
    "hz": 576.0
   }
  },
  {
   "type": "Feature",
   "geometry": {
    "type": "Point",
    "coordinates": [
     -0.000706418169654412,
     0.0005859437530935619
    ]
   },
   "properties": {
    "classname": "info_player_teamspawn",
    "team": "2",
    "targetname": "red_spawn_defense",
    "hx": -4128.0,
    "hy": 3424.0,
    "hz": 576.0
   }
  },
  {
   "type": "Feature",
   "geometry": {
    "type": "Point",
    "coordinates": [
     -0.0006899898401282428,
     0.0005914198629355578
    ]
   },
   "properties": {
    "classname": "info_player_teamspawn",
    "team": "2",
    "targetname": "red_spawn_defense",
    "hx": -4032.0,
    "hy": 3456.0,
    "hz": 576.0
   }
  },
  {
   "type": "Feature",
   "geometry": {
    "type": "Point",
    "coordinates": [
     -0.000706418169653044,
     0.0005749915334095702
    ]
   },
   "properties": {
    "classname": "info_player_teamspawn",
    "team": "2",
    "targetname": "red_spawn_defense",
    "hx": -4128.0,
    "hy": 3360.0,
    "hz": 576.0
   }
  },
  {
   "type": "Feature",
   "geometry": {
    "type": "Point",
    "coordinates": [
     -0.000689989840126894,
     0.0005804676432515661
    ]
   },
   "properties": {
    "classname": "info_player_teamspawn",
    "team": "2",
    "targetname": "red_spawn_defense",
    "hx": -4032.0,
    "hy": 3392.0,
    "hz": 576.0
   }
  },
  {
   "type": "Feature",
   "geometry": {
    "type": "Point",
    "coordinates": [
     -0.0007064181696517019,
     0.0005640393137255783
    ]
   },
   "properties": {
    "classname": "info_player_teamspawn",
    "team": "2",
    "targetname": "red_spawn_defense",
    "hx": -4128.0,
    "hy": 3296.0,
    "hz": 576.0
   }
  },
  {
   "type": "Feature",
   "geometry": {
    "type": "Point",
    "coordinates": [
     -0.0006899898401255704,
     0.0005695154235675742
    ]
   },
   "properties": {
    "classname": "info_player_teamspawn",
    "team": "2",
    "targetname": "red_spawn_defense",
    "hx": -4032.0,
    "hy": 3328.0,
    "hz": 576.0
   }
  },
  {
   "type": "Feature",
   "geometry": {
    "type": "Point",
    "coordinates": [
     -0.0006845137302801305,
     0.0005421348743575947
    ]
   },
   "properties": {
    "classname": "info_player_teamspawn",
    "team": "2",
    "targetname": "red_spawn_defense",
    "hx": -4000.0,
    "hy": 3168.0,
    "hz": 576.0
   }
  },
  {
   "type": "Feature",
   "geometry": {
    "type": "Point",
    "coordinates": [
     -0.0006790376204397597,
     0.0005585632038835824
    ]
   },
   "properties": {
    "classname": "info_player_teamspawn",
    "team": "2",
    "targetname": "red_spawn_defense",
    "hx": -3968.0,
    "hy": 3264.0,
    "hz": 576.0
   }
  },
  {
   "type": "Feature",
   "geometry": {
    "type": "Point",
    "coordinates": [
     -0.0006680854007552475,
     0.0005585632038835824
    ]
   },
   "properties": {
    "classname": "info_player_teamspawn",
    "team": "2",
    "targetname": "red_spawn_defense",
    "hx": -3904.0,
    "hy": 3264.0,
    "hz": 576.0
   }
  },
  {
   "type": "Feature",
   "geometry": {
    "type": "Point",
    "coordinates": [
     -0.0006735615105956485,
     0.0005421348743575947
    ]
   },
   "properties": {
    "classname": "info_player_teamspawn",
    "team": "2",
    "targetname": "red_spawn_defense",
    "hx": -3936.0,
    "hy": 3168.0,
    "hz": 576.0
   }
  },
  {
   "type": "Feature",
   "geometry": {
    "type": "Point",
    "coordinates": [
     -0.0006626092909111663,
     0.0005421348743575947
    ]
   },
   "properties": {
    "classname": "info_player_teamspawn",
    "team": "2",
    "targetname": "red_spawn_defense",
    "hx": -3872.0,
    "hy": 3168.0,
    "hz": 576.0
   }
  },
  {
   "type": "Feature",
   "geometry": {
    "type": "Point",
    "coordinates": [
     -0.0006571331810707352,
     0.0005585632038835824
    ]
   },
   "properties": {
    "classname": "info_player_teamspawn",
    "team": "2",
    "targetname": "red_spawn_defense",
    "hx": -3840.0,
    "hy": 3264.0,
    "hz": 576.0
   }
  },
  {
   "type": "Feature",
   "geometry": {
    "type": "Point",
    "coordinates": [
     -0.0006516570712266843,
     0.0005421348743575947
    ]
   },
   "properties": {
    "classname": "info_player_teamspawn",
    "team": "2",
    "targetname": "red_spawn_defense",
    "hx": -3808.0,
    "hy": 3168.0,
    "hz": 576.0
   }
  },
  {
   "type": "Feature",
   "geometry": {
    "type": "Point",
    "coordinates": [
     -0.0006407048515422022,
     0.0005421348743575947
    ]
   },
   "properties": {
    "classname": "info_player_teamspawn",
    "team": "2",
    "targetname": "red_spawn_defense",
    "hx": -3744.0,
    "hy": 3168.0,
    "hz": 576.0
   }
  },
  {
   "type": "Feature",
   "geometry": {
    "type": "Point",
    "coordinates": [
     -0.0006461809613862229,
     0.0005585632038835824
    ]
   },
   "properties": {
    "classname": "info_player_teamspawn",
    "team": "2",
    "targetname": "red_spawn_defense",
    "hx": -3776.0,
    "hy": 3264.0,
    "hz": 576.0
   }
  },
  {
   "type": "Feature",
   "geometry": {
    "type": "Point",
    "coordinates": [
     -0.002023422586898902,
     0.0009555811674282856
    ]
   },
   "properties": {
    "classname": "item_ammopack_small",
    "team": "",
    "targetname": "",
    "hx": -11824.0,
    "hy": 5584.0,
    "hz": 640.261
   }
  },
  {
   "type": "Feature",
   "geometry": {
    "type": "Point",
    "coordinates": [
     -0.0020343748065909397,
     0.0009665333871122775
    ]
   },
   "properties": {
    "classname": "item_healthkit_small",
    "team": "",
    "targetname": "",
    "hx": -11888.0,
    "hy": 5648.0,
    "hz": 640.235
   }
  },
  {
   "type": "Feature",
   "geometry": {
    "type": "Point",
    "coordinates": [
     -0.001160935286636342,
     0.0008679634099563511
    ]
   },
   "properties": {
    "classname": "item_ammopack_medium",
    "team": "",
    "targetname": "",
    "hx": -6784.0,
    "hy": 5072.0,
    "hz": 384.261
   }
  },
  {
   "type": "Feature",
   "geometry": {
    "type": "Point",
    "coordinates": [
     -0.001160935286641432,
     0.0008843917394823387
    ]
   },
   "properties": {
    "classname": "item_healthkit_medium",
    "team": "",
    "targetname": "",
    "hx": -6784.0,
    "hy": 5168.0,
    "hz": 384.261
   }
  },
  {
   "type": "Feature",
   "geometry": {
    "type": "Point",
    "coordinates": [
     -0.001642832952789662,
     0.000873439519798347
    ]
   },
   "properties": {
    "classname": "item_ammopack_medium",
    "team": "",
    "targetname": "",
    "hx": -9600.0,
    "hy": 5104.0,
    "hz": 384.261
   }
  },
  {
   "type": "Feature",
   "geometry": {
    "type": "Point",
    "coordinates": [
     -0.0016428329527825485,
     0.0008570111902723593
    ]
   },
   "properties": {
    "classname": "item_healthkit_medium",
    "team": "",
    "targetname": "",
    "hx": -9600.0,
    "hy": 5008.0,
    "hz": 384.261
   }
  },
  {
   "type": "Feature",
   "geometry": {
    "type": "Point",
    "coordinates": [
     -0.0011554591767631017,
     0.000761179268037431
    ]
   },
   "properties": {
    "classname": "item_ammopack_small",
    "team": "",
    "targetname": "",
    "hx": -6752.0,
    "hy": 4448.0,
    "hz": 1024.26
   }
  },
  {
   "type": "Feature",
   "geometry": {
    "type": "Point",
    "coordinates": [
     -0.0011664113964480602,
     0.000761179268037431
    ]
   },
   "properties": {
    "classname": "item_healthkit_small",
    "team": "",
    "targetname": "",
    "hx": -6816.0,
    "hy": 4448.0,
    "hz": 1024.24
   }
  },
  {
   "type": "Feature",
   "geometry": {
    "type": "Point",
    "coordinates": [
     -0.0015442629755495546,
     0.0006735615105654964
    ]
   },
   "properties": {
    "classname": "item_ammopack_medium",
    "team": "",
    "targetname": "",
    "hx": -9024.0,
    "hy": 3936.0,
    "hz": 640.256
   }
  },
  {
   "type": "Feature",
   "geometry": {
    "type": "Point",
    "coordinates": [
     -0.0015606913050824516,
     0.0006913588675519832
    ]
   },
   "properties": {
    "classname": "item_healthkit_full",
    "team": "",
    "targetname": "",
    "hx": -9120.0,
    "hy": 4040.0,
    "hz": 640.256
   }
  },
  {
   "type": "Feature",
   "geometry": {
    "type": "Point",
    "coordinates": [
     -0.0012595052638823135,
     0.0010787936388731935
    ]
   },
   "properties": {
    "classname": "item_ammopack_medium",
    "team": "",
    "targetname": "",
    "hx": -7360.0,
    "hy": 6304.0,
    "hz": 640.256
   }
  },
  {
   "type": "Feature",
   "geometry": {
    "type": "Point",
    "coordinates": [
     -0.0012430769343462036,
     0.0010609962818867067
    ]
   },
   "properties": {
    "classname": "item_healthkit_full",
    "team": "",
    "targetname": "",
    "hx": -7264.0,
    "hy": 6200.0,
    "hz": 640.256
   }
  },
  {
   "type": "Feature",
   "geometry": {
    "type": "Point",
    "coordinates": [
     -0.0014703354928082338,
     0.0010185564306112386
    ]
   },
   "properties": {
    "classname": "item_ammopack_full",
    "team": "",
    "targetname": "",
    "hx": -8592.0,
    "hy": 5952.0,
    "hz": 640.261
   }
  },
  {
   "type": "Feature",
   "geometry": {
    "type": "Point",
    "coordinates": [
     -0.0013334327466353608,
     0.0007337987188274515
    ]
   },
   "properties": {
    "classname": "item_ammopack_full",
    "team": "",
    "targetname": "",
    "hx": -7792.0,
    "hy": 4288.0,
    "hz": 640.211
   }
  },
  {
   "type": "Feature",
   "geometry": {
    "type": "Point",
    "coordinates": [
     -0.0014593832730369271,
     0.0008077262016943962
    ]
   },
   "properties": {
    "classname": "item_healthkit_medium",
    "team": "",
    "targetname": "",
    "hx": -8528.0,
    "hy": 4720.0,
    "hz": 566.486
   }
  },
  {
   "type": "Feature",
   "geometry": {
    "type": "Point",
    "coordinates": [
     -0.0016373568430031332,
     0.000993913936322257
    ]
   },
   "properties": {
    "classname": "item_healthkit_small",
    "team": "",
    "targetname": "",
    "hx": -9568.0,
    "hy": 5808.0,
    "hz": 1024.24
   }
  },
  {
   "type": "Feature",
   "geometry": {
    "type": "Point",
    "coordinates": [
     -0.001648309062688773,
     0.000993913936322257
    ]
   },
   "properties": {
    "classname": "item_ammopack_small",
    "team": "",
    "targetname": "",
    "hx": -9632.0,
    "hy": 5808.0,
    "hz": 1024.24
   }
  },
  {
   "type": "Feature",
   "geometry": {
    "type": "Point",
    "coordinates": [
     -0.0010076042109737294,
     0.0005503490391205885
    ]
   },
   "properties": {
    "classname": "info_player_teamspawn",
    "team": "2",
    "targetname": "red_spawn_forward",
    "hx": -5888.0,
    "hy": 3216.0,
    "hz": 655.84
   }
  }
 ]
}
