{
 "type": "FeatureCollection",
 "note": "pseudo-WGS84 via crs.local_to_wgs84 ((0,0)m maps to (0,0)deg); viewing only, not survey",
 "features": [
  {
   "type": "Feature",
   "geometry": {
    "type": "Point",
    "coordinates": [
     -2.1904439367992186e-05,
     -5.065401603846214e-05
    ]
   },
   "properties": {
    "classname": "item_healthkit_full",
    "team": "",
    "targetname": "",
    "hx": -128.0,
    "hy": -296.0,
    "hz": -218.0
   }
  },
  {
   "type": "Feature",
   "geometry": {
    "type": "Point",
    "coordinates": [
     -2.190443936799573e-05,
     6.023720826195497e-05
    ]
   },
   "properties": {
    "classname": "item_healthkit_medium",
    "team": "",
    "targetname": "",
    "hx": -128.0,
    "hy": 352.0,
    "hz": 257.005
   }
  },
  {
   "type": "Feature",
   "geometry": {
    "type": "Point",
    "coordinates": [
     0.0,
     0.00012047441652390994
    ]
   },
   "properties": {
    "classname": "item_ammopack_small",
    "team": "",
    "targetname": "",
    "hx": 0.0,
    "hy": 704.0,
    "hz": 481.005
   }
  },
  {
   "type": "Feature",
   "geometry": {
    "type": "Point",
    "coordinates": [
     -4.3808878736064096e-05,
     0.00012047441652390994
    ]
   },
   "properties": {
    "classname": "item_ammopack_small",
    "team": "",
    "targetname": "",
    "hx": -256.0,
    "hy": 704.0,
    "hz": 481.005
   }
  },
  {
   "type": "Feature",
   "geometry": {
    "type": "Point",
    "coordinates": [
     0.0002840731980537403,
     -6.845137302494882e-05
    ]
   },
   "properties": {
    "classname": "item_healthkit_small",
    "team": "",
    "targetname": "",
    "hx": 1660.0,
    "hy": -400.0,
    "hz": 257.005
   }
  },
  {
   "type": "Feature",
   "geometry": {
    "type": "Point",
    "coordinates": [
     0.0004435648972019601,
     6.571331810395088e-05
    ]
   },
   "properties": {
    "classname": "info_player_teamspawn",
    "team": "3",
    "targetname": "respawn_blue",
    "hx": 2592.0,
    "hy": 384.0,
    "hz": 360.0
   }
  },
  {
   "type": "Feature",
   "geometry": {
    "type": "Point",
    "coordinates": [
     0.0004326126775179611,
     6.571331810395088e-05
    ]
   },
   "properties": {
    "classname": "info_player_teamspawn",
    "team": "3",
    "targetname": "respawn_blue",
    "hx": 2528.0,
    "hy": 384.0,
    "hz": 360.0
   }
  },
  {
   "type": "Feature",
   "geometry": {
    "type": "Point",
    "coordinates": [
     0.00042166045783396207,
     6.571331810395088e-05
    ]
   },
   "properties": {
    "classname": "info_player_teamspawn",
    "team": "3",
    "targetname": "respawn_blue",
    "hx": 2464.0,
    "hy": 384.0,
    "hz": 360.0
   }
  },
  {
   "type": "Feature",
   "geometry": {
    "type": "Point",
    "coordinates": [
     0.0004079701832289633,
     6.571331810395088e-05
    ]
   },
   "properties": {
    "classname": "info_player_teamspawn",
    "team": "3",
    "targetname": "respawn_blue",
    "hx": 2384.0,
    "hy": 384.0,
    "hz": 360.0
   }
  },
  {
   "type": "Feature",
   "geometry": {
    "type": "Point",
    "coordinates": [
     0.0003970179635449643,
     6.571331810395088e-05
    ]
   },
   "properties": {
    "classname": "info_player_teamspawn",
    "team": "3",
    "targetname": "respawn_blue",
    "hx": 2320.0,
    "hy": 384.0,
    "hz": 360.0
   }
  },
  {
   "type": "Feature",
   "geometry": {
    "type": "Point",
    "coordinates": [
     0.0004545171168859591,
     6.571331810395088e-05
    ]
   },
   "properties": {
    "classname": "info_player_teamspawn",
    "team": "3",
    "targetname": "respawn_blue",
    "hx": 2656.0,
    "hy": 384.0,
    "hz": 360.0
   }
  },
  {
   "type": "Feature",
   "geometry": {
    "type": "Point",
    "coordinates": [
     0.00045451711688606705,
     7.666553778794268e-05
    ]
   },
   "properties": {
    "classname": "info_player_teamspawn",
    "team": "3",
    "targetname": "respawn_blue",
    "hx": 2656.0,
    "hy": 448.0,
    "hz": 360.0
   }
  },
  {
   "type": "Feature",
   "geometry": {
    "type": "Point",
    "coordinates": [
     0.00044356489720206543,
     7.666553778794268e-05
    ]
   },
   "properties": {
    "classname": "info_player_teamspawn",
    "team": "3",
    "targetname": "respawn_blue",
    "hx": 2592.0,
    "hy": 448.0,
    "hz": 360.0
   }
  },
  {
   "type": "Feature",
   "geometry": {
    "type": "Point",
    "coordinates": [
     0.0004326126775180638,
     7.666553778794268e-05
    ]
   },
   "properties": {
    "classname": "info_player_teamspawn",
    "team": "3",
    "targetname": "respawn_blue",
    "hx": 2528.0,
    "hy": 448.0,
    "hz": 360.0
   }
  },
  {
   "type": "Feature",
   "geometry": {
    "type": "Point",
    "coordinates": [
     0.0004216604578340622,
     7.666553778794268e-05
    ]
   },
   "properties": {
    "classname": "info_player_teamspawn",
    "team": "3",
    "targetname": "respawn_blue",
    "hx": 2464.0,
    "hy": 448.0,
    "hz": 360.0
   }
  },
  {
   "type": "Feature",
   "geometry": {
    "type": "Point",
    "coordinates": [
     0.00040797018322906025,
     7.666553778794268e-05
    ]
   },
   "properties": {
    "classname": "info_player_teamspawn",
    "team": "3",
    "targetname": "respawn_blue",
    "hx": 2384.0,
    "hy": 448.0,
    "hz": 360.0
   }
  },
  {
   "type": "Feature",
   "geometry": {
    "type": "Point",
    "coordinates": [
     0.0003970179635450586,
     7.666553778794268e-05
    ]
   },
   "properties": {
    "classname": "info_player_teamspawn",
    "team": "3",
    "targetname": "respawn_blue",
    "hx": 2320.0,
    "hy": 448.0,
    "hz": 360.0
   }
  },
  {
   "type": "Feature",
   "geometry": {
    "type": "Point",
    "coordinates": [
     0.0004675228777607969,
     7.461199659719421e-05
    ]
   },
   "properties": {
    "classname": "info_player_teamspawn",
    "team": "3",
    "targetname": "respawn_blue",
    "hx": 2732.0,
    "hy": 436.0,
    "hz": 360.0
   }
  },
  {
   "type": "Feature",
   "geometry": {
    "type": "Point",
    "coordinates": [
     0.0004675228777607016,
     6.502880437370138e-05
    ]
   },
   "properties": {
    "classname": "info_player_teamspawn",
    "team": "3",
    "targetname": "respawn_blue",
    "hx": 2732.0,
    "hy": 380.0,
    "hz": 360.0
   }
  },
  {
   "type": "Feature",
   "geometry": {
    "type": "Point",
    "coordinates": [
     0.0004729989876026346,
     5.749915334095701e-05
    ]
   },
   "properties": {
    "classname": "info_player_teamspawn",
    "team": "3",
    "targetname": "respawn_blue",
    "hx": 2764.0,
    "hy": 336.0,
    "hz": 360.0
   }
  },
  {
   "type": "Feature",
   "geometry": {
    "type": "Point",
    "coordinates": [
     0.0004825821798260728,
     4.9969502308212645e-05
    ]
   },
   "properties": {
    "classname": "info_player_teamspawn",
    "team": "3",
    "targetname": "respawn_blue",
    "hx": 2820.0,
    "hy": 292.0,
    "hz": 360.0
   }
  },
  {
   "type": "Feature",
   "geometry": {
    "type": "Point",
    "coordinates": [
     -0.0004873737759379562,
     6.571331810395088e-05
    ]
   },
   "properties": {
    "classname": "info_player_teamspawn",
    "team": "2",
    "targetname": "respawn_red",
    "hx": -2848.0,
    "hy": 384.0,
    "hz": 360.0
   }
  },
  {
   "type": "Feature",
   "geometry": {
    "type": "Point",
    "coordinates": [
     -0.00047642155625395716,
     6.571331810395088e-05
    ]
   },
   "properties": {
    "classname": "info_player_teamspawn",
    "team": "2",
    "targetname": "respawn_red",
    "hx": -2784.0,
    "hy": 384.0,
    "hz": 360.0
   }
  },
  {
   "type": "Feature",
   "geometry": {
    "type": "Point",
    "coordinates": [
     -0.00046546933656995814,
     6.571331810395088e-05
    ]
   },
   "properties": {
    "classname": "info_player_teamspawn",
    "team": "2",
    "targetname": "respawn_red",
    "hx": -2720.0,
    "hy": 384.0,
    "hz": 360.0
   }
  },
  {
   "type": "Feature",
   "geometry": {
    "type": "Point",
    "coordinates": [
     -0.00045177906196495934,
     6.571331810395088e-05
    ]
   },
   "properties": {
    "classname": "info_player_teamspawn",
    "team": "2",
    "targetname": "respawn_red",
    "hx": -2640.0,
    "hy": 384.0,
    "hz": 360.0
   }
  },
  {
   "type": "Feature",
   "geometry": {
    "type": "Point",
    "coordinates": [
     -0.0004408268422809603,
     6.571331810395088e-05
    ]
   },
   "properties": {
    "classname": "info_player_teamspawn",
    "team": "2",
    "targetname": "respawn_red",
    "hx": -2576.0,
    "hy": 384.0,
    "hz": 360.0
   }
  },
  {
   "type": "Feature",
   "geometry": {
    "type": "Point",
    "coordinates": [
     -0.0004983259956219552,
     6.571331810395088e-05
    ]
   },
   "properties": {
    "classname": "info_player_teamspawn",
    "team": "2",
    "targetname": "respawn_red",
    "hx": -2912.0,
    "hy": 384.0,
    "hz": 360.0
   }
  },
  {
   "type": "Feature",
   "geometry": {
    "type": "Point",
    "coordinates": [
     -0.0004983259956220736,
     7.666553778794268e-05
    ]
   },
   "properties": {
    "classname": "info_player_teamspawn",
    "team": "2",
    "targetname": "respawn_red",
    "hx": -2912.0,
    "hy": 448.0,
    "hz": 360.0
   }
  },
  {
   "type": "Feature",
   "geometry": {
    "type": "Point",
    "coordinates": [
     -0.0004873737759380719,
     7.666553778794268e-05
    ]
   },
   "properties": {
    "classname": "info_player_teamspawn",
    "team": "2",
    "targetname": "respawn_red",
    "hx": -2848.0,
    "hy": 448.0,
    "hz": 360.0
   }
  },
  {
   "type": "Feature",
   "geometry": {
    "type": "Point",
    "coordinates": [
     -0.0004764215562540703,
     7.666553778794268e-05
    ]
   },
   "properties": {
    "classname": "info_player_teamspawn",
    "team": "2",
    "targetname": "respawn_red",
    "hx": -2784.0,
    "hy": 448.0,
    "hz": 360.0
   }
  },
  {
   "type": "Feature",
   "geometry": {
    "type": "Point",
    "coordinates": [
     -0.0004654693365700687,
     7.666553778794268e-05
    ]
   },
   "properties": {
    "classname": "info_player_teamspawn",
    "team": "2",
    "targetname": "respawn_red",
    "hx": -2720.0,
    "hy": 448.0,
    "hz": 360.0
   }
  },
  {
   "type": "Feature",
   "geometry": {
    "type": "Point",
    "coordinates": [
     -0.0004517790619650667,
     7.666553778794268e-05
    ]
   },
   "properties": {
    "classname": "info_player_teamspawn",
    "team": "2",
    "targetname": "respawn_red",
    "hx": -2640.0,
    "hy": 448.0,
    "hz": 360.0
   }
  },
  {
   "type": "Feature",
   "geometry": {
    "type": "Point",
    "coordinates": [
     -0.00044082684228106505,
     7.666553778794268e-05
    ]
   },
   "properties": {
    "classname": "info_player_teamspawn",
    "team": "2",
    "targetname": "respawn_red",
    "hx": -2576.0,
    "hy": 448.0,
    "hz": 360.0
   }
  },
  {
   "type": "Feature",
   "geometry": {
    "type": "Point",
    "coordinates": [
     -0.0004545171168861917,
     8.76177574719345e-05
    ]
   },
   "properties": {
    "classname": "info_player_teamspawn",
    "team": "2",
    "targetname": "respawn_red",
    "hx": -2656.0,
    "hy": 512.0,
    "hz": 360.0
   }
  },
  {
   "type": "Feature",
   "geometry": {
    "type": "Point",
    "coordinates": [
     -0.0005191557484335801,
     7.633252185817632e-05
    ]
   },
   "properties": {
    "classname": "info_player_teamspawn",
    "team": "2",
    "targetname": "respawn_red",
    "hx": -3033.72,
    "hy": 446.054,
    "hz": 360.0
   }
  },
  {
   "type": "Feature",
   "geometry": {
    "type": "Point",
    "coordinates": [
     -0.0005261959721491054,
     6.79426081949409e-05
    ]
   },
   "properties": {
    "classname": "info_player_teamspawn",
    "team": "2",
    "targetname": "respawn_red",
    "hx": -3074.86,
    "hy": 397.027,
    "hz": 360.0
   }
  },
  {
   "type": "Feature",
   "geometry": {
    "type": "Point",
    "coordinates": [
     -0.0005332361958646394,
     5.955269453170548e-05
    ]
   },
   "properties": {
    "classname": "info_player_teamspawn",
    "team": "2",
    "targetname": "respawn_red",
    "hx": -3116.0,
    "hy": 348.0,
    "hz": 360.0
   }
  },
  {
   "type": "Feature",
   "geometry": {
    "type": "Point",
    "coordinates": [
     0.00014922399319440072,
     -2.32734668284826e-05
    ]
   },
   "properties": {
    "classname": "item_ammopack_small",
    "team": "",
    "targetname": "",
    "hx": 872.0,
    "hy": -136.0,
    "hz": -254.995
   }
  },
  {
   "type": "Feature",
   "geometry": {
    "type": "Point",
    "coordinates": [
     0.0001547001030363971,
     -2.32734668284826e-05
    ]
   },
   "properties": {
    "classname": "item_healthkit_small",
    "team": "",
    "targetname": "",
    "hx": 904.0,
    "hy": -136.0,
    "hz": -254.995
   }
  },
  {
   "type": "Feature",
   "geometry": {
    "type": "Point",
    "coordinates": [
     0.00015880718541888772,
     -0.00020398509161434752
    ]
   },
   "properties": {
    "classname": "item_healthkit_medium",
    "team": "",
    "targetname": "",
    "hx": 928.0,
    "hy": -1192.0,
    "hz": 193.005
   }
  },
  {
   "type": "Feature",
   "geometry": {
    "type": "Point",
    "coordinates": [
     0.00015880718541897042,
     -0.00021219925637734136
    ]
   },
   "properties": {
    "classname": "item_ammopack_medium",
    "team": "",
    "targetname": "",
    "hx": 928.0,
    "hy": -1240.0,
    "hz": 193.005
   }
  },
  {
   "type": "Feature",
   "geometry": {
    "type": "Point",
    "coordinates": [
     0.0001930328719304723,
     6.297526318295293e-05
    ]
   },
   "properties": {
    "classname": "item_healthkit_small",
    "team": "",
    "targetname": "",
    "hx": 1128.0,
    "hy": 368.0,
    "hz": 304.0
   }
  },
  {
   "type": "Feature",
   "geometry": {
    "type": "Point",
    "coordinates": [
     0.00019850898177247152,
     6.297526318295293e-05
    ]
   },
   "properties": {
    "classname": "item_ammopack_small",
    "team": "",
    "targetname": "",
    "hx": 1160.0,
    "hy": 368.0,
    "hz": 304.0
   }
  },
  {
   "type": "Feature",
   "geometry": {
    "type": "Point",
    "coordinates": [
     -0.0005168078663386302,
     5.81836670712065e-05
    ]
   },
   "properties": {
    "classname": "info_player_teamspawn",
    "team": "",
    "targetname": "",
    "hx": -3020.0,
    "hy": 340.0,
    "hz": 353.005
   }
  },
  {
   "type": "Feature",
   "geometry": {
    "type": "Point",
    "coordinates": [
     -0.00020124703669336714,
     -2.395798055873209e-05
    ]
   },
   "properties": {
    "classname": "item_healthkit_small",
    "team": "",
    "targetname": "",
    "hx": -1176.0,
    "hy": -140.0,
    "hz": -254.995
   }
  },
  {
   "type": "Feature",
   "geometry": {
    "type": "Point",
    "coordinates": [
     -0.00019577092685137075,
     -2.395798055873209e-05
    ]
   },
   "properties": {
    "classname": "item_ammopack_small",
    "team": "",
    "targetname": "",
    "hx": -1144.0,
    "hy": -140.0,
    "hz": -254.995
   }
  },
  {
   "type": "Feature",
   "geometry": {
    "type": "Point",
    "coordinates": [
     -0.00020261606415523814,
     -0.00021219925637734136
    ]
   },
   "properties": {
    "classname": "item_ammopack_medium",
    "team": "",
    "targetname": "",
    "hx": -1184.0,
    "hy": -1240.0,
    "hz": 193.005
   }
  },
  {
   "type": "Feature",
   "geometry": {
    "type": "Point",
    "coordinates": [
     -0.00020261606415513265,
     -0.00020398509161434752
    ]
   },
   "properties": {
    "classname": "item_healthkit_medium",
    "team": "",
    "targetname": "",
    "hx": -1184.0,
    "hy": -1192.0,
    "hz": 193.005
   }
  },
  {
   "type": "Feature",
   "geometry": {
    "type": "Point",
    "coordinates": [
     -0.00032788207678973884,
     -6.845137302494882e-05
    ]
   },
   "properties": {
    "classname": "item_healthkit_small",
    "team": "",
    "targetname": "",
    "hx": -1916.0,
    "hy": -400.0,
    "hz": 257.005
   }
  },
  {
   "type": "Feature",
   "geometry": {
    "type": "Point",
    "coordinates": [
     -0.000236841750666466,
     6.297526318295293e-05
    ]
   },
   "properties": {
    "classname": "item_healthkit_small",
    "team": "",
    "targetname": "",
    "hx": -1384.0,
    "hy": 368.0,
    "hz": 304.0
   }
  },
  {
   "type": "Feature",
   "geometry": {
    "type": "Point",
    "coordinates": [
     -0.00024231786050846521,
     6.297526318295293e-05
    ]
   },
   "properties": {
    "classname": "item_ammopack_small",
    "team": "",
    "targetname": "",
    "hx": -1416.0,
    "hy": 368.0,
    "hz": 304.0
   }
  },
  {
   "type": "Feature",
   "geometry": {
    "type": "Point",
    "coordinates": [
     -2.1904439368081325e-05,
     0.00017112843256237206
    ]
   },
   "properties": {
    "classname": "item_ammopack_medium",
    "team": "",
    "targetname": "",
    "hx": -128.0,
    "hy": 1000.0,
    "hz": -126.995
   }
  },
  {
   "type": "Feature",
   "geometry": {
    "type": "Point",
    "coordinates": [
     -2.1904439368145706e-05,
     0.0002204134211403352
    ]
   },
   "properties": {
    "classname": "item_healthkit_small",
    "team": "",
    "targetname": "",
    "hx": -128.0,
    "hy": 1288.0,
    "hz": 512.0
   }
  },
  {
   "type": "Feature",
   "geometry": {
    "type": "Point",
    "coordinates": [
     -2.1904439368104652e-05,
     0.0001904659454419201
    ]
   },
   "properties": {
    "classname": "item_healthkit_small",
    "team": "",
    "targetname": "",
    "hx": -128.0,
    "hy": 1113.0,
    "hz": -263.0
   }
  }
 ]
}
