{
 "type": "FeatureCollection",
 "note": "pseudo-WGS84 via crs.local_to_wgs84 ((0,0)m maps to (0,0)deg); viewing only, not survey",
 "features": [
  {
   "type": "Feature",
   "geometry": {
    "type": "Point",
    "coordinates": [
     0.00011773636160296575,
     5.4761269548391616e-05
    ]
   },
   "properties": {
    "classname": "team_control_point",
    "team": "",
    "targetname": "cp_one",
    "hx": 688.0,
    "hy": 320.001,
    "hz": -248.0
   }
  },
  {
   "type": "Feature",
   "geometry": {
    "type": "Point",
    "coordinates": [
     -9.30938673147166e-05,
     0.00023547272320582397
    ]
   },
   "properties": {
    "classname": "team_control_point",
    "team": "",
    "targetname": "cp_three",
    "hx": -544.0,
    "hy": 1376.0,
    "hz": 136.0
   }
  },
  {
   "type": "Feature",
   "geometry": {
    "type": "Point",
    "coordinates": [
     -0.0003395188102053341,
     -0.000175235514943869
    ]
   },
   "properties": {
    "classname": "team_control_point",
    "team": "",
    "targetname": "cp_five",
    "hx": -1984.0,
    "hy": -1024.0,
    "hz": 200.0
   }
  },
  {
   "type": "Feature",
   "geometry": {
    "type": "Point",
    "coordinates": [
     0.00011499830668275441,
     0.00021904439367983623
    ]
   },
   "properties": {
    "classname": "info_player_teamspawn",
    "team": "3",
    "targetname": "spawn_blu_west",
    "hx": 672.0,
    "hy": 1280.0,
    "hz": 1184.0
   }
  },
  {
   "type": "Feature",
   "geometry": {
    "type": "Point",
    "coordinates": [
     0.00013142663620901166,
     0.00023547272320582397
    ]
   },
   "properties": {
    "classname": "info_player_teamspawn",
    "team": "3",
    "targetname": "spawn_blu_west",
    "hx": 768.0,
    "hy": 1376.0,
    "hz": 1184.0
   }
  },
  {
   "type": "Feature",
   "geometry": {
    "type": "Point",
    "coordinates": [
     0.00010678414191924986,
     0.00014237885589189354
    ]
   },
   "properties": {
    "classname": "info_player_teamspawn",
    "team": "3",
    "targetname": "spawn_blu_west",
    "hx": 624.0,
    "hy": 832.0,
    "hz": 1184.0
   }
  },
  {
   "type": "Feature",
   "geometry": {
    "type": "Point",
    "coordinates": [
     0.00010130803207755773,
     0.00020261606415384855
    ]
   },
   "properties": {
    "classname": "info_player_teamspawn",
    "team": "3",
    "targetname": "spawn_blu_west",
    "hx": 592.0,
    "hy": 1184.0,
    "hz": 1184.0
   }
  },
  {
   "type": "Feature",
   "geometry": {
    "type": "Point",
    "coordinates": [
     0.00010130803207742817,
     0.0001807116247858649
    ]
   },
   "properties": {
    "classname": "info_player_teamspawn",
    "team": "3",
    "targetname": "spawn_blu_west",
    "hx": 592.0,
    "hy": 1056.0,
    "hz": 1184.0
   }
  },
  {
   "type": "Feature",
   "geometry": {
    "type": "Point",
    "coordinates": [
     0.00010130803207731341,
     0.00015880718541788126
    ]
   },
   "properties": {
    "classname": "info_player_teamspawn",
    "team": "3",
    "targetname": "spawn_blu_west",
    "hx": 592.0,
    "hy": 928.0,
    "hz": 1184.0
   }
  },
  {
   "type": "Feature",
   "geometry": {
    "type": "Point",
    "coordinates": [
     0.00023821077812742275,
     0.0001286885812869038
    ]
   },
   "properties": {
    "classname": "info_player_teamspawn",
    "team": "3",
    "targetname": "spawn_blu_east",
    "hx": 1392.0,
    "hy": 752.0,
    "hz": 1184.0
   }
  },
  {
   "type": "Feature",
   "geometry": {
    "type": "Point",
    "coordinates": [
     0.00024576096457340697,
     0.0002272585584428301
    ]
   },
   "properties": {
    "classname": "info_player_teamspawn",
    "team": "3",
    "targetname": "spawn_blu_east",
    "hx": 1436.12,
    "hy": 1328.0,
    "hz": 1184.0
   }
  },
  {
   "type": "Feature",
   "geometry": {
    "type": "Point",
    "coordinates": [
     0.0002436868879704676,
     0.00021083022891684236
    ]
   },
   "properties": {
    "classname": "info_player_teamspawn",
    "team": "3",
    "targetname": "spawn_blu_east",
    "hx": 1424.0,
    "hy": 1232.0,
    "hz": 1184.0
   }
  },
  {
   "type": "Feature",
   "geometry": {
    "type": "Point",
    "coordinates": [
     0.00024916299781164335,
     0.00014785496573388945
    ]
   },
   "properties": {
    "classname": "info_player_teamspawn",
    "team": "3",
    "targetname": "spawn_blu_east",
    "hx": 1456.0,
    "hy": 864.0,
    "hz": 1184.0
   }
  },
  {
   "type": "Feature",
   "geometry": {
    "type": "Point",
    "coordinates": [
     0.00024916299781190736,
     0.0001697594051018731
    ]
   },
   "properties": {
    "classname": "info_player_teamspawn",
    "team": "3",
    "targetname": "spawn_blu_east",
    "hx": 1456.0,
    "hy": 992.0,
    "hz": 1184.0
   }
  },
  {
   "type": "Feature",
   "geometry": {
    "type": "Point",
    "coordinates": [
     0.0002491629978122078,
     0.0001916638444698567
    ]
   },
   "properties": {
    "classname": "info_player_teamspawn",
    "team": "3",
    "targetname": "spawn_blu_east",
    "hx": 1456.0,
    "hy": 1120.0,
    "hz": 1184.0
   }
  },
  {
   "type": "Feature",
   "geometry": {
    "type": "Point",
    "coordinates": [
     -0.0004983259956216479,
     1.642832952598772e-05
    ]
   },
   "properties": {
    "classname": "info_player_teamspawn",
    "team": "2",
    "targetname": "spawn_red_upper",
    "hx": -2912.0,
    "hy": 96.0,
    "hz": 400.0
   }
  },
  {
   "type": "Feature",
   "geometry": {
    "type": "Point",
    "coordinates": [
     -0.00048737377593765564,
     1.642832952598772e-05
    ]
   },
   "properties": {
    "classname": "info_player_teamspawn",
    "team": "2",
    "targetname": "spawn_red_upper",
    "hx": -2848.0,
    "hy": 96.0,
    "hz": 400.0
   }
  },
  {
   "type": "Feature",
   "geometry": {
    "type": "Point",
    "coordinates": [
     -0.0005092782153056402,
     1.642832952598772e-05
    ]
   },
   "properties": {
    "classname": "info_player_teamspawn",
    "team": "2",
    "targetname": "spawn_red_upper",
    "hx": -2976.0,
    "hy": 96.0,
    "hz": 400.0
   }
  },
  {
   "type": "Feature",
   "geometry": {
    "type": "Point",
    "coordinates": [
     -0.0005092782153056774,
     2.738054920997953e-05
    ]
   },
   "properties": {
    "classname": "info_player_teamspawn",
    "team": "2",
    "targetname": "spawn_red_upper",
    "hx": -2976.0,
    "hy": 160.0,
    "hz": 400.0
   }
  },
  {
   "type": "Feature",
   "geometry": {
    "type": "Point",
    "coordinates": [
     -0.0004983259956216844,
     2.738054920997953e-05
    ]
   },
   "properties": {
    "classname": "info_player_teamspawn",
    "team": "2",
    "targetname": "spawn_red_upper",
    "hx": -2912.0,
    "hy": 160.0,
    "hz": 400.0
   }
  },
  {
   "type": "Feature",
   "geometry": {
    "type": "Point",
    "coordinates": [
     -0.00048737377593769125,
     2.738054920997953e-05
    ]
   },
   "properties": {
    "classname": "info_player_teamspawn",
    "team": "2",
    "targetname": "spawn_red_upper",
    "hx": -2848.0,
    "hy": 160.0,
    "hz": 400.0
   }
  },
  {
   "type": "Feature",
   "geometry": {
    "type": "Point",
    "coordinates": [
     -0.0005092782153057333,
     3.833276889397134e-05
    ]
   },
   "properties": {
    "classname": "info_player_teamspawn",
    "team": "2",
    "targetname": "spawn_red_upper",
    "hx": -2976.0,
    "hy": 224.0,
    "hz": 400.0
   }
  },
  {
   "type": "Feature",
   "geometry": {
    "type": "Point",
    "coordinates": [
     -0.000498325995621739,
     3.833276889397134e-05
    ]
   },
   "properties": {
    "classname": "info_player_teamspawn",
    "team": "2",
    "targetname": "spawn_red_upper",
    "hx": -2912.0,
    "hy": 224.0,
    "hz": 400.0
   }
  },
  {
   "type": "Feature",
   "geometry": {
    "type": "Point",
    "coordinates": [
     -0.0004873737759377447,
     3.833276889397134e-05
    ]
   },
   "properties": {
    "classname": "info_player_teamspawn",
    "team": "2",
    "targetname": "spawn_red_upper",
    "hx": -2848.0,
    "hy": 224.0,
    "hz": 400.0
   }
  },
  {
   "type": "Feature",
   "geometry": {
    "type": "Point",
    "coordinates": [
     -0.0005092782153058077,
     4.928498857796316e-05
    ]
   },
   "properties": {
    "classname": "info_player_teamspawn",
    "team": "2",
    "targetname": "spawn_red_upper",
    "hx": -2976.0,
    "hy": 288.0,
    "hz": 400.0
   }
  },
  {
   "type": "Feature",
   "geometry": {
    "type": "Point",
    "coordinates": [
     -0.0004983259956218119,
     4.928498857796316e-05
    ]
   },
   "properties": {
    "classname": "info_player_teamspawn",
    "team": "2",
    "targetname": "spawn_red_upper",
    "hx": -2912.0,
    "hy": 288.0,
    "hz": 400.0
   }
  },
  {
   "type": "Feature",
   "geometry": {
    "type": "Point",
    "coordinates": [
     -0.0004777905837141624,
     1.642832952598772e-05
    ]
   },
   "properties": {
    "classname": "info_player_teamspawn",
    "team": "2",
    "targetname": "spawn_red_upper",
    "hx": -2792.0,
    "hy": 96.0,
    "hz": 400.0
   }
  },
  {
   "type": "Feature",
   "geometry": {
    "type": "Point",
    "coordinates": [
     -0.000487373775937905,
     6.023720826195497e-05
    ]
   },
   "properties": {
    "classname": "info_player_teamspawn",
    "team": "2",
    "targetname": "spawn_red_upper",
    "hx": -2848.0,
    "hy": 352.0,
    "hz": 400.0
   }
  },
  {
   "type": "Feature",
   "geometry": {
    "type": "Point",
    "coordinates": [
     -0.00047779058371424975,
     3.833276889397134e-05
    ]
   },
   "properties": {
    "classname": "info_player_teamspawn",
    "team": "2",
    "targetname": "spawn_red_upper",
    "hx": -2792.0,
    "hy": 224.0,
    "hz": 400.0
   }
  },
  {
   "type": "Feature",
   "geometry": {
    "type": "Point",
    "coordinates": [
     -0.00047779058371419733,
     2.738054920997953e-05
    ]
   },
   "properties": {
    "classname": "info_player_teamspawn",
    "team": "2",
    "targetname": "spawn_red_upper",
    "hx": -2792.0,
    "hy": 160.0,
    "hz": 400.0
   }
  },
  {
   "type": "Feature",
   "geometry": {
    "type": "Point",
    "coordinates": [
     -0.00048737377593781594,
     4.928498857796316e-05
    ]
   },
   "properties": {
    "classname": "info_player_teamspawn",
    "team": "2",
    "targetname": "spawn_red_upper",
    "hx": -2848.0,
    "hy": 288.0,
    "hz": 400.0
   }
  },
  {
   "type": "Feature",
   "geometry": {
    "type": "Point",
    "coordinates": [
     -0.00046820739149126795,
     9.30938673139304e-05
    ]
   },
   "properties": {
    "classname": "info_player_teamspawn",
    "team": "2",
    "targetname": "spawn_red_lower",
    "hx": -2736.0,
    "hy": 544.0,
    "hz": 144.005
   }
  },
  {
   "type": "Feature",
   "geometry": {
    "type": "Point",
    "coordinates": [
     -0.0004682073914911311,
     8.21416476299386e-05
    ]
   },
   "properties": {
    "classname": "info_player_teamspawn",
    "team": "2",
    "targetname": "spawn_red_lower",
    "hx": -2736.0,
    "hy": 480.0,
    "hz": 144.005
   }
  },
  {
   "type": "Feature",
   "geometry": {
    "type": "Point",
    "coordinates": [
     -0.00045725517180726167,
     9.30938673139304e-05
    ]
   },
   "properties": {
    "classname": "info_player_teamspawn",
    "team": "2",
    "targetname": "spawn_red_lower",
    "hx": -2672.0,
    "hy": 544.0,
    "hz": 144.005
   }
  },
  {
   "type": "Feature",
   "geometry": {
    "type": "Point",
    "coordinates": [
     -0.00045725517180712804,
     8.21416476299386e-05
    ]
   },
   "properties": {
    "classname": "info_player_teamspawn",
    "team": "2",
    "targetname": "spawn_red_lower",
    "hx": -2672.0,
    "hy": 480.0,
    "hz": 144.005
   }
  },
  {
   "type": "Feature",
   "geometry": {
    "type": "Point",
    "coordinates": [
     -0.0004463029521232554,
     9.30938673139304e-05
    ]
   },
   "properties": {
    "classname": "info_player_teamspawn",
    "team": "2",
    "targetname": "spawn_red_lower",
    "hx": -2608.0,
    "hy": 544.0,
    "hz": 144.005
   }
  },
  {
   "type": "Feature",
   "geometry": {
    "type": "Point",
    "coordinates": [
     -0.00044630295212312495,
     8.21416476299386e-05
    ]
   },
   "properties": {
    "classname": "info_player_teamspawn",
    "team": "2",
    "targetname": "spawn_red_lower",
    "hx": -2608.0,
    "hy": 480.0,
    "hz": 144.005
   }
  },
  {
   "type": "Feature",
   "geometry": {
    "type": "Point",
    "coordinates": [
     -0.00043535073243924916,
     9.30938673139304e-05
    ]
   },
   "properties": {
    "classname": "info_player_teamspawn",
    "team": "2",
    "targetname": "spawn_red_lower",
    "hx": -2544.0,
    "hy": 544.0,
    "hz": 144.005
   }
  },
  {
   "type": "Feature",
   "geometry": {
    "type": "Point",
    "coordinates": [
     -0.00043535073243912187,
     8.21416476299386e-05
    ]
   },
   "properties": {
    "classname": "info_player_teamspawn",
    "team": "2",
    "targetname": "spawn_red_lower",
    "hx": -2544.0,
    "hy": 480.0,
    "hz": 144.005
   }
  },
  {
   "type": "Feature",
   "geometry": {
    "type": "Point",
    "coordinates": [
     -0.00047915961117513415,
     8.21416476299386e-05
    ]
   },
   "properties": {
    "classname": "info_player_teamspawn",
    "team": "2",
    "targetname": "spawn_red_lower",
    "hx": -2800.0,
    "hy": 480.0,
    "hz": 144.005
   }
  },
  {
   "type": "Feature",
   "geometry": {
    "type": "Point",
    "coordinates": [
     -0.00047915961117527423,
     9.30938673139304e-05
    ]
   },
   "properties": {
    "classname": "info_player_teamspawn",
    "team": "2",
    "targetname": "spawn_red_lower",
    "hx": -2800.0,
    "hy": 544.0,
    "hz": 144.005
   }
  },
  {
   "type": "Feature",
   "geometry": {
    "type": "Point",
    "coordinates": [
     -0.00040825767899868907,
     0.00022999661336382804
    ]
   },
   "properties": {
    "classname": "item_healthkit_full",
    "team": "",
    "targetname": "",
    "hx": -2385.68,
    "hy": 1344.0,
    "hz": -300.0
   }
  },
  {
   "type": "Feature",
   "geometry": {
    "type": "Point",
    "coordinates": [
     -0.00030666215115179906,
     2.464249428898158e-05
    ]
   },
   "properties": {
    "classname": "team_control_point",
    "team": "",
    "targetname": "cp_four",
    "hx": -1792.0,
    "hy": 144.0,
    "hz": 120.0
   }
  },
  {
   "type": "Feature",
   "geometry": {
    "type": "Point",
    "coordinates": [
     -0.0004517790619653308,
     9.856997715592632e-05
    ]
   },
   "properties": {
    "classname": "info_player_teamspawn",
    "team": "2",
    "targetname": "spawn_red_lower",
    "hx": -2640.0,
    "hy": 576.0,
    "hz": 336.0
   }
  },
  {
   "type": "Feature",
   "geometry": {
    "type": "Point",
    "coordinates": [
     -0.00044082684228132277,
     9.856997715592632e-05
    ]
   },
   "properties": {
    "classname": "info_player_teamspawn",
    "team": "2",
    "targetname": "spawn_red_lower",
    "hx": -2576.0,
    "hy": 576.0,
    "hz": 336.0
   }
  },
  {
   "type": "Feature",
   "geometry": {
    "type": "Point",
    "coordinates": [
     -0.0004298746225973147,
     9.856997715592632e-05
    ]
   },
   "properties": {
    "classname": "info_player_teamspawn",
    "team": "2",
    "targetname": "spawn_red_lower",
    "hx": -2512.0,
    "hy": 576.0,
    "hz": 336.0
   }
  },
  {
   "type": "Feature",
   "geometry": {
    "type": "Point",
    "coordinates": [
     -0.0004928498857800418,
     7.392748286694472e-05
    ]
   },
   "properties": {
    "classname": "info_player_teamspawn",
    "team": "2",
    "targetname": "spawn_red_lower",
    "hx": -2880.0,
    "hy": 432.0,
    "hz": 400.0
   }
  },
  {
   "type": "Feature",
   "geometry": {
    "type": "Point",
    "coordinates": [
     -0.0004869031727483624,
     6.070695580933868e-05
    ]
   },
   "properties": {
    "classname": "info_player_teamspawn",
    "team": "2",
    "targetname": "spawn_red_lower",
    "hx": -2845.25,
    "hy": 354.745,
    "hz": 400.0
   }
  },
  {
   "type": "Feature",
   "geometry": {
    "type": "Point",
    "coordinates": [
     -0.0004791596111749837,
     6.845137302494882e-05
    ]
   },
   "properties": {
    "classname": "info_player_teamspawn",
    "team": "2",
    "targetname": "spawn_red_lower",
    "hx": -2800.0,
    "hy": 400.0,
    "hz": 400.0
   }
  },
  {
   "type": "Feature",
   "geometry": {
    "type": "Point",
    "coordinates": [
     0.00023547272320679192,
     0.0001642832952598772
    ]
   },
   "properties": {
    "classname": "item_healthkit_medium",
    "team": "",
    "targetname": "",
    "hx": 1376.0,
    "hy": 960.0,
    "hz": 256.235
   }
  },
  {
   "type": "Feature",
   "geometry": {
    "type": "Point",
    "coordinates": [
     0.00023547272320706723,
     0.0001861877346278608
    ]
   },
   "properties": {
    "classname": "item_ammopack_full",
    "team": "",
    "targetname": "",
    "hx": 1376.0,
    "hy": 1088.0,
    "hz": 256.256
   }
  },
  {
   "type": "Feature",
   "geometry": {
    "type": "Point",
    "coordinates": [
     0.00020261606415593653,
     0.00026011521749480553
    ]
   },
   "properties": {
    "classname": "item_healthkit_medium",
    "team": "",
    "targetname": "",
    "hx": 1184.0,
    "hy": 1520.0,
    "hz": -480.0
   }
  },
  {
   "type": "Feature",
   "geometry": {
    "type": "Point",
    "coordinates": [
     9.309386731424038e-05,
     0.00014785496573388945
    ]
   },
   "properties": {
    "classname": "item_ammopack_full",
    "team": "",
    "targetname": "",
    "hx": 544.0,
    "hy": 864.0,
    "hz": 0.256156
   }
  },
  {
   "type": "Feature",
   "geometry": {
    "type": "Point",
    "coordinates": [
     -2.738054921044487e-05,
     0.00033404270036175025
    ]
   },
   "properties": {
    "classname": "item_healthkit_medium",
    "team": "",
    "targetname": "",
    "hx": -160.0,
    "hy": 1952.0,
    "hz": 0.236059
   }
  },
  {
   "type": "Feature",
   "geometry": {
    "type": "Point",
    "coordinates": [
     -5.476109842088974e-06,
     0.00033404270036175025
    ]
   },
   "properties": {
    "classname": "item_ammopack_medium",
    "team": "",
    "targetname": "",
    "hx": -32.0,
    "hy": 1952.0,
    "hz": 0.256156
   }
  },
  {
   "type": "Feature",
   "geometry": {
    "type": "Point",
    "coordinates": [
     -8.21416476303288e-06,
     0.00017660454240436797
    ]
   },
   "properties": {
    "classname": "item_healthkit_full",
    "team": "",
    "targetname": "",
    "hx": -48.0,
    "hy": 1032.0,
    "hz": -704.0
   }
  },
  {
   "type": "Feature",
   "geometry": {
    "type": "Point",
    "coordinates": [
     8.214164763021208e-05,
     0.00014785496573388945
    ]
   },
   "properties": {
    "classname": "item_healthkit_medium",
    "team": "",
    "targetname": "",
    "hx": 480.0,
    "hy": 864.0,
    "hz": 0.235178
   }
  },
  {
   "type": "Feature",
   "geometry": {
    "type": "Point",
    "coordinates": [
     -0.00047642155625886843,
     -0.0002683293822577994
    ]
   },
   "properties": {
    "classname": "item_healthkit_medium",
    "team": "",
    "targetname": "",
    "hx": -2784.0,
    "hy": -1568.0,
    "hz": -127.731
   }
  },
  {
   "type": "Feature",
   "geometry": {
    "type": "Point",
    "coordinates": [
     -0.0002464249428898709,
     -3.833276889397134e-05
    ]
   },
   "properties": {
    "classname": "item_ammopack_full",
    "team": "",
    "targetname": "",
    "hx": -1440.0,
    "hy": -224.0,
    "hz": 192.256
   }
  },
  {
   "type": "Feature",
   "geometry": {
    "type": "Point",
    "coordinates": [
     -0.0002546391076543591,
     -0.00019987800923285058
    ]
   },
   "properties": {
    "classname": "item_healthkit_medium",
    "team": "",
    "targetname": "",
    "hx": -1488.0,
    "hy": -1168.0,
    "hz": 240.236
   }
  },
  {
   "type": "Feature",
   "geometry": {
    "type": "Point",
    "coordinates": [
     -0.00019748221117814633,
     -0.00019713995431185264
    ]
   },
   "properties": {
    "classname": "item_ammopack_medium",
    "team": "",
    "targetname": "",
    "hx": -1154.0,
    "hy": -1152.0,
    "hz": -127.744
   }
  },
  {
   "type": "Feature",
   "geometry": {
    "type": "Point",
    "coordinates": [
     -0.0004654693365751817,
     -0.0002792816019417912
    ]
   },
   "properties": {
    "classname": "item_ammopack_medium",
    "team": "",
    "targetname": "",
    "hx": -2720.0,
    "hy": -1632.0,
    "hz": -127.744
   }
  },
  {
   "type": "Feature",
   "geometry": {
    "type": "Point",
    "coordinates": [
     -0.0002792816019417915,
     -2.738054920997953e-06
    ]
   },
   "properties": {
    "classname": "item_ammopack_small",
    "team": "",
    "targetname": "",
    "hx": -1632.0,
    "hy": -16.0,
    "hz": 384.261
   }
  },
  {
   "type": "Feature",
   "geometry": {
    "type": "Point",
    "coordinates": [
     -0.0002792816019417992,
     -1.3690274604989765e-05
    ]
   },
   "properties": {
    "classname": "item_healthkit_small",
    "team": "",
    "targetname": "",
    "hx": -1632.0,
    "hy": -80.0,
    "hz": 384.235
   }
  },
  {
   "type": "Feature",
   "geometry": {
    "type": "Point",
    "coordinates": [
     -0.00035047102989069776,
     -0.00023547272320582397
    ]
   },
   "properties": {
    "classname": "item_ammopack_full",
    "team": "",
    "targetname": "",
    "hx": -2048.0,
    "hy": -1376.0,
    "hz": 144.211
   }
  },
  {
   "type": "Feature",
   "geometry": {
    "type": "Point",
    "coordinates": [
     -0.00019713995431277468,
     -0.000175235514943869
    ]
   },
   "properties": {
    "classname": "item_healthkit_full",
    "team": "",
    "targetname": "",
    "hx": -1152.0,
    "hy": -1024.0,
    "hz": -127.731
   }
  },
  {
   "type": "Feature",
   "geometry": {
    "type": "Point",
    "coordinates": [
     -0.0004766953617509617,
     -0.0002680863798835608
    ]
   },
   "properties": {
    "classname": "item_healthkit_small",
    "team": "",
    "targetname": "",
    "hx": -2785.6,
    "hy": -1566.58,
    "hz": 192.235
   }
  },
  {
   "type": "Feature",
   "geometry": {
    "type": "Point",
    "coordinates": [
     -6.845137302502394e-05,
     8.487970255093655e-05
    ]
   },
   "properties": {
    "classname": "item_healthkit_medium",
    "team": "",
    "targetname": "",
    "hx": -400.0,
    "hy": 496.0,
    "hz": 48.2361
   }
  },
  {
   "type": "Feature",
   "geometry": {
    "type": "Point",
    "coordinates": [
     -0.00044904100704763495,
     0.00024094883304781988
    ]
   },
   "properties": {
    "classname": "item_healthkit_medium",
    "team": "",
    "targetname": "",
    "hx": -2624.0,
    "hy": 1408.0,
    "hz": 128.236
   }
  },
  {
   "type": "Feature",
   "geometry": {
    "type": "Point",
    "coordinates": [
     -0.00016975940510305238,
     0.00021356828383784033
    ]
   },
   "properties": {
    "classname": "item_ammopack_medium",
    "team": "",
    "targetname": "",
    "hx": -992.0,
    "hy": 1248.0,
    "hz": 224.211
   }
  },
  {
   "type": "Feature",
   "geometry": {
    "type": "Point",
    "coordinates": [
     -0.0001916638444717905,
     0.0002573771625738076
    ]
   },
   "properties": {
    "classname": "item_healthkit_medium",
    "team": "",
    "targetname": "",
    "hx": -1120.0,
    "hy": 1504.0,
    "hz": 224.235
   }
  },
  {
   "type": "Feature",
   "geometry": {
    "type": "Point",
    "coordinates": [
     -0.0003833276889397489,
     -2.464249428898158e-05
    ]
   },
   "properties": {
    "classname": "item_healthkit_medium",
    "team": "",
    "targetname": "",
    "hx": -2240.0,
    "hy": -144.0,
    "hz": 0.236059
   }
  },
  {
   "type": "Feature",
   "geometry": {
    "type": "Point",
    "coordinates": [
     -4.380887873650829e-05,
     0.0002847577117837871
    ]
   },
   "properties": {
    "classname": "item_ammopack_medium",
    "team": "",
    "targetname": "",
    "hx": -256.0,
    "hy": 1664.0,
    "hz": 176.256
   }
  },
  {
   "type": "Feature",
   "geometry": {
    "type": "Point",
    "coordinates": [
     -0.00036689935941544176,
     0.000175235514943869
    ]
   },
   "properties": {
    "classname": "item_ammopack_medium",
    "team": "",
    "targetname": "",
    "hx": -2144.0,
    "hy": 1024.0,
    "hz": 256.256
   }
  },
  {
   "type": "Feature",
   "geometry": {
    "type": "Point",
    "coordinates": [
     -0.00035047102988992944,
     0.00020261606415384855
    ]
   },
   "properties": {
    "classname": "item_ammopack_medium",
    "team": "",
    "targetname": "",
    "hx": -2048.0,
    "hy": 1184.0,
    "hz": 320.0
   }
  },
  {
   "type": "Feature",
   "geometry": {
    "type": "Point",
    "coordinates": [
     -5.2023043499018196e-05,
     8.487970255093655e-05
    ]
   },
   "properties": {
    "classname": "item_ammopack_medium",
    "team": "",
    "targetname": "",
    "hx": -304.0,
    "hy": 496.0,
    "hz": 48.2562
   }
  },
  {
   "type": "Feature",
   "geometry": {
    "type": "Point",
    "coordinates": [
     0.00026218929409932987,
     0.00021630633875883827
    ]
   },
   "properties": {
    "classname": "info_player_teamspawn",
    "team": "3",
    "targetname": "spawn_blu_east",
    "hx": 1532.12,
    "hy": 1264.0,
    "hz": 1184.0
   }
  },
  {
   "type": "Feature",
   "geometry": {
    "type": "Point",
    "coordinates": [
     0.000262853272417972,
     0.000232734668284826
    ]
   },
   "properties": {
    "classname": "info_player_teamspawn",
    "team": "3",
    "targetname": "spawn_blu_east",
    "hx": 1536.0,
    "hy": 1360.0,
    "hz": 1184.0
   }
  },
  {
   "type": "Feature",
   "geometry": {
    "type": "Point",
    "coordinates": [
     0.00026559132733837356,
     0.00019713995431185264
    ]
   },
   "properties": {
    "classname": "info_player_teamspawn",
    "team": "3",
    "targetname": "spawn_blu_east",
    "hx": 1552.0,
    "hy": 1152.0,
    "hz": 1184.0
   }
  },
  {
   "type": "Feature",
   "geometry": {
    "type": "Point",
    "coordinates": [
     0.00026559132733804363,
     0.000175235514943869
    ]
   },
   "properties": {
    "classname": "info_player_teamspawn",
    "team": "3",
    "targetname": "spawn_blu_east",
    "hx": 1552.0,
    "hy": 1024.0,
    "hz": 1184.0
   }
  },
  {
   "type": "Feature",
   "geometry": {
    "type": "Point",
    "coordinates": [
     0.00026559132733775247,
     0.00015333107557588535
    ]
   },
   "properties": {
    "classname": "info_player_teamspawn",
    "team": "3",
    "targetname": "spawn_blu_east",
    "hx": 1552.0,
    "hy": 896.0,
    "hz": 1184.0
   }
  },
  {
   "type": "Feature",
   "geometry": {
    "type": "Point",
    "coordinates": [
     0.0002573771625744847,
     0.00013142663620790176
    ]
   },
   "properties": {
    "classname": "info_player_teamspawn",
    "team": "3",
    "targetname": "spawn_blu_east",
    "hx": 1504.0,
    "hy": 768.0,
    "hz": 1184.0
   }
  }
 ]
}
