{
 "type": "FeatureCollection",
 "note": "pseudo-WGS84 via crs.local_to_wgs84 ((0,0)m maps to (0,0)deg); viewing only, not survey",
 "features": [
  {
   "type": "Feature",
   "geometry": {
    "type": "Point",
    "coordinates": [
     0.00026285498370082064,
     0.0001314281763637948
    ]
   },
   "properties": {
    "classname": "info_player_teamspawn",
    "team": "3",
    "targetname": "red_spawn1_point2",
    "hx": 1536.01,
    "hy": 768.009,
    "hz": -160.0
   }
  },
  {
   "type": "Feature",
   "geometry": {
    "type": "Point",
    "coordinates": [
     0.0002738072033847262,
     0.00012047595667980299
    ]
   },
   "properties": {
    "classname": "info_player_teamspawn",
    "team": "3",
    "targetname": "red_spawn1_point2",
    "hx": 1600.01,
    "hy": 704.009,
    "hz": -160.0
   }
  },
  {
   "type": "Feature",
   "geometry": {
    "type": "Point",
    "coordinates": [
     0.00027380720338462115,
     0.00010952373699581118
    ]
   },
   "properties": {
    "classname": "info_player_teamspawn",
    "team": "3",
    "targetname": "red_spawn1_point2",
    "hx": 1600.01,
    "hy": 640.009,
    "hz": -160.0
   }
  },
  {
   "type": "Feature",
   "geometry": {
    "type": "Point",
    "coordinates": [
     0.0002628549837007102,
     0.00012047595667980299
    ]
   },
   "properties": {
    "classname": "info_player_teamspawn",
    "team": "3",
    "targetname": "red_spawn1_point2",
    "hx": 1536.01,
    "hy": 704.009,
    "hz": -160.0
   }
  },
  {
   "type": "Feature",
   "geometry": {
    "type": "Point",
    "coordinates": [
     0.00026285498370060933,
     0.00010952373699581118
    ]
   },
   "properties": {
    "classname": "info_player_teamspawn",
    "team": "3",
    "targetname": "red_spawn1_point2",
    "hx": 1536.01,
    "hy": 640.009,
    "hz": -160.0
   }
  },
  {
   "type": "Feature",
   "geometry": {
    "type": "Point",
    "coordinates": [
     0.0002519027640165975,
     0.00010952373699581118
    ]
   },
   "properties": {
    "classname": "info_player_teamspawn",
    "team": "3",
    "targetname": "red_spawn1_point2",
    "hx": 1472.01,
    "hy": 640.009,
    "hz": -160.0
   }
  },
  {
   "type": "Feature",
   "geometry": {
    "type": "Point",
    "coordinates": [
     0.0002519027640166942,
     0.00012047595667980299
    ]
   },
   "properties": {
    "classname": "info_player_teamspawn",
    "team": "3",
    "targetname": "red_spawn1_point2",
    "hx": 1472.01,
    "hy": 704.009,
    "hz": -160.0
   }
  },
  {
   "type": "Feature",
   "geometry": {
    "type": "Point",
    "coordinates": [
     0.00025190276401680005,
     0.0001314281763637948
    ]
   },
   "properties": {
    "classname": "info_player_teamspawn",
    "team": "3",
    "targetname": "red_spawn1_point2",
    "hx": 1472.01,
    "hy": 768.009,
    "hz": -160.0
   }
  },
  {
   "type": "Feature",
   "geometry": {
    "type": "Point",
    "coordinates": [
     0.0002409505443327794,
     0.0001314281763637948
    ]
   },
   "properties": {
    "classname": "info_player_teamspawn",
    "team": "3",
    "targetname": "red_spawn1_point2",
    "hx": 1408.01,
    "hy": 768.009,
    "hz": -160.0
   }
  },
  {
   "type": "Feature",
   "geometry": {
    "type": "Point",
    "coordinates": [
     0.00022999832464875878,
     0.0001314281763637948
    ]
   },
   "properties": {
    "classname": "info_player_teamspawn",
    "team": "3",
    "targetname": "red_spawn1_point2",
    "hx": 1344.01,
    "hy": 768.009,
    "hz": -160.0
   }
  },
  {
   "type": "Feature",
   "geometry": {
    "type": "Point",
    "coordinates": [
     0.0002190461049646461,
     0.00012047595667980299
    ]
   },
   "properties": {
    "classname": "info_player_teamspawn",
    "team": "3",
    "targetname": "red_spawn1_point2",
    "hx": 1280.01,
    "hy": 704.009,
    "hz": -160.0
   }
  },
  {
   "type": "Feature",
   "geometry": {
    "type": "Point",
    "coordinates": [
     0.0002299983246486621,
     0.00012047595667980299
    ]
   },
   "properties": {
    "classname": "info_player_teamspawn",
    "team": "3",
    "targetname": "red_spawn1_point2",
    "hx": 1344.01,
    "hy": 704.009,
    "hz": -160.0
   }
  },
  {
   "type": "Feature",
   "geometry": {
    "type": "Point",
    "coordinates": [
     0.00024095054433267814,
     0.00012047595667980299
    ]
   },
   "properties": {
    "classname": "info_player_teamspawn",
    "team": "3",
    "targetname": "red_spawn1_point2",
    "hx": 1408.01,
    "hy": 704.009,
    "hz": -160.0
   }
  },
  {
   "type": "Feature",
   "geometry": {
    "type": "Point",
    "coordinates": [
     0.00024095054433258568,
     0.00010952373699581118
    ]
   },
   "properties": {
    "classname": "info_player_teamspawn",
    "team": "3",
    "targetname": "red_spawn1_point2",
    "hx": 1408.01,
    "hy": 640.009,
    "hz": -160.0
   }
  },
  {
   "type": "Feature",
   "geometry": {
    "type": "Point",
    "coordinates": [
     0.00022999832464857387,
     0.00010952373699581118
    ]
   },
   "properties": {
    "classname": "info_player_teamspawn",
    "team": "3",
    "targetname": "red_spawn1_point2",
    "hx": 1344.01,
    "hy": 640.009,
    "hz": -160.0
   }
  },
  {
   "type": "Feature",
   "geometry": {
    "type": "Point",
    "coordinates": [
     0.00021904610496456206,
     0.00010952373699581118
    ]
   },
   "properties": {
    "classname": "info_player_teamspawn",
    "team": "3",
    "targetname": "red_spawn1_point2",
    "hx": 1280.01,
    "hy": 640.009,
    "hz": -160.0
   }
  },
  {
   "type": "Feature",
   "geometry": {
    "type": "Point",
    "coordinates": [
     0.0004271365678158023,
     0.001467597437654903
    ]
   },
   "properties": {
    "classname": "info_player_teamspawn",
    "team": "2",
    "targetname": "red_spawn2_point",
    "hx": 2496.0,
    "hy": 8576.0,
    "hz": -288.0
   }
  },
  {
   "type": "Feature",
   "geometry": {
    "type": "Point",
    "coordinates": [
     0.0004107082382844253,
     0.001467597437654903
    ]
   },
   "properties": {
    "classname": "info_player_teamspawn",
    "team": "2",
    "targetname": "red_spawn2_point",
    "hx": 2400.0,
    "hy": 8576.0,
    "hz": -288.0
   }
  },
  {
   "type": "Feature",
   "geometry": {
    "type": "Point",
    "coordinates": [
     0.00039427990875304833,
     0.001467597437654903
    ]
   },
   "properties": {
    "classname": "info_player_teamspawn",
    "team": "2",
    "targetname": "red_spawn2_point",
    "hx": 2304.0,
    "hy": 8576.0,
    "hz": -288.0
   }
  },
  {
   "type": "Feature",
   "geometry": {
    "type": "Point",
    "coordinates": [
     0.0003778515792216713,
     0.001467597437654903
    ]
   },
   "properties": {
    "classname": "info_player_teamspawn",
    "team": "2",
    "targetname": "red_spawn2_point",
    "hx": 2208.0,
    "hy": 8576.0,
    "hz": -288.0
   }
  },
  {
   "type": "Feature",
   "geometry": {
    "type": "Point",
    "coordinates": [
     0.0003614232496902943,
     0.001467597437654903
    ]
   },
   "properties": {
    "classname": "info_player_teamspawn",
    "team": "2",
    "targetname": "red_spawn2_point",
    "hx": 2112.0,
    "hy": 8576.0,
    "hz": -288.0
   }
  },
  {
   "type": "Feature",
   "geometry": {
    "type": "Point",
    "coordinates": [
     0.00044356489735045536,
     0.0014840257671808906
    ]
   },
   "properties": {
    "classname": "info_player_teamspawn",
    "team": "2",
    "targetname": "red_spawn2_point",
    "hx": 2592.0,
    "hy": 8672.0,
    "hz": -288.0
   }
  },
  {
   "type": "Feature",
   "geometry": {
    "type": "Point",
    "coordinates": [
     0.000427136567818957,
     0.0014840257671808906
    ]
   },
   "properties": {
    "classname": "info_player_teamspawn",
    "team": "2",
    "targetname": "red_spawn2_point",
    "hx": 2496.0,
    "hy": 8672.0,
    "hz": -288.0
   }
  },
  {
   "type": "Feature",
   "geometry": {
    "type": "Point",
    "coordinates": [
     0.00041070823828745864,
     0.0014840257671808906
    ]
   },
   "properties": {
    "classname": "info_player_teamspawn",
    "team": "2",
    "targetname": "red_spawn2_point",
    "hx": 2400.0,
    "hy": 8672.0,
    "hz": -288.0
   }
  },
  {
   "type": "Feature",
   "geometry": {
    "type": "Point",
    "coordinates": [
     0.00039427990875596033,
     0.0014840257671808906
    ]
   },
   "properties": {
    "classname": "info_player_teamspawn",
    "team": "2",
    "targetname": "red_spawn2_point",
    "hx": 2304.0,
    "hy": 8672.0,
    "hz": -288.0
   }
  },
  {
   "type": "Feature",
   "geometry": {
    "type": "Point",
    "coordinates": [
     0.00037785157922446197,
     0.0014840257671808906
    ]
   },
   "properties": {
    "classname": "info_player_teamspawn",
    "team": "2",
    "targetname": "red_spawn2_point",
    "hx": 2208.0,
    "hy": 8672.0,
    "hz": -288.0
   }
  },
  {
   "type": "Feature",
   "geometry": {
    "type": "Point",
    "coordinates": [
     0.0003614232496929636,
     0.0014840257671808906
    ]
   },
   "properties": {
    "classname": "info_player_teamspawn",
    "team": "2",
    "targetname": "red_spawn2_point",
    "hx": 2112.0,
    "hy": 8672.0,
    "hz": -288.0
   }
  },
  {
   "type": "Feature",
   "geometry": {
    "type": "Point",
    "coordinates": [
     0.0003614232496956626,
     0.0015004540967068782
    ]
   },
   "properties": {
    "classname": "info_player_teamspawn",
    "team": "2",
    "targetname": "red_spawn2_point",
    "hx": 2112.0,
    "hy": 8768.0,
    "hz": -288.0
   }
  },
  {
   "type": "Feature",
   "geometry": {
    "type": "Point",
    "coordinates": [
     0.0003778515792272836,
     0.0015004540967068782
    ]
   },
   "properties": {
    "classname": "info_player_teamspawn",
    "team": "2",
    "targetname": "red_spawn2_point",
    "hx": 2208.0,
    "hy": 8768.0,
    "hz": -288.0
   }
  },
  {
   "type": "Feature",
   "geometry": {
    "type": "Point",
    "coordinates": [
     0.00039427990875890465,
     0.0015004540967068782
    ]
   },
   "properties": {
    "classname": "info_player_teamspawn",
    "team": "2",
    "targetname": "red_spawn2_point",
    "hx": 2304.0,
    "hy": 8768.0,
    "hz": -288.0
   }
  },
  {
   "type": "Feature",
   "geometry": {
    "type": "Point",
    "coordinates": [
     0.00041070823829052563,
     0.0015004540967068782
    ]
   },
   "properties": {
    "classname": "info_player_teamspawn",
    "team": "2",
    "targetname": "red_spawn2_point",
    "hx": 2400.0,
    "hy": 8768.0,
    "hz": -288.0
   }
  },
  {
   "type": "Feature",
   "geometry": {
    "type": "Point",
    "coordinates": [
     0.00042713656782214667,
     0.0015004540967068782
    ]
   },
   "properties": {
    "classname": "info_player_teamspawn",
    "team": "2",
    "targetname": "red_spawn2_point",
    "hx": 2496.0,
    "hy": 8768.0,
    "hz": -288.0
   }
  },
  {
   "type": "Feature",
   "geometry": {
    "type": "Point",
    "coordinates": [
     0.00026832938225850527,
     0.00013142663620790176
    ]
   },
   "properties": {
    "classname": "info_player_teamspawn",
    "team": "2",
    "targetname": "red_spawn1_point",
    "hx": 1568.0,
    "hy": 768.0,
    "hz": -160.0
   }
  },
  {
   "type": "Feature",
   "geometry": {
    "type": "Point",
    "coordinates": [
     0.0002573771625744847,
     0.00013142663620790176
    ]
   },
   "properties": {
    "classname": "info_player_teamspawn",
    "team": "2",
    "targetname": "red_spawn1_point",
    "hx": 1504.0,
    "hy": 768.0,
    "hz": -160.0
   }
  },
  {
   "type": "Feature",
   "geometry": {
    "type": "Point",
    "coordinates": [
     0.0002464249428904641,
     0.00013142663620790176
    ]
   },
   "properties": {
    "classname": "info_player_teamspawn",
    "team": "2",
    "targetname": "red_spawn1_point",
    "hx": 1440.0,
    "hy": 768.0,
    "hz": -160.0
   }
  },
  {
   "type": "Feature",
   "geometry": {
    "type": "Point",
    "coordinates": [
     0.00023547272320644343,
     0.00013142663620790176
    ]
   },
   "properties": {
    "classname": "info_player_teamspawn",
    "team": "2",
    "targetname": "red_spawn1_point",
    "hx": 1376.0,
    "hy": 768.0,
    "hz": -160.0
   }
  },
  {
   "type": "Feature",
   "geometry": {
    "type": "Point",
    "coordinates": [
     0.0002245205035224228,
     0.00013142663620790176
    ]
   },
   "properties": {
    "classname": "info_player_teamspawn",
    "team": "2",
    "targetname": "red_spawn1_point",
    "hx": 1312.0,
    "hy": 768.0,
    "hz": -160.0
   }
  },
  {
   "type": "Feature",
   "geometry": {
    "type": "Point",
    "coordinates": [
     0.00026832938225839257,
     0.00012047441652390994
    ]
   },
   "properties": {
    "classname": "info_player_teamspawn",
    "team": "2",
    "targetname": "red_spawn1_point",
    "hx": 1568.0,
    "hy": 704.0,
    "hz": -160.0
   }
  },
  {
   "type": "Feature",
   "geometry": {
    "type": "Point",
    "coordinates": [
     0.0002573771625743766,
     0.00012047441652390994
    ]
   },
   "properties": {
    "classname": "info_player_teamspawn",
    "team": "2",
    "targetname": "red_spawn1_point",
    "hx": 1504.0,
    "hy": 704.0,
    "hz": -160.0
   }
  },
  {
   "type": "Feature",
   "geometry": {
    "type": "Point",
    "coordinates": [
     0.00024642494289036054,
     0.00012047441652390994
    ]
   },
   "properties": {
    "classname": "info_player_teamspawn",
    "team": "2",
    "targetname": "red_spawn1_point",
    "hx": 1440.0,
    "hy": 704.0,
    "hz": -160.0
   }
  },
  {
   "type": "Feature",
   "geometry": {
    "type": "Point",
    "coordinates": [
     0.0002354727232063445,
     0.00012047441652390994
    ]
   },
   "properties": {
    "classname": "info_player_teamspawn",
    "team": "2",
    "targetname": "red_spawn1_point",
    "hx": 1376.0,
    "hy": 704.0,
    "hz": -160.0
   }
  },
  {
   "type": "Feature",
   "geometry": {
    "type": "Point",
    "coordinates": [
     0.00022452050352232849,
     0.00012047441652390994
    ]
   },
   "properties": {
    "classname": "info_player_teamspawn",
    "team": "2",
    "targetname": "red_spawn1_point",
    "hx": 1312.0,
    "hy": 704.0,
    "hz": -160.0
   }
  },
  {
   "type": "Feature",
   "geometry": {
    "type": "Point",
    "coordinates": [
     0.0002683293822582896,
     0.00010952219683991812
    ]
   },
   "properties": {
    "classname": "info_player_teamspawn",
    "team": "2",
    "targetname": "red_spawn1_point",
    "hx": 1568.0,
    "hy": 640.0,
    "hz": -160.0
   }
  },
  {
   "type": "Feature",
   "geometry": {
    "type": "Point",
    "coordinates": [
     0.0002573771625742778,
     0.00010952219683991812
    ]
   },
   "properties": {
    "classname": "info_player_teamspawn",
    "team": "2",
    "targetname": "red_spawn1_point",
    "hx": 1504.0,
    "hy": 640.0,
    "hz": -160.0
   }
  },
  {
   "type": "Feature",
   "geometry": {
    "type": "Point",
    "coordinates": [
     0.000246424942890266,
     0.00010952219683991812
    ]
   },
   "properties": {
    "classname": "info_player_teamspawn",
    "team": "2",
    "targetname": "red_spawn1_point",
    "hx": 1440.0,
    "hy": 640.0,
    "hz": -160.0
   }
  },
  {
   "type": "Feature",
   "geometry": {
    "type": "Point",
    "coordinates": [
     0.00023547272320625416,
     0.00010952219683991812
    ]
   },
   "properties": {
    "classname": "info_player_teamspawn",
    "team": "2",
    "targetname": "red_spawn1_point",
    "hx": 1376.0,
    "hy": 640.0,
    "hz": -160.0
   }
  },
  {
   "type": "Feature",
   "geometry": {
    "type": "Point",
    "coordinates": [
     0.00022452050352224235,
     0.00010952219683991812
    ]
   },
   "properties": {
    "classname": "info_player_teamspawn",
    "team": "2",
    "targetname": "red_spawn1_point",
    "hx": 1312.0,
    "hy": 640.0,
    "hz": -160.0
   }
  },
  {
   "type": "Feature",
   "geometry": {
    "type": "Point",
    "coordinates": [
     -0.0005202304349898035,
     4.928498857796316e-05
    ]
   },
   "properties": {
    "classname": "info_player_teamspawn",
    "team": "3",
    "targetname": "blu_spawn_01_point",
    "hx": -3040.0,
    "hy": 288.0,
    "hz": -96.0
   }
  },
  {
   "type": "Feature",
   "geometry": {
    "type": "Point",
    "coordinates": [
     0.00011499830668206581,
     -9.30938673139304e-05
    ]
   },
   "properties": {
    "classname": "item_healthkit_small",
    "team": "",
    "targetname": "",
    "hx": 672.0,
    "hy": -544.0,
    "hz": 256.0
   }
  },
  {
   "type": "Feature",
   "geometry": {
    "type": "Point",
    "coordinates": [
     0.0001149983066820842,
     -9.856997715592632e-05
    ]
   },
   "properties": {
    "classname": "item_ammopack_medium",
    "team": "",
    "targetname": "",
    "hx": 672.0,
    "hy": -576.0,
    "hz": 256.0
   }
  },
  {
   "type": "Feature",
   "geometry": {
    "type": "Point",
    "coordinates": [
     -2.1904439367990028e-05,
     4.380887873596725e-05
    ]
   },
   "properties": {
    "classname": "item_ammopack_full",
    "team": "",
    "targetname": "",
    "hx": -128.0,
    "hy": 256.0,
    "hz": 48.0
   }
  },
  {
   "type": "Feature",
   "geometry": {
    "type": "Point",
    "coordinates": [
     -8.761775747201293e-05,
     -7.666553778794268e-05
    ]
   },
   "properties": {
    "classname": "item_healthkit_medium",
    "team": "",
    "targetname": "",
    "hx": -512.0,
    "hy": -448.0,
    "hz": 8.0
   }
  },
  {
   "type": "Feature",
   "geometry": {
    "type": "Point",
    "coordinates": [
     0.0002929718765480669,
     -0.0001697594051018731
    ]
   },
   "properties": {
    "classname": "item_ammopack_small",
    "team": "",
    "targetname": "",
    "hx": 1712.0,
    "hy": -992.0,
    "hz": 64.0
   }
  },
  {
   "type": "Feature",
   "geometry": {
    "type": "Point",
    "coordinates": [
     0.0002984479863900868,
     -0.0001697594051018731
    ]
   },
   "properties": {
    "classname": "item_healthkit_medium",
    "team": "",
    "targetname": "",
    "hx": 1744.0,
    "hy": -992.0,
    "hz": 64.0
   }
  },
  {
   "type": "Feature",
   "geometry": {
    "type": "Point",
    "coordinates": [
     0.0005968959727807052,
     0.0001861877346278608
    ]
   },
   "properties": {
    "classname": "team_control_point",
    "team": "",
    "targetname": "Cp_2",
    "hx": 3488.0,
    "hy": 1088.0,
    "hz": -256.0
   }
  },
  {
   "type": "Feature",
   "geometry": {
    "type": "Point",
    "coordinates": [
     0.0004901118308654051,
     0.00030118604130977483
    ]
   },
   "properties": {
    "classname": "item_healthkit_medium",
    "team": "",
    "targetname": "",
    "hx": 2864.0,
    "hy": 1760.0,
    "hz": -128.0
   }
  },
  {
   "type": "Feature",
   "geometry": {
    "type": "Point",
    "coordinates": [
     0.0004955879407074768,
     0.00030118604130977483
    ]
   },
   "properties": {
    "classname": "item_ammopack_medium",
    "team": "",
    "targetname": "",
    "hx": 2896.0,
    "hy": 1760.0,
    "hz": -128.0
   }
  },
  {
   "type": "Feature",
   "geometry": {
    "type": "Point",
    "coordinates": [
     0.0006899898400945127,
     -0.0001697594051018731
    ]
   },
   "properties": {
    "classname": "item_healthkit_small",
    "team": "",
    "targetname": "",
    "hx": 4032.0,
    "hy": -992.0,
    "hz": -256.0
   }
  },
  {
   "type": "Feature",
   "geometry": {
    "type": "Point",
    "coordinates": [
     0.0006899898400943205,
     -0.0001642832952598772
    ]
   },
   "properties": {
    "classname": "item_ammopack_full",
    "team": "",
    "targetname": "",
    "hx": 4032.0,
    "hy": -960.0,
    "hz": -256.0
   }
  },
  {
   "type": "Feature",
   "geometry": {
    "type": "Point",
    "coordinates": [
     0.0005996340276998773,
     0.00012047441652390994
    ]
   },
   "properties": {
    "classname": "item_healthkit_full",
    "team": "",
    "targetname": "",
    "hx": 3504.0,
    "hy": 704.0,
    "hz": -256.0
   }
  },
  {
   "type": "Feature",
   "geometry": {
    "type": "Point",
    "coordinates": [
     0.0006051101375418853,
     0.00012047441652390994
    ]
   },
   "properties": {
    "classname": "item_ammopack_medium",
    "team": "",
    "targetname": "",
    "hx": 3536.0,
    "hy": 704.0,
    "hz": -256.0
   }
  },
  {
   "type": "Feature",
   "geometry": {
    "type": "Point",
    "coordinates": [
     0.00048600474853029493,
     0.0008474279980488664
    ]
   },
   "properties": {
    "classname": "item_ammopack_full",
    "team": "",
    "targetname": "",
    "hx": 2840.0,
    "hy": 4952.0,
    "hz": -766.765
   }
  },
  {
   "type": "Feature",
   "geometry": {
    "type": "Point",
    "coordinates": [
     0.00039975601848860455,
     0.0006133243023035414
    ]
   },
   "properties": {
    "classname": "item_ammopack_medium",
    "team": "",
    "targetname": "",
    "hx": 2336.0,
    "hy": 3584.0,
    "hz": -702.744
   }
  },
  {
   "type": "Feature",
   "geometry": {
    "type": "Point",
    "coordinates": [
     0.00039975601848819744,
     0.0006078481924615455
    ]
   },
   "properties": {
    "classname": "item_healthkit_small",
    "team": "",
    "targetname": "",
    "hx": 2336.0,
    "hy": 3552.0,
    "hz": -702.744
   }
  },
  {
   "type": "Feature",
   "geometry": {
    "type": "Point",
    "coordinates": [
     0.00035047102989112515,
     -0.0002519010527318117
    ]
   },
   "properties": {
    "classname": "item_healthkit_small",
    "team": "",
    "targetname": "",
    "hx": 2048.0,
    "hy": -1472.0,
    "hz": 64.0
   }
  },
  {
   "type": "Feature",
   "geometry": {
    "type": "Point",
    "coordinates": [
     0.00043808878744791335,
     0.0011499830668191403
    ]
   },
   "properties": {
    "classname": "team_control_point",
    "team": "",
    "targetname": "Cp_4",
    "hx": 2560.0,
    "hy": 6720.0,
    "hz": -640.0
   }
  },
  {
   "type": "Feature",
   "geometry": {
    "type": "Point",
    "coordinates": [
     0.0004380887874530277,
     0.0011828397258711156
    ]
   },
   "properties": {
    "classname": "item_healthkit_full",
    "team": "",
    "targetname": "",
    "hx": 2560.0,
    "hy": 6912.0,
    "hz": -536.0
   }
  },
  {
   "type": "Feature",
   "geometry": {
    "type": "Point",
    "coordinates": [
     0.00025190105277290986,
     0.0010349847601372262
    ]
   },
   "properties": {
    "classname": "item_ammopack_full",
    "team": "",
    "targetname": "",
    "hx": 1472.0,
    "hy": 6048.0,
    "hz": -512.0
   }
  },
  {
   "type": "Feature",
   "geometry": {
    "type": "Point",
    "coordinates": [
     0.0002464249429300205,
     0.0010349847601372262
    ]
   },
   "properties": {
    "classname": "item_healthkit_medium",
    "team": "",
    "targetname": "",
    "hx": 1440.0,
    "hy": 6048.0,
    "hz": -512.0
   }
  },
  {
   "type": "Feature",
   "geometry": {
    "type": "Point",
    "coordinates": [
     0.0003244595081923199,
     0.0010459369798212182
    ]
   },
   "properties": {
    "classname": "item_ammopack_medium",
    "team": "",
    "targetname": "",
    "hx": 1896.0,
    "hy": 6112.0,
    "hz": -640.0
   }
  },
  {
   "type": "Feature",
   "geometry": {
    "type": "Point",
    "coordinates": [
     0.0003191699283410798,
     0.0010473539232428344
    ]
   },
   "properties": {
    "classname": "item_healthkit_small",
    "team": "",
    "targetname": "",
    "hx": 1865.09,
    "hy": 6120.28,
    "hz": -640.0
   }
  },
  {
   "type": "Feature",
   "geometry": {
    "type": "Point",
    "coordinates": [
     0.00015333107558390338,
     0.0005859437530935619
    ]
   },
   "properties": {
    "classname": "item_ammopack_medium",
    "team": "",
    "targetname": "",
    "hx": 896.0,
    "hy": 3424.0,
    "hz": -768.0
   }
  },
  {
   "type": "Feature",
   "geometry": {
    "type": "Point",
    "coordinates": [
     0.0004928498858316397,
     0.0008323686959833777
    ]
   },
   "properties": {
    "classname": "item_healthkit_medium",
    "team": "",
    "targetname": "",
    "hx": 2880.0,
    "hy": 4864.0,
    "hz": -448.0
   }
  },
  {
   "type": "Feature",
   "geometry": {
    "type": "Point",
    "coordinates": [
     -8.214164763001212e-05,
     -7.666553778794268e-05
    ]
   },
   "properties": {
    "classname": "item_ammopack_medium",
    "team": "",
    "targetname": "",
    "hx": -480.0,
    "hy": -448.0,
    "hz": 8.0
   }
  },
  {
   "type": "Feature",
   "geometry": {
    "type": "Point",
    "coordinates": [
     0.0007776075975640189,
     7.118942794594677e-05
    ]
   },
   "properties": {
    "classname": "info_player_teamspawn",
    "team": "3",
    "targetname": "blu_spawn_02_point",
    "hx": 4544.0,
    "hy": 416.0,
    "hz": -254.995
   }
  },
  {
   "type": "Feature",
   "geometry": {
    "type": "Point",
    "coordinates": [
     0.0007885598172480192,
     7.118942794594677e-05
    ]
   },
   "properties": {
    "classname": "info_player_teamspawn",
    "team": "3",
    "targetname": "blu_spawn_02_point",
    "hx": 4608.0,
    "hy": 416.0,
    "hz": -254.995
   }
  },
  {
   "type": "Feature",
   "geometry": {
    "type": "Point",
    "coordinates": [
     0.0007995120369320195,
     7.118942794594677e-05
    ]
   },
   "properties": {
    "classname": "info_player_teamspawn",
    "team": "3",
    "targetname": "blu_spawn_02_point",
    "hx": 4672.0,
    "hy": 416.0,
    "hz": -254.995
   }
  },
  {
   "type": "Feature",
   "geometry": {
    "type": "Point",
    "coordinates": [
     0.0007995120369322239,
     8.21416476299386e-05
    ]
   },
   "properties": {
    "classname": "info_player_teamspawn",
    "team": "3",
    "targetname": "blu_spawn_02_point",
    "hx": 4672.0,
    "hy": 480.0,
    "hz": -254.995
   }
  },
  {
   "type": "Feature",
   "geometry": {
    "type": "Point",
    "coordinates": [
     0.0007885598172482208,
     8.21416476299386e-05
    ]
   },
   "properties": {
    "classname": "info_player_teamspawn",
    "team": "3",
    "targetname": "blu_spawn_02_point",
    "hx": 4608.0,
    "hy": 480.0,
    "hz": -254.995
   }
  },
  {
   "type": "Feature",
   "geometry": {
    "type": "Point",
    "coordinates": [
     0.0007776075975642178,
     8.21416476299386e-05
    ]
   },
   "properties": {
    "classname": "info_player_teamspawn",
    "team": "3",
    "targetname": "blu_spawn_02_point",
    "hx": 4544.0,
    "hy": 480.0,
    "hz": -254.995
   }
  },
  {
   "type": "Feature",
   "geometry": {
    "type": "Point",
    "coordinates": [
     0.000777607597564445,
     9.30938673139304e-05
    ]
   },
   "properties": {
    "classname": "info_player_teamspawn",
    "team": "3",
    "targetname": "blu_spawn_02_point",
    "hx": 4544.0,
    "hy": 544.0,
    "hz": -254.995
   }
  },
  {
   "type": "Feature",
   "geometry": {
    "type": "Point",
    "coordinates": [
     0.0007885598172484513,
     9.30938673139304e-05
    ]
   },
   "properties": {
    "classname": "info_player_teamspawn",
    "team": "3",
    "targetname": "blu_spawn_02_point",
    "hx": 4608.0,
    "hy": 544.0,
    "hz": -254.995
   }
  },
  {
   "type": "Feature",
   "geometry": {
    "type": "Point",
    "coordinates": [
     0.0007995120369324576,
     9.30938673139304e-05
    ]
   },
   "properties": {
    "classname": "info_player_teamspawn",
    "team": "3",
    "targetname": "blu_spawn_02_point",
    "hx": 4672.0,
    "hy": 544.0,
    "hz": -254.995
   }
  },
  {
   "type": "Feature",
   "geometry": {
    "type": "Point",
    "coordinates": [
     0.0007995120369327206,
     0.00010404608699792221
    ]
   },
   "properties": {
    "classname": "info_player_teamspawn",
    "team": "3",
    "targetname": "blu_spawn_02_point",
    "hx": 4672.0,
    "hy": 608.0,
    "hz": -254.995
   }
  },
  {
   "type": "Feature",
   "geometry": {
    "type": "Point",
    "coordinates": [
     0.0007885598172487106,
     0.00010404608699792221
    ]
   },
   "properties": {
    "classname": "info_player_teamspawn",
    "team": "3",
    "targetname": "blu_spawn_02_point",
    "hx": 4608.0,
    "hy": 608.0,
    "hz": -254.995
   }
  },
  {
   "type": "Feature",
   "geometry": {
    "type": "Point",
    "coordinates": [
     0.0007776075975647008,
     0.00010404608699792221
    ]
   },
   "properties": {
    "classname": "info_player_teamspawn",
    "team": "3",
    "targetname": "blu_spawn_02_point",
    "hx": 4544.0,
    "hy": 608.0,
    "hz": -254.995
   }
  },
  {
   "type": "Feature",
   "geometry": {
    "type": "Point",
    "coordinates": [
     0.0007776075975638485,
     6.023720826195497e-05
    ]
   },
   "properties": {
    "classname": "info_player_teamspawn",
    "team": "3",
    "targetname": "blu_spawn_02_point",
    "hx": 4544.0,
    "hy": 352.0,
    "hz": -254.995
   }
  },
  {
   "type": "Feature",
   "geometry": {
    "type": "Point",
    "coordinates": [
     0.0007776075975637063,
     4.928498857796316e-05
    ]
   },
   "properties": {
    "classname": "info_player_teamspawn",
    "team": "3",
    "targetname": "blu_spawn_02_point",
    "hx": 4544.0,
    "hy": 288.0,
    "hz": -254.995
   }
  },
  {
   "type": "Feature",
   "geometry": {
    "type": "Point",
    "coordinates": [
     0.0007885598172477022,
     4.928498857796316e-05
    ]
   },
   "properties": {
    "classname": "info_player_teamspawn",
    "team": "3",
    "targetname": "blu_spawn_02_point",
    "hx": 4608.0,
    "hy": 288.0,
    "hz": -254.995
   }
  },
  {
   "type": "Feature",
   "geometry": {
    "type": "Point",
    "coordinates": [
     0.0007885598172478463,
     6.023720826195497e-05
    ]
   },
   "properties": {
    "classname": "info_player_teamspawn",
    "team": "3",
    "targetname": "blu_spawn_02_point",
    "hx": 4608.0,
    "hy": 352.0,
    "hz": -254.995
   }
  },
  {
   "type": "Feature",
   "geometry": {
    "type": "Point",
    "coordinates": [
     0.0007995120369318442,
     6.023720826195497e-05
    ]
   },
   "properties": {
    "classname": "info_player_teamspawn",
    "team": "3",
    "targetname": "blu_spawn_02_point",
    "hx": 4672.0,
    "hy": 352.0,
    "hz": -254.995
   }
  },
  {
   "type": "Feature",
   "geometry": {
    "type": "Point",
    "coordinates": [
     0.0007995120369316981,
     4.928498857796316e-05
    ]
   },
   "properties": {
    "classname": "info_player_teamspawn",
    "team": "3",
    "targetname": "blu_spawn_02_point",
    "hx": 4672.0,
    "hy": 288.0,
    "hz": -254.995
   }
  },
  {
   "type": "Feature",
   "geometry": {
    "type": "Point",
    "coordinates": [
     0.0001505930206628902,
     0.0005906857219598652
    ]
   },
   "properties": {
    "classname": "item_healthkit_small",
    "team": "",
    "targetname": "",
    "hx": 880.0,
    "hy": 3451.71,
    "hz": -768.0
   }
  },
  {
   "type": "Feature",
   "geometry": {
    "type": "Point",
    "coordinates": [
     0.00028749576670542064,
     -0.00012047441652390994
    ]
   },
   "properties": {
    "classname": "team_control_point",
    "team": "",
    "targetname": "Cp_1",
    "hx": 1680.0,
    "hy": -704.0,
    "hz": 64.0
   }
  },
  {
   "type": "Feature",
   "geometry": {
    "type": "Point",
    "coordinates": [
     -0.0005202304349899532,
     6.571331810395088e-05
    ]
   },
   "properties": {
    "classname": "info_player_teamspawn",
    "team": "3",
    "targetname": "blu_spawn_01_point",
    "hx": -3040.0,
    "hy": 384.0,
    "hz": -96.0
   }
  },
  {
   "type": "Feature",
   "geometry": {
    "type": "Point",
    "coordinates": [
     -0.0005202304349901457,
     8.21416476299386e-05
    ]
   },
   "properties": {
    "classname": "info_player_teamspawn",
    "team": "3",
    "targetname": "blu_spawn_01_point",
    "hx": -3040.0,
    "hy": 480.0,
    "hz": -96.0
   }
  },
  {
   "type": "Feature",
   "geometry": {
    "type": "Point",
    "coordinates": [
     -0.0005092782153061427,
     8.21416476299386e-05
    ]
   },
   "properties": {
    "classname": "info_player_teamspawn",
    "team": "3",
    "targetname": "blu_spawn_01_point",
    "hx": -2976.0,
    "hy": 480.0,
    "hz": -96.0
   }
  },
  {
   "type": "Feature",
   "geometry": {
    "type": "Point",
    "coordinates": [
     -0.0005092782153059542,
     6.571331810395088e-05
    ]
   },
   "properties": {
    "classname": "info_player_teamspawn",
    "team": "3",
    "targetname": "blu_spawn_01_point",
    "hx": -2976.0,
    "hy": 384.0,
    "hz": -96.0
   }
  },
  {
   "type": "Feature",
   "geometry": {
    "type": "Point",
    "coordinates": [
     -0.0005092782153058077,
     4.928498857796316e-05
    ]
   },
   "properties": {
    "classname": "info_player_teamspawn",
    "team": "3",
    "targetname": "blu_spawn_01_point",
    "hx": -2976.0,
    "hy": 288.0,
    "hz": -96.0
   }
  },
  {
   "type": "Feature",
   "geometry": {
    "type": "Point",
    "coordinates": [
     -0.0004983259956221395,
     8.21416476299386e-05
    ]
   },
   "properties": {
    "classname": "info_player_teamspawn",
    "team": "3",
    "targetname": "blu_spawn_01_point",
    "hx": -2912.0,
    "hy": 480.0,
    "hz": -96.0
   }
  },
  {
   "type": "Feature",
   "geometry": {
    "type": "Point",
    "coordinates": [
     -0.0004983259956219552,
     6.571331810395088e-05
    ]
   },
   "properties": {
    "classname": "info_player_teamspawn",
    "team": "3",
    "targetname": "blu_spawn_01_point",
    "hx": -2912.0,
    "hy": 384.0,
    "hz": -96.0
   }
  },
  {
   "type": "Feature",
   "geometry": {
    "type": "Point",
    "coordinates": [
     -0.0004983259956218119,
     4.928498857796316e-05
    ]
   },
   "properties": {
    "classname": "info_player_teamspawn",
    "team": "3",
    "targetname": "blu_spawn_01_point",
    "hx": -2912.0,
    "hy": 288.0,
    "hz": -96.0
   }
  },
  {
   "type": "Feature",
   "geometry": {
    "type": "Point",
    "coordinates": [
     -0.0004873737759381365,
     8.21416476299386e-05
    ]
   },
   "properties": {
    "classname": "info_player_teamspawn",
    "team": "3",
    "targetname": "blu_spawn_01_point",
    "hx": -2848.0,
    "hy": 480.0,
    "hz": -96.0
   }
  },
  {
   "type": "Feature",
   "geometry": {
    "type": "Point",
    "coordinates": [
     -0.0004873737759379562,
     6.571331810395088e-05
    ]
   },
   "properties": {
    "classname": "info_player_teamspawn",
    "team": "3",
    "targetname": "blu_spawn_01_point",
    "hx": -2848.0,
    "hy": 384.0,
    "hz": -96.0
   }
  },
  {
   "type": "Feature",
   "geometry": {
    "type": "Point",
    "coordinates": [
     -0.00048737377593781594,
     4.928498857796316e-05
    ]
   },
   "properties": {
    "classname": "info_player_teamspawn",
    "team": "3",
    "targetname": "blu_spawn_01_point",
    "hx": -2848.0,
    "hy": 288.0,
    "hz": -96.0
   }
  },
  {
   "type": "Feature",
   "geometry": {
    "type": "Point",
    "coordinates": [
     -0.0004764215562541334,
     8.21416476299386e-05
    ]
   },
   "properties": {
    "classname": "info_player_teamspawn",
    "team": "3",
    "targetname": "blu_spawn_01_point",
    "hx": -2784.0,
    "hy": 480.0,
    "hz": -96.0
   }
  },
  {
   "type": "Feature",
   "geometry": {
    "type": "Point",
    "coordinates": [
     -0.00047642155625395716,
     6.571331810395088e-05
    ]
   },
   "properties": {
    "classname": "info_player_teamspawn",
    "team": "3",
    "targetname": "blu_spawn_01_point",
    "hx": -2784.0,
    "hy": 384.0,
    "hz": -96.0
   }
  },
  {
   "type": "Feature",
   "geometry": {
    "type": "Point",
    "coordinates": [
     -0.00047642155625382006,
     4.928498857796316e-05
    ]
   },
   "properties": {
    "classname": "info_player_teamspawn",
    "team": "3",
    "targetname": "blu_spawn_01_point",
    "hx": -2784.0,
    "hy": 288.0,
    "hz": -96.0
   }
  },
  {
   "type": "Feature",
   "geometry": {
    "type": "Point",
    "coordinates": [
     -0.00046546933656995814,
     6.571331810395088e-05
    ]
   },
   "properties": {
    "classname": "info_player_teamspawn",
    "team": "3",
    "targetname": "blu_spawn_01_point",
    "hx": -2720.0,
    "hy": 384.0,
    "hz": -96.0
   }
  },
  {
   "type": "Feature",
   "geometry": {
    "type": "Point",
    "coordinates": [
     0.00021904439369521935,
     0.0006790376204074924
    ]
   },
   "properties": {
    "classname": "team_control_point",
    "team": "",
    "targetname": "Cp_3",
    "hx": 1280.0,
    "hy": 3968.0,
    "hz": -832.0
   }
  },
  {
   "type": "Feature",
   "geometry": {
    "type": "Point",
    "coordinates": [
     0.0001916638444724094,
     -0.0002957099314677789
    ]
   },
   "properties": {
    "classname": "item_healthkit_small",
    "team": "",
    "targetname": "",
    "hx": 1120.0,
    "hy": -1728.0,
    "hz": 24.0
   }
  },
  {
   "type": "Feature",
   "geometry": {
    "type": "Point",
    "coordinates": [
     0.00018892578955132858,
     -0.00029297187654678096
    ]
   },
   "properties": {
    "classname": "item_ammopack_medium",
    "team": "",
    "targetname": "",
    "hx": 1104.0,
    "hy": -1712.0,
    "hz": 24.0
   }
  },
  {
   "type": "Feature",
   "geometry": {
    "type": "Point",
    "coordinates": [
     0.00026832938225781897,
     -2.1904439367983625e-05
    ]
   },
   "properties": {
    "classname": "item_healthkit_small",
    "team": "",
    "targetname": "",
    "hx": 1568.0,
    "hy": -128.0,
    "hz": 320.0
   }
  },
  {
   "type": "Feature",
   "geometry": {
    "type": "Point",
    "coordinates": [
     0.0002683293822578104,
     -1.642832952598772e-05
    ]
   },
   "properties": {
    "classname": "item_ammopack_full",
    "team": "",
    "targetname": "",
    "hx": 1568.0,
    "hy": -96.0,
    "hz": 320.0
   }
  },
  {
   "type": "Feature",
   "geometry": {
    "type": "Point",
    "coordinates": [
     0.0006023720827096842,
     0.000991175881401259
    ]
   },
   "properties": {
    "classname": "item_ammopack_full",
    "team": "",
    "targetname": "",
    "hx": 3520.0,
    "hy": 5792.0,
    "hz": -446.789
   }
  },
  {
   "type": "Feature",
   "geometry": {
    "type": "Point",
    "coordinates": [
     0.0006078481925524995,
     0.000991175881401259
    ]
   },
   "properties": {
    "classname": "item_healthkit_small",
    "team": "",
    "targetname": "",
    "hx": 3552.0,
    "hy": 5792.0,
    "hz": -446.789
   }
  },
  {
   "type": "Feature",
   "geometry": {
    "type": "Point",
    "coordinates": [
     0.0003559471397519888,
     0.000640704851513521
    ]
   },
   "properties": {
    "classname": "item_healthkit_small",
    "team": "",
    "targetname": "",
    "hx": 2080.0,
    "hy": 3744.0,
    "hz": -640.0
   }
  },
  {
   "type": "Feature",
   "geometry": {
    "type": "Point",
    "coordinates": [
     0.00035047102990965053,
     0.000640704851513521
    ]
   },
   "properties": {
    "classname": "item_ammopack_medium",
    "team": "",
    "targetname": "",
    "hx": 2048.0,
    "hy": 3744.0,
    "hz": -640.0
   }
  },
  {
   "type": "Feature",
   "geometry": {
    "type": "Point",
    "coordinates": [
     0.00035594713976391535,
     0.0007940359270894064
    ]
   },
   "properties": {
    "classname": "item_healthkit_small",
    "team": "",
    "targetname": "",
    "hx": 2080.0,
    "hy": 4640.0,
    "hz": -512.0
   }
  },
  {
   "type": "Feature",
   "geometry": {
    "type": "Point",
    "coordinates": [
     0.0005393968194410466,
     0.000232734668284826
    ]
   },
   "properties": {
    "classname": "item_ammopack_medium",
    "team": "",
    "targetname": "",
    "hx": 3152.0,
    "hy": 1360.0,
    "hz": -447.744
   }
  },
  {
   "type": "Feature",
   "geometry": {
    "type": "Point",
    "coordinates": [
     0.0005339207095990055,
     0.000232734668284826
    ]
   },
   "properties": {
    "classname": "item_healthkit_small",
    "team": "",
    "targetname": "",
    "hx": 3120.0,
    "hy": 1360.0,
    "hz": -447.744
   }
  }
 ]
}
