{
 "type": "FeatureCollection",
 "note": "pseudo-WGS84 via crs.local_to_wgs84 ((0,0)m maps to (0,0)deg); viewing only, not survey",
 "features": [
  {
   "type": "Feature",
   "geometry": {
    "type": "Point",
    "coordinates": [
     -0.00019440189940142817,
     0.0005975804865078032
    ]
   },
   "properties": {
    "classname": "info_player_teamspawn",
    "team": "2",
    "targetname": "spawns_red_1",
    "hx": -1136.0,
    "hy": 3492.0,
    "hz": 80.0
   }
  },
  {
   "type": "Feature",
   "geometry": {
    "type": "Point",
    "coordinates": [
     -0.00019508641313203324,
     0.0006064791650010465
    ]
   },
   "properties": {
    "classname": "info_player_teamspawn",
    "team": "2",
    "targetname": "spawns_red_1",
    "hx": -1140.0,
    "hy": 3544.0,
    "hz": 80.0
   }
  },
  {
   "type": "Feature",
   "geometry": {
    "type": "Point",
    "coordinates": [
     -0.00021083022892865344,
     0.0006064791650010465
    ]
   },
   "properties": {
    "classname": "info_player_teamspawn",
    "team": "2",
    "targetname": "spawns_red_1",
    "hx": -1232.0,
    "hy": 3544.0,
    "hz": 80.0
   }
  },
  {
   "type": "Feature",
   "geometry": {
    "type": "Point",
    "coordinates": [
     -0.0002108302289283357,
     0.0005982650002380527
    ]
   },
   "properties": {
    "classname": "info_player_teamspawn",
    "team": "2",
    "targetname": "spawns_red_1",
    "hx": -1232.0,
    "hy": 3496.0,
    "hz": 80.0
   }
  },
  {
   "type": "Feature",
   "geometry": {
    "type": "Point",
    "coordinates": [
     -0.00022041342115196907,
     0.0005886818080145599
    ]
   },
   "properties": {
    "classname": "info_player_teamspawn",
    "team": "2",
    "targetname": "spawns_red_1",
    "hx": -1288.0,
    "hy": 3440.0,
    "hz": 80.0
   }
  },
  {
   "type": "Feature",
   "geometry": {
    "type": "Point",
    "coordinates": [
     -0.0002258895309947018,
     0.0005996340276985516
    ]
   },
   "properties": {
    "classname": "info_player_teamspawn",
    "team": "2",
    "targetname": "spawns_red_1",
    "hx": -1320.0,
    "hy": 3504.0,
    "hz": 80.0
   }
  },
  {
   "type": "Feature",
   "geometry": {
    "type": "Point",
    "coordinates": [
     -0.00022588953099504305,
     0.0006078481924615455
    ]
   },
   "properties": {
    "classname": "info_player_teamspawn",
    "team": "2",
    "targetname": "spawns_red_1",
    "hx": -1320.0,
    "hy": 3552.0,
    "hz": 80.0
   }
  },
  {
   "type": "Feature",
   "geometry": {
    "type": "Point",
    "coordinates": [
     -0.0002108302289290297,
     0.0006160623572245393
    ]
   },
   "properties": {
    "classname": "info_player_teamspawn",
    "team": "2",
    "targetname": "spawns_red_1",
    "hx": -1232.0,
    "hy": 3600.0,
    "hz": 80.0
   }
  },
  {
   "type": "Feature",
   "geometry": {
    "type": "Point",
    "coordinates": [
     -0.00022588953099544703,
     0.0006174313846850384
    ]
   },
   "properties": {
    "classname": "info_player_teamspawn",
    "team": "2",
    "targetname": "spawns_red_1",
    "hx": -1320.0,
    "hy": 3608.0,
    "hz": 80.0
   }
  },
  {
   "type": "Feature",
   "geometry": {
    "type": "Point",
    "coordinates": [
     -0.00017797356987529254,
     0.0006201694396060363
    ]
   },
   "properties": {
    "classname": "info_player_teamspawn",
    "team": "2",
    "targetname": "spawns_red_1",
    "hx": -1040.0,
    "hy": 3624.0,
    "hz": 80.0
   }
  },
  {
   "type": "Feature",
   "geometry": {
    "type": "Point",
    "coordinates": [
     -0.00017797356987490497,
     0.000608532706191795
    ]
   },
   "properties": {
    "classname": "info_player_teamspawn",
    "team": "2",
    "targetname": "spawns_red_1",
    "hx": -1040.0,
    "hy": 3556.0,
    "hz": 80.0
   }
  },
  {
   "type": "Feature",
   "geometry": {
    "type": "Point",
    "coordinates": [
     -0.0001779735698745469,
     0.0005975804865078032
    ]
   },
   "properties": {
    "classname": "info_player_teamspawn",
    "team": "2",
    "targetname": "spawns_red_1",
    "hx": -1040.0,
    "hy": 3492.0,
    "hz": 80.0
   }
  },
  {
   "type": "Feature",
   "geometry": {
    "type": "Point",
    "coordinates": [
     -0.00016291426780883756,
     0.0006174313846850384
    ]
   },
   "properties": {
    "classname": "info_player_teamspawn",
    "team": "2",
    "targetname": "spawns_red_1",
    "hx": -952.0,
    "hy": 3608.0,
    "hz": 80.0
   }
  },
  {
   "type": "Feature",
   "geometry": {
    "type": "Point",
    "coordinates": [
     -0.0001629142678085462,
     0.0006078481924615455
    ]
   },
   "properties": {
    "classname": "info_player_teamspawn",
    "team": "2",
    "targetname": "spawns_red_1",
    "hx": -952.0,
    "hy": 3552.0,
    "hz": 80.0
   }
  },
  {
   "type": "Feature",
   "geometry": {
    "type": "Point",
    "coordinates": [
     -0.00016291426780830006,
     0.0005996340276985516
    ]
   },
   "properties": {
    "classname": "info_player_teamspawn",
    "team": "2",
    "targetname": "spawns_red_1",
    "hx": -952.0,
    "hy": 3504.0,
    "hz": 80.0
   }
  },
  {
   "type": "Feature",
   "geometry": {
    "type": "Point",
    "coordinates": [
     -0.00016154524034736628,
     0.0005873127805540608
    ]
   },
   "properties": {
    "classname": "info_player_teamspawn",
    "team": "2",
    "targetname": "spawns_red_1",
    "hx": -944.0,
    "hy": 3432.0,
    "hz": 80.0
   }
  },
  {
   "type": "Feature",
   "geometry": {
    "type": "Point",
    "coordinates": [
     -7.59810240590272e-05,
     -0.0003395188102037462
    ]
   },
   "properties": {
    "classname": "info_player_teamspawn",
    "team": "3",
    "targetname": "spawns_tunnel",
    "hx": -444.0,
    "hy": -1984.0,
    "hz": -16.0
   }
  },
  {
   "type": "Feature",
   "geometry": {
    "type": "Point",
    "coordinates": [
     -8.214164763138076e-05,
     -0.0003395188102037462
    ]
   },
   "properties": {
    "classname": "info_player_teamspawn",
    "team": "3",
    "targetname": "spawns_tunnel",
    "hx": -480.0,
    "hy": -1984.0,
    "hz": -16.0
   }
  },
  {
   "type": "Feature",
   "geometry": {
    "type": "Point",
    "coordinates": [
     -8.282616136171348e-05,
     -0.00034773297496674006
    ]
   },
   "properties": {
    "classname": "info_player_teamspawn",
    "team": "3",
    "targetname": "spawns_tunnel",
    "hx": -484.0,
    "hy": -2032.0,
    "hz": -16.0
   }
  },
  {
   "type": "Feature",
   "geometry": {
    "type": "Point",
    "coordinates": [
     -7.598102405909253e-05,
     -0.00034773297496674006
    ]
   },
   "properties": {
    "classname": "info_player_teamspawn",
    "team": "3",
    "targetname": "spawns_tunnel",
    "hx": -444.0,
    "hy": -2032.0,
    "hz": -16.0
   }
  },
  {
   "type": "Feature",
   "geometry": {
    "type": "Point",
    "coordinates": [
     -7.598102405915941e-05,
     -0.00035594713972973387
    ]
   },
   "properties": {
    "classname": "info_player_teamspawn",
    "team": "3",
    "targetname": "spawns_tunnel",
    "hx": -444.0,
    "hy": -2080.0,
    "hz": -16.0
   }
  },
  {
   "type": "Feature",
   "geometry": {
    "type": "Point",
    "coordinates": [
     -6.845137302626974e-05,
     -0.00035594713972973387
    ]
   },
   "properties": {
    "classname": "info_player_teamspawn",
    "team": "3",
    "targetname": "spawns_tunnel",
    "hx": -400.0,
    "hy": -2080.0,
    "hz": -16.0
   }
  },
  {
   "type": "Feature",
   "geometry": {
    "type": "Point",
    "coordinates": [
     -6.845137302615548e-05,
     -0.00034020332393399564
    ]
   },
   "properties": {
    "classname": "info_player_teamspawn",
    "team": "3",
    "targetname": "spawns_tunnel",
    "hx": -400.0,
    "hy": -1988.0,
    "hz": -16.0
   }
  },
  {
   "type": "Feature",
   "geometry": {
    "type": "Point",
    "coordinates": [
     -6.845137302620949e-05,
     -0.00034773297496674006
    ]
   },
   "properties": {
    "classname": "info_player_teamspawn",
    "team": "3",
    "targetname": "spawns_tunnel",
    "hx": -400.0,
    "hy": -2032.0,
    "hz": -16.0
   }
  },
  {
   "type": "Feature",
   "geometry": {
    "type": "Point",
    "coordinates": [
     -6.0237208263012555e-05,
     -0.0003395188102037462
    ]
   },
   "properties": {
    "classname": "info_player_teamspawn",
    "team": "3",
    "targetname": "spawns_tunnel",
    "hx": -352.0,
    "hy": -1984.0,
    "hz": -16.0
   }
  },
  {
   "type": "Feature",
   "geometry": {
    "type": "Point",
    "coordinates": [
     -6.092172199332645e-05,
     -0.00034773297496674006
    ]
   },
   "properties": {
    "classname": "info_player_teamspawn",
    "team": "3",
    "targetname": "spawns_tunnel",
    "hx": -356.0,
    "hy": -2032.0,
    "hz": -16.0
   }
  },
  {
   "type": "Feature",
   "geometry": {
    "type": "Point",
    "coordinates": [
     -6.0921721993380075e-05,
     -0.00035594713972973387
    ]
   },
   "properties": {
    "classname": "info_player_teamspawn",
    "team": "3",
    "targetname": "spawns_tunnel",
    "hx": -356.0,
    "hy": -2080.0,
    "hz": -16.0
   }
  },
  {
   "type": "Feature",
   "geometry": {
    "type": "Point",
    "coordinates": [
     -5.4076584690705495e-05,
     -0.00034773297496674006
    ]
   },
   "properties": {
    "classname": "info_player_teamspawn",
    "team": "3",
    "targetname": "spawns_tunnel",
    "hx": -316.0,
    "hy": -2032.0,
    "hz": -16.0
   }
  },
  {
   "type": "Feature",
   "geometry": {
    "type": "Point",
    "coordinates": [
     -5.40765846907531e-05,
     -0.00035594713972973387
    ]
   },
   "properties": {
    "classname": "info_player_teamspawn",
    "team": "3",
    "targetname": "spawns_tunnel",
    "hx": -316.0,
    "hy": -2080.0,
    "hz": -16.0
   }
  },
  {
   "type": "Feature",
   "geometry": {
    "type": "Point",
    "coordinates": [
     -5.4076584690658996e-05,
     -0.0003395188102037462
    ]
   },
   "properties": {
    "classname": "info_player_teamspawn",
    "team": "3",
    "targetname": "spawns_tunnel",
    "hx": -316.0,
    "hy": -1984.0,
    "hz": -16.0
   }
  },
  {
   "type": "Feature",
   "geometry": {
    "type": "Point",
    "coordinates": [
     -4.654693365778573e-05,
     -0.00034020332393399564
    ]
   },
   "properties": {
    "classname": "info_player_teamspawn",
    "team": "3",
    "targetname": "spawns_tunnel",
    "hx": -272.0,
    "hy": -1988.0,
    "hz": -16.0
   }
  },
  {
   "type": "Feature",
   "geometry": {
    "type": "Point",
    "coordinates": [
     -4.654693365782246e-05,
     -0.00034773297496674006
    ]
   },
   "properties": {
    "classname": "info_player_teamspawn",
    "team": "3",
    "targetname": "spawns_tunnel",
    "hx": -272.0,
    "hy": -2032.0,
    "hz": -16.0
   }
  },
  {
   "type": "Feature",
   "geometry": {
    "type": "Point",
    "coordinates": [
     4.310160492449701e-05,
     -0.00021732113036393316
    ]
   },
   "properties": {
    "classname": "info_player_teamspawn",
    "team": "2",
    "targetname": "spawns_red_2",
    "hx": 251.867,
    "hy": -1269.93,
    "hz": -11.5556
   }
  },
  {
   "type": "Feature",
   "geometry": {
    "type": "Point",
    "coordinates": [
     4.587131860557528e-05,
     -0.00022898011047440756
    ]
   },
   "properties": {
    "classname": "info_player_teamspawn",
    "team": "2",
    "targetname": "spawns_red_2",
    "hx": 268.052,
    "hy": -1338.06,
    "hz": -11.5556
   }
  },
  {
   "type": "Feature",
   "geometry": {
    "type": "Point",
    "coordinates": [
     4.8198151903178805e-05,
     -0.00023898598992632946
    ]
   },
   "properties": {
    "classname": "info_player_teamspawn",
    "team": "2",
    "targetname": "spawns_red_2",
    "hx": 281.649,
    "hy": -1396.53,
    "hz": -11.5556
   }
  },
  {
   "type": "Feature",
   "geometry": {
    "type": "Point",
    "coordinates": [
     5.697087987012578e-05,
     -0.0002373448682580563
    ]
   },
   "properties": {
    "classname": "info_player_teamspawn",
    "team": "2",
    "targetname": "spawns_red_2",
    "hx": 332.913,
    "hy": -1386.94,
    "hz": -11.5556
   }
  },
  {
   "type": "Feature",
   "geometry": {
    "type": "Point",
    "coordinates": [
     5.360478360154764e-05,
     -0.00022478233002365256
    ]
   },
   "properties": {
    "classname": "info_player_teamspawn",
    "team": "2",
    "targetname": "spawns_red_2",
    "hx": 313.243,
    "hy": -1313.53,
    "hz": -11.5556
   }
  },
  {
   "type": "Feature",
   "geometry": {
    "type": "Point",
    "coordinates": [
     6.0488767058306135e-05,
     -0.00022931552220222982
    ]
   },
   "properties": {
    "classname": "info_player_teamspawn",
    "team": "2",
    "targetname": "spawns_red_2",
    "hx": 353.47,
    "hy": -1340.02,
    "hz": -11.5556
   }
  },
  {
   "type": "Feature",
   "geometry": {
    "type": "Point",
    "coordinates": [
     4.957744706955289e-05,
     -0.0002123960540747881
    ]
   },
   "properties": {
    "classname": "info_player_teamspawn",
    "team": "2",
    "targetname": "spawns_red_2",
    "hx": 289.709,
    "hy": -1241.15,
    "hz": -11.5556
   }
  },
  {
   "type": "Feature",
   "geometry": {
    "type": "Point",
    "coordinates": [
     5.862209811585198e-05,
     -0.00021705930386211274
    ]
   },
   "properties": {
    "classname": "info_player_teamspawn",
    "team": "2",
    "targetname": "spawns_red_2",
    "hx": 342.562,
    "hy": -1268.4,
    "hz": -11.5556
   }
  },
  {
   "type": "Feature",
   "geometry": {
    "type": "Point",
    "coordinates": [
     4.850806549443479e-05,
     -0.00020311575917693068
    ]
   },
   "properties": {
    "classname": "info_player_teamspawn",
    "team": "2",
    "targetname": "spawns_red_2",
    "hx": 283.46,
    "hy": -1186.92,
    "hz": -11.5556
   }
  },
  {
   "type": "Feature",
   "geometry": {
    "type": "Point",
    "coordinates": [
     3.825952592508161e-05,
     -0.0002058623705195567
    ]
   },
   "properties": {
    "classname": "info_player_teamspawn",
    "team": "2",
    "targetname": "spawns_red_2",
    "hx": 223.572,
    "hy": -1202.97,
    "hz": -11.5556
   }
  },
  {
   "type": "Feature",
   "geometry": {
    "type": "Point",
    "coordinates": [
     6.505686943709805e-05,
     -0.00021462756883540142
    ]
   },
   "properties": {
    "classname": "info_player_teamspawn",
    "team": "2",
    "targetname": "spawns_red_2",
    "hx": 380.164,
    "hy": -1254.19,
    "hz": -11.5556
   }
  },
  {
   "type": "Feature",
   "geometry": {
    "type": "Point",
    "coordinates": [
     6.63920134680047e-05,
     -0.00022489869735779498
    ]
   },
   "properties": {
    "classname": "info_player_teamspawn",
    "team": "2",
    "targetname": "spawns_red_2",
    "hx": 387.966,
    "hy": -1314.21,
    "hz": -11.5556
   }
  },
  {
   "type": "Feature",
   "geometry": {
    "type": "Point",
    "coordinates": [
     7.313361806883174e-05,
     -0.0002209661659775117
    ]
   },
   "properties": {
    "classname": "info_player_teamspawn",
    "team": "2",
    "targetname": "spawns_red_2",
    "hx": 427.361,
    "hy": -1291.23,
    "hz": -11.5556
   }
  },
  {
   "type": "Feature",
   "geometry": {
    "type": "Point",
    "coordinates": [
     6.772698637048279e-05,
     -0.00023517153716451418
    ]
   },
   "properties": {
    "classname": "info_player_teamspawn",
    "team": "2",
    "targetname": "spawns_red_2",
    "hx": 395.767,
    "hy": -1374.24,
    "hz": -11.5556
   }
  },
  {
   "type": "Feature",
   "geometry": {
    "type": "Point",
    "coordinates": [
     7.464588002745297e-05,
     -0.0002318995615339216
    ]
   },
   "properties": {
    "classname": "info_player_teamspawn",
    "team": "2",
    "targetname": "spawns_red_2",
    "hx": 436.198,
    "hy": -1355.12,
    "hz": -11.5556
   }
  },
  {
   "type": "Feature",
   "geometry": {
    "type": "Point",
    "coordinates": [
     -4.714417189280217e-05,
     -0.0009287944338792977
    ]
   },
   "properties": {
    "classname": "item_healthkit_small",
    "team": "",
    "targetname": "",
    "hx": -275.49,
    "hy": -5427.47,
    "hz": -511.764
   }
  },
  {
   "type": "Feature",
   "geometry": {
    "type": "Point",
    "coordinates": [
     0.00037237718055351925,
     -0.00048737377593763563
    ]
   },
   "properties": {
    "classname": "item_ammopack_full",
    "team": "",
    "targetname": "",
    "hx": 2176.01,
    "hy": -2848.0,
    "hz": -116.0
   }
  },
  {
   "type": "Feature",
   "geometry": {
    "type": "Point",
    "coordinates": [
     8.761775747731939e-05,
     -0.000635228741671525
    ]
   },
   "properties": {
    "classname": "team_control_point",
    "team": "",
    "targetname": "cap_1",
    "hx": 512.0,
    "hy": -3712.0,
    "hz": -256.0
   }
  },
  {
   "type": "Feature",
   "geometry": {
    "type": "Point",
    "coordinates": [
     -0.00019166384446986116,
     1.232124714449079e-05
    ]
   },
   "properties": {
    "classname": "team_control_point",
    "team": "",
    "targetname": "cap_3",
    "hx": -1120.0,
    "hy": 72.0,
    "hz": -128.0
   }
  },
  {
   "type": "Feature",
   "geometry": {
    "type": "Point",
    "coordinates": [
     -0.00019166384447552955,
     0.0004408268422806704
    ]
   },
   "properties": {
    "classname": "team_control_point",
    "team": "",
    "targetname": "cap_4",
    "hx": -1120.0,
    "hy": 2576.0,
    "hz": -128.0
   }
  },
  {
   "type": "Feature",
   "geometry": {
    "type": "Point",
    "coordinates": [
     0.00027928160194768954,
     -0.0003723754692557216
    ]
   },
   "properties": {
    "classname": "team_control_point",
    "team": "",
    "targetname": "cap_2",
    "hx": 1632.0,
    "hy": -2176.0,
    "hz": -128.0
   }
  },
  {
   "type": "Feature",
   "geometry": {
    "type": "Point",
    "coordinates": [
     -9.856997717540414e-05,
     -0.0011390308471351483
    ]
   },
   "properties": {
    "classname": "info_player_teamspawn",
    "team": "3",
    "targetname": "spawns_blue_1",
    "hx": -576.0,
    "hy": -6656.0,
    "hz": -400.0
   }
  },
  {
   "type": "Feature",
   "geometry": {
    "type": "Point",
    "coordinates": [
     -8.761775748924811e-05,
     -0.0011390308471351483
    ]
   },
   "properties": {
    "classname": "info_player_teamspawn",
    "team": "3",
    "targetname": "spawns_blue_1",
    "hx": -512.0,
    "hy": -6656.0,
    "hz": -400.0
   }
  },
  {
   "type": "Feature",
   "geometry": {
    "type": "Point",
    "coordinates": [
     -8.761775748958267e-05,
     -0.0011499830668191403
    ]
   },
   "properties": {
    "classname": "info_player_teamspawn",
    "team": "3",
    "targetname": "spawns_blue_1",
    "hx": -512.0,
    "hy": -6720.0,
    "hz": -400.0
   }
  },
  {
   "type": "Feature",
   "geometry": {
    "type": "Point",
    "coordinates": [
     -9.856997717578052e-05,
     -0.0011499830668191403
    ]
   },
   "properties": {
    "classname": "info_player_teamspawn",
    "team": "3",
    "targetname": "spawns_blue_1",
    "hx": -576.0,
    "hy": -6720.0,
    "hz": -400.0
   }
  },
  {
   "type": "Feature",
   "geometry": {
    "type": "Point",
    "coordinates": [
     -8.761775748992042e-05,
     -0.0011609352865031323
    ]
   },
   "properties": {
    "classname": "info_player_teamspawn",
    "team": "3",
    "targetname": "spawns_blue_1",
    "hx": -512.0,
    "hy": -6784.0,
    "hz": -400.0
   }
  },
  {
   "type": "Feature",
   "geometry": {
    "type": "Point",
    "coordinates": [
     -9.856997717616049e-05,
     -0.0011609352865031323
    ]
   },
   "properties": {
    "classname": "info_player_teamspawn",
    "team": "3",
    "targetname": "spawns_blue_1",
    "hx": -576.0,
    "hy": -6784.0,
    "hz": -400.0
   }
  },
  {
   "type": "Feature",
   "geometry": {
    "type": "Point",
    "coordinates": [
     -0.00010952219686240053,
     -0.0011609352865031323
    ]
   },
   "properties": {
    "classname": "info_player_teamspawn",
    "team": "3",
    "targetname": "spawns_blue_1",
    "hx": -640.0,
    "hy": -6784.0,
    "hz": -400.0
   }
  },
  {
   "type": "Feature",
   "geometry": {
    "type": "Point",
    "coordinates": [
     -0.00010952219686197834,
     -0.0011499830668191403
    ]
   },
   "properties": {
    "classname": "info_player_teamspawn",
    "team": "3",
    "targetname": "spawns_blue_1",
    "hx": -640.0,
    "hy": -6720.0,
    "hz": -400.0
   }
  },
  {
   "type": "Feature",
   "geometry": {
    "type": "Point",
    "coordinates": [
     -0.00010952219686156015,
     -0.0011390308471351483
    ]
   },
   "properties": {
    "classname": "info_player_teamspawn",
    "team": "3",
    "targetname": "spawns_blue_1",
    "hx": -640.0,
    "hy": -6656.0,
    "hz": -400.0
   }
  },
  {
   "type": "Feature",
   "geometry": {
    "type": "Point",
    "coordinates": [
     0.0003833276889535816,
     -0.00048737377593763563
    ]
   },
   "properties": {
    "classname": "item_healthkit_medium",
    "team": "",
    "targetname": "",
    "hx": 2240.0,
    "hy": -2848.0,
    "hz": -116.0
   }
  },
  {
   "type": "Feature",
   "geometry": {
    "type": "Point",
    "coordinates": [
     0.0003143817547738009,
     -0.0007801266080907369
    ]
   },
   "properties": {
    "classname": "info_player_teamspawn",
    "team": "3",
    "targetname": "spawns_blueforward1",
    "hx": 1837.11,
    "hy": -4558.72,
    "hz": -144.0
   }
  },
  {
   "type": "Feature",
   "geometry": {
    "type": "Point",
    "coordinates": [
     0.00030726794583182433,
     -0.0007842336904722338
    ]
   },
   "properties": {
    "classname": "info_player_teamspawn",
    "team": "3",
    "targetname": "spawns_blueforward1",
    "hx": 1795.54,
    "hy": -4582.72,
    "hz": -144.0
   }
  },
  {
   "type": "Feature",
   "geometry": {
    "type": "Point",
    "coordinates": [
     0.00030015413688983536,
     -0.0007883407728537307
    ]
   },
   "properties": {
    "classname": "info_player_teamspawn",
    "team": "3",
    "targetname": "spawns_blueforward1",
    "hx": 1753.97,
    "hy": -4606.72,
    "hz": -144.0
   }
  },
  {
   "type": "Feature",
   "geometry": {
    "type": "Point",
    "coordinates": [
     0.000312744055675046,
     -0.0007937176282048405
    ]
   },
   "properties": {
    "classname": "info_player_teamspawn",
    "team": "3",
    "targetname": "spawns_blueforward1",
    "hx": 1827.54,
    "hy": -4638.14,
    "hz": -144.0
   }
  },
  {
   "type": "Feature",
   "geometry": {
    "type": "Point",
    "coordinates": [
     0.00031985786461702966,
     -0.0007896105458233435
    ]
   },
   "properties": {
    "classname": "info_player_teamspawn",
    "team": "3",
    "targetname": "spawns_blueforward1",
    "hx": 1869.11,
    "hy": -4614.14,
    "hz": -144.0
   }
  },
  {
   "type": "Feature",
   "geometry": {
    "type": "Point",
    "coordinates": [
     0.0003238674037911924,
     -0.000774650498248741
    ]
   },
   "properties": {
    "classname": "info_player_teamspawn",
    "team": "3",
    "targetname": "spawns_blueforward1",
    "hx": 1892.54,
    "hy": -4526.72,
    "hz": -144.0
   }
  },
  {
   "type": "Feature",
   "geometry": {
    "type": "Point",
    "coordinates": [
     0.00031467438439273376,
     -0.0007696809285671297
    ]
   },
   "properties": {
    "classname": "info_player_teamspawn",
    "team": "3",
    "targetname": "spawns_blueforward1",
    "hx": 1838.82,
    "hy": -4497.68,
    "hz": -144.0
   }
  },
  {
   "type": "Feature",
   "geometry": {
    "type": "Point",
    "coordinates": [
     0.00030416367606406886,
     -0.0007733790139948025
    ]
   },
   "properties": {
    "classname": "info_player_teamspawn",
    "team": "3",
    "targetname": "spawns_blueforward1",
    "hx": 1777.4,
    "hy": -4519.29,
    "hz": -144.0
   }
  },
  {
   "type": "Feature",
   "geometry": {
    "type": "Point",
    "coordinates": [
     0.0002891591350960093,
     -0.0007788807931016827
    ]
   },
   "properties": {
    "classname": "info_player_teamspawn",
    "team": "3",
    "targetname": "spawns_blueforward1",
    "hx": 1689.72,
    "hy": -4551.44,
    "hz": -144.0
   }
  },
  {
   "type": "Feature",
   "geometry": {
    "type": "Point",
    "coordinates": [
     0.00029704986712209117,
     -0.0007774860963762994
    ]
   },
   "properties": {
    "classname": "info_player_teamspawn",
    "team": "3",
    "targetname": "spawns_blueforward1",
    "hx": 1735.83,
    "hy": -4543.29,
    "hz": -144.0
   }
  },
  {
   "type": "Feature",
   "geometry": {
    "type": "Point",
    "coordinates": [
     0.00030563024673304994,
     -0.0007978247105863374
    ]
   },
   "properties": {
    "classname": "info_player_teamspawn",
    "team": "3",
    "targetname": "spawns_blueforward1",
    "hx": 1785.97,
    "hy": -4662.14,
    "hz": -144.0
   }
  },
  {
   "type": "Feature",
   "geometry": {
    "type": "Point",
    "coordinates": [
     0.0002932234353709099,
     -0.0007955024977564658
    ]
   },
   "properties": {
    "classname": "info_player_teamspawn",
    "team": "3",
    "targetname": "spawns_blueforward1",
    "hx": 1713.47,
    "hy": -4648.57,
    "hz": -144.0
   }
  },
  {
   "type": "Feature",
   "geometry": {
    "type": "Point",
    "coordinates": [
     0.00028774732552772883,
     -0.0007860185600238592
    ]
   },
   "properties": {
    "classname": "info_player_teamspawn",
    "team": "3",
    "targetname": "spawns_blueforward1",
    "hx": 1681.47,
    "hy": -4593.15,
    "hz": -144.0
   }
  },
  {
   "type": "Feature",
   "geometry": {
    "type": "Point",
    "coordinates": [
     0.0003156532390263978,
     -0.0007604228803655052
    ]
   },
   "properties": {
    "classname": "info_player_teamspawn",
    "team": "3",
    "targetname": "spawns_blueforward1",
    "hx": 1844.54,
    "hy": -4443.58,
    "hz": -144.0
   }
  },
  {
   "type": "Feature",
   "geometry": {
    "type": "Point",
    "coordinates": [
     0.00030616759000901987,
     -0.0007658989902075012
    ]
   },
   "properties": {
    "classname": "info_player_teamspawn",
    "team": "3",
    "targetname": "spawns_blueforward1",
    "hx": 1789.11,
    "hy": -4475.58,
    "hz": -144.0
   }
  },
  {
   "type": "Feature",
   "geometry": {
    "type": "Point",
    "coordinates": [
     0.00032993561801112465,
     -0.0007837921791162229
    ]
   },
   "properties": {
    "classname": "info_player_teamspawn",
    "team": "3",
    "targetname": "spawns_blueforward1",
    "hx": 1928.0,
    "hy": -4580.14,
    "hz": -144.0
   }
  },
  {
   "type": "Feature",
   "geometry": {
    "type": "Point",
    "coordinates": [
     0.0002986995452141243,
     -0.0008049881467733982
    ]
   },
   "properties": {
    "classname": "info_player_teamspawn",
    "team": "3",
    "targetname": "spawns_blueforward1",
    "hx": 1745.47,
    "hy": -4704.0,
    "hz": -144.0
   }
  },
  {
   "type": "Feature",
   "geometry": {
    "type": "Point",
    "coordinates": [
     -0.00016428329526002955,
     -7.803456524844166e-05
    ]
   },
   "properties": {
    "classname": "item_ammopack_medium",
    "team": "",
    "targetname": "",
    "hx": -960.0,
    "hy": -456.0,
    "hz": 64.0
   }
  },
  {
   "type": "Feature",
   "geometry": {
    "type": "Point",
    "coordinates": [
     2.7380549212456996e-05,
     -0.0007707624602609238
    ]
   },
   "properties": {
    "classname": "item_ammopack_medium",
    "team": "",
    "targetname": "",
    "hx": 160.0,
    "hy": -4504.0,
    "hz": -192.0
   }
  },
  {
   "type": "Feature",
   "geometry": {
    "type": "Point",
    "coordinates": [
     4.962724544372461e-05,
     -0.00029023382162578307
    ]
   },
   "properties": {
    "classname": "item_ammopack_small",
    "team": "",
    "targetname": "",
    "hx": 290.0,
    "hy": -1696.0,
    "hz": -32.0
   }
  },
  {
   "type": "Feature",
   "geometry": {
    "type": "Point",
    "coordinates": [
     0.00014511691081595633,
     -0.0003723754692557216
    ]
   },
   "properties": {
    "classname": "item_ammopack_medium",
    "team": "",
    "targetname": "",
    "hx": 848.0,
    "hy": -2176.0,
    "hz": -64.0
   }
  },
  {
   "type": "Feature",
   "geometry": {
    "type": "Point",
    "coordinates": [
     -0.0002984479863895137,
     0.00012731955382640483
    ]
   },
   "properties": {
    "classname": "item_ammopack_small",
    "team": "",
    "targetname": "",
    "hx": -1744.0,
    "hy": 744.0,
    "hz": 96.0
   }
  },
  {
   "type": "Feature",
   "geometry": {
    "type": "Point",
    "coordinates": [
     3.285665905197559e-05,
     5.476109841995906e-06
    ]
   },
   "properties": {
    "classname": "item_ammopack_small",
    "team": "",
    "targetname": "",
    "hx": 192.0,
    "hy": 32.0,
    "hz": 34.0
   }
  },
  {
   "type": "Feature",
   "geometry": {
    "type": "Point",
    "coordinates": [
     -0.00041070823814969335,
     2.738054920997953e-06
    ]
   },
   "properties": {
    "classname": "item_ammopack_small",
    "team": "",
    "targetname": "",
    "hx": -2400.0,
    "hy": 16.0,
    "hz": 96.2562
   }
  },
  {
   "type": "Feature",
   "geometry": {
    "type": "Point",
    "coordinates": [
     0.0004860047484942291,
     -0.0004805286386351408
    ]
   },
   "properties": {
    "classname": "item_healthkit_medium",
    "team": "",
    "targetname": "",
    "hx": 2840.0,
    "hy": -2808.0,
    "hz": -400.0
   }
  },
  {
   "type": "Feature",
   "geometry": {
    "type": "Point",
    "coordinates": [
     -0.0002874957667054949,
     0.00012731955382640483
    ]
   },
   "properties": {
    "classname": "item_healthkit_small",
    "team": "",
    "targetname": "",
    "hx": -1680.0,
    "hy": 744.0,
    "hz": 96.0
   }
  },
  {
   "type": "Feature",
   "geometry": {
    "type": "Point",
    "coordinates": [
     -0.00041070823814969715,
     -8.21416476299386e-06
    ]
   },
   "properties": {
    "classname": "item_healthkit_small",
    "team": "",
    "targetname": "",
    "hx": -2400.0,
    "hy": -48.0,
    "hz": 96.2562
   }
  },
  {
   "type": "Feature",
   "geometry": {
    "type": "Point",
    "coordinates": [
     0.0003914460217856859,
     -0.0002957099314677789
    ]
   },
   "properties": {
    "classname": "item_healthkit_small",
    "team": "",
    "targetname": "",
    "hx": 2287.44,
    "hy": -1728.0,
    "hz": -48.0
   }
  },
  {
   "type": "Feature",
   "geometry": {
    "type": "Point",
    "coordinates": [
     1.64283295274742e-05,
     -0.0007707624602609238
    ]
   },
   "properties": {
    "classname": "item_healthkit_medium",
    "team": "",
    "targetname": "",
    "hx": 96.0,
    "hy": -4504.0,
    "hz": -192.0
   }
  },
  {
   "type": "Feature",
   "geometry": {
    "type": "Point",
    "coordinates": [
     -0.00016428329526008769,
     -9.172483985343143e-05
    ]
   },
   "properties": {
    "classname": "item_healthkit_medium",
    "team": "",
    "targetname": "",
    "hx": -960.0,
    "hy": -536.0,
    "hz": 64.0
   }
  },
  {
   "type": "Feature",
   "geometry": {
    "type": "Point",
    "coordinates": [
     4.380887873596747e-05,
     5.81836670712065e-06
    ]
   },
   "properties": {
    "classname": "item_healthkit_small",
    "team": "",
    "targetname": "",
    "hx": 256.0,
    "hy": 34.0,
    "hz": 30.0
   }
  },
  {
   "type": "Feature",
   "geometry": {
    "type": "Point",
    "coordinates": [
     -0.000128688581293384,
     -0.0005749915334095702
    ]
   },
   "properties": {
    "classname": "item_healthkit_medium",
    "team": "",
    "targetname": "",
    "hx": -752.0,
    "hy": -3360.0,
    "hz": -192.0
   }
  },
  {
   "type": "Feature",
   "geometry": {
    "type": "Point",
    "coordinates": [
     -7.666553780368037e-05,
     -0.0011609352865031323
    ]
   },
   "properties": {
    "classname": "info_player_teamspawn",
    "team": "3",
    "targetname": "spawns_blue_1",
    "hx": -448.0,
    "hy": -6784.0,
    "hz": -400.0
   }
  },
  {
   "type": "Feature",
   "geometry": {
    "type": "Point",
    "coordinates": [
     -7.666553780338483e-05,
     -0.0011499830668191403
    ]
   },
   "properties": {
    "classname": "info_player_teamspawn",
    "team": "3",
    "targetname": "spawns_blue_1",
    "hx": -448.0,
    "hy": -6720.0,
    "hz": -400.0
   }
  },
  {
   "type": "Feature",
   "geometry": {
    "type": "Point",
    "coordinates": [
     -7.66655378030921e-05,
     -0.0011390308471351483
    ]
   },
   "properties": {
    "classname": "info_player_teamspawn",
    "team": "3",
    "targetname": "spawns_blue_1",
    "hx": -448.0,
    "hy": -6656.0,
    "hz": -400.0
   }
  },
  {
   "type": "Feature",
   "geometry": {
    "type": "Point",
    "coordinates": [
     -0.0001184208753565619,
     -0.0011390308471351483
    ]
   },
   "properties": {
    "classname": "info_player_teamspawn",
    "team": "3",
    "targetname": "spawns_blue_1",
    "hx": -692.0,
    "hy": -6656.0,
    "hz": -400.0
   }
  },
  {
   "type": "Feature",
   "geometry": {
    "type": "Point",
    "coordinates": [
     -0.00011842087535701408,
     -0.0011499830668191403
    ]
   },
   "properties": {
    "classname": "info_player_teamspawn",
    "team": "3",
    "targetname": "spawns_blue_1",
    "hx": -692.0,
    "hy": -6720.0,
    "hz": -400.0
   }
  },
  {
   "type": "Feature",
   "geometry": {
    "type": "Point",
    "coordinates": [
     -0.00011842087535747057,
     -0.0011609352865031323
    ]
   },
   "properties": {
    "classname": "info_player_teamspawn",
    "team": "3",
    "targetname": "spawns_blue_1",
    "hx": -692.0,
    "hy": -6784.0,
    "hz": -400.0
   }
  },
  {
   "type": "Feature",
   "geometry": {
    "type": "Point",
    "coordinates": [
     -9.856997717503137e-05,
     -0.0011280786274511566
    ]
   },
   "properties": {
    "classname": "info_player_teamspawn",
    "team": "3",
    "targetname": "spawns_blue_1",
    "hx": -576.0,
    "hy": -6592.0,
    "hz": -400.0
   }
  },
  {
   "type": "Feature",
   "geometry": {
    "type": "Point",
    "coordinates": [
     4.9627245443677465e-05,
     -0.0002792816019417912
    ]
   },
   "properties": {
    "classname": "item_healthkit_small",
    "team": "",
    "targetname": "",
    "hx": 290.0,
    "hy": -1632.0,
    "hz": -32.0
   }
  },
  {
   "type": "Feature",
   "geometry": {
    "type": "Point",
    "coordinates": [
     0.00039427990862858745,
     -0.0002851307717667731
    ]
   },
   "properties": {
    "classname": "item_ammopack_medium",
    "team": "",
    "targetname": "",
    "hx": 2304.0,
    "hy": -1666.18,
    "hz": -48.0
   }
  },
  {
   "type": "Feature",
   "geometry": {
    "type": "Point",
    "coordinates": [
     0.00048600474849345884,
     -0.0004695764189511489
    ]
   },
   "properties": {
    "classname": "item_ammopack_medium",
    "team": "",
    "targetname": "",
    "hx": 2840.0,
    "hy": -2744.0,
    "hz": -394.291
   }
  },
  {
   "type": "Feature",
   "geometry": {
    "type": "Point",
    "coordinates": [
     -7.666553779065433e-05,
     0.00048189766609563976
    ]
   },
   "properties": {
    "classname": "item_ammopack_full",
    "team": "",
    "targetname": "",
    "hx": -448.0,
    "hy": 2816.0,
    "hz": -128.0
   }
  },
  {
   "type": "Feature",
   "geometry": {
    "type": "Point",
    "coordinates": [
     -0.0003665571025487922,
     -5.8525923936331244e-05
    ]
   },
   "properties": {
    "classname": "item_healthkit_full",
    "team": "",
    "targetname": "",
    "hx": -2142.0,
    "hy": -342.0,
    "hz": 32.2361
   }
  },
  {
   "type": "Feature",
   "geometry": {
    "type": "Point",
    "coordinates": [
     -0.0001396408009779273,
     -0.0005749915334095702
    ]
   },
   "properties": {
    "classname": "item_ammopack_full",
    "team": "",
    "targetname": "",
    "hx": -816.0,
    "hy": -3360.0,
    "hz": -190.066
   }
  },
  {
   "type": "Feature",
   "geometry": {
    "type": "Point",
    "coordinates": [
     -0.00026696035480304264,
     0.00037579803790696906
    ]
   },
   "properties": {
    "classname": "item_ammopack_small",
    "team": "",
    "targetname": "",
    "hx": -1560.0,
    "hy": 2196.0,
    "hz": 0.261276
   }
  },
  {
   "type": "Feature",
   "geometry": {
    "type": "Point",
    "coordinates": [
     -0.0002751745195662132,
     0.00037579803790696906
    ]
   },
   "properties": {
    "classname": "item_healthkit_small",
    "team": "",
    "targetname": "",
    "hx": -1608.0,
    "hy": 2196.0,
    "hz": 0.261276
   }
  },
  {
   "type": "Feature",
   "geometry": {
    "type": "Point",
    "coordinates": [
     -0.0001916638444765208,
     0.0004777905837141428
    ]
   },
   "properties": {
    "classname": "item_healthkit_small",
    "team": "",
    "targetname": "",
    "hx": -1120.0,
    "hy": 2792.0,
    "hz": 64.2352
   }
  },
  {
   "type": "Feature",
   "geometry": {
    "type": "Point",
    "coordinates": [
     -0.00018276516597662759,
     2.2588953098233113e-05
    ]
   },
   "properties": {
    "classname": "item_ammopack_medium",
    "team": "",
    "targetname": "",
    "hx": -1068.0,
    "hy": 132.0,
    "hz": 64.0
   }
  },
  {
   "type": "Feature",
   "geometry": {
    "type": "Point",
    "coordinates": [
     -4.6546933657131884e-05,
     0.00015333107557588535
    ]
   },
   "properties": {
    "classname": "item_healthkit_medium",
    "team": "",
    "targetname": "",
    "hx": -272.0,
    "hy": 896.0,
    "hz": 96.3363
   }
  },
  {
   "type": "Feature",
   "geometry": {
    "type": "Point",
    "coordinates": [
     -4.6546933657153365e-05,
     0.0001629142677993782
    ]
   },
   "properties": {
    "classname": "item_ammopack_medium",
    "team": "",
    "targetname": "",
    "hx": -272.0,
    "hy": 952.0,
    "hz": 96.5977
   }
  },
  {
   "type": "Feature",
   "geometry": {
    "type": "Point",
    "coordinates": [
     9.035581239371336e-05,
     -0.0002382107781268219
    ]
   },
   "properties": {
    "classname": "item_healthkit_medium",
    "team": "",
    "targetname": "",
    "hx": 528.0,
    "hy": -1392.0,
    "hz": 129.391
   }
  },
  {
   "type": "Feature",
   "geometry": {
    "type": "Point",
    "coordinates": [
     9.035581239378682e-05,
     -0.0002491629978108137
    ]
   },
   "properties": {
    "classname": "item_ammopack_medium",
    "team": "",
    "targetname": "",
    "hx": 528.0,
    "hy": -1456.0,
    "hz": 129.391
   }
  },
  {
   "type": "Feature",
   "geometry": {
    "type": "Point",
    "coordinates": [
     0.0001601762128817631,
     -0.0003723754692557216
    ]
   },
   "properties": {
    "classname": "item_healthkit_small",
    "team": "",
    "targetname": "",
    "hx": 936.0,
    "hy": -2176.0,
    "hz": -63.7648
   }
  },
  {
   "type": "Feature",
   "geometry": {
    "type": "Point",
    "coordinates": [
     3.2856659052556966e-05,
     0.00034088783766424516
    ]
   },
   "properties": {
    "classname": "item_healthkit_medium",
    "team": "",
    "targetname": "",
    "hx": 192.0,
    "hy": 1992.0,
    "hz": -125.73
   }
  },
  {
   "type": "Feature",
   "geometry": {
    "type": "Point",
    "coordinates": [
     -0.00019371738568111456,
     -0.0008337377234438766
    ]
   },
   "properties": {
    "classname": "item_ammopack_full",
    "team": "",
    "targetname": "",
    "hx": -1132.0,
    "hy": -4872.0,
    "hz": -223.744
   }
  },
  {
   "type": "Feature",
   "geometry": {
    "type": "Point",
    "coordinates": [
     -0.00019371738568057926,
     -0.0008227855037598849
    ]
   },
   "properties": {
    "classname": "item_healthkit_medium",
    "team": "",
    "targetname": "",
    "hx": -1132.0,
    "hy": -4808.0,
    "hz": -223.744
   }
  },
  {
   "type": "Feature",
   "geometry": {
    "type": "Point",
    "coordinates": [
     -7.803456524844773e-05,
     2.2588953098233113e-05
    ]
   },
   "properties": {
    "classname": "item_ammopack_small",
    "team": "",
    "targetname": "",
    "hx": -456.0,
    "hy": 132.0,
    "hz": 258.235
   }
  },
  {
   "type": "Feature",
   "geometry": {
    "type": "Point",
    "coordinates": [
     -8.89867849324404e-05,
     2.2588953098233113e-05
    ]
   },
   "properties": {
    "classname": "item_healthkit_small",
    "team": "",
    "targetname": "",
    "hx": -520.0,
    "hy": 132.0,
    "hz": 258.235
   }
  },
  {
   "type": "Feature",
   "geometry": {
    "type": "Point",
    "coordinates": [
     0.00020809217399829234,
     -0.00027791257448129224
    ]
   },
   "properties": {
    "classname": "item_ammopack_medium",
    "team": "",
    "targetname": "",
    "hx": 1216.0,
    "hy": -1624.0,
    "hz": -124.0
   }
  }
 ]
}
