{
 "type": "FeatureCollection",
 "note": "pseudo-WGS84 via crs.local_to_wgs84 ((0,0)m maps to (0,0)deg); viewing only, not survey",
 "features": [
  {
   "type": "Feature",
   "geometry": {
    "type": "Point",
    "coordinates": [
     -0.00013279566366906123,
     0.0001807116247858649
    ]
   },
   "properties": {
    "classname": "item_healthkit_small",
    "team": "0",
    "targetname": "",
    "hx": -776.0,
    "hy": 1056.0,
    "hz": 6614.26
   }
  },
  {
   "type": "Feature",
   "geometry": {
    "type": "Point",
    "coordinates": [
     -0.00014032531470184307,
     0.0001807116247858649
    ]
   },
   "properties": {
    "classname": "item_ammopack_full",
    "team": "0",
    "targetname": "",
    "hx": -820.0,
    "hy": 1056.0,
    "hz": 6614.26
   }
  },
  {
   "type": "Feature",
   "geometry": {
    "type": "Point",
    "coordinates": [
     -2.6011521749486374e-05,
     3.833276889397134e-05
    ]
   },
   "properties": {
    "classname": "item_healthkit_full",
    "team": "0",
    "targetname": "",
    "hx": -152.0,
    "hy": 224.0,
    "hz": 6358.26
   }
  },
  {
   "type": "Feature",
   "geometry": {
    "type": "Point",
    "coordinates": [
     1.642832952614263e-05,
     0.00024881731837703776
    ]
   },
   "properties": {
    "classname": "item_ammopack_full",
    "team": "0",
    "targetname": "",
    "hx": 96.0,
    "hy": 1453.98,
    "hz": 6358.26
   }
  },
  {
   "type": "Feature",
   "geometry": {
    "type": "Point",
    "coordinates": [
     1.6428329526135883e-05,
     0.00024334120853504183
    ]
   },
   "properties": {
    "classname": "item_healthkit_small",
    "team": "0",
    "targetname": "",
    "hx": 96.0,
    "hy": 1421.98,
    "hz": 6358.26
   }
  },
  {
   "type": "Feature",
   "geometry": {
    "type": "Point",
    "coordinates": [
     -0.00015333107557951583,
     0.0003942799086237053
    ]
   },
   "properties": {
    "classname": "item_ammopack_full",
    "team": "0",
    "targetname": "",
    "hx": -896.0,
    "hy": 2304.0,
    "hz": 6622.26
   }
  },
  {
   "type": "Feature",
   "geometry": {
    "type": "Point",
    "coordinates": [
     -0.00023153848054169256,
     0.000116367334142413
    ]
   },
   "properties": {
    "classname": "item_healthkit_medium",
    "team": "0",
    "targetname": "",
    "hx": -1353.01,
    "hy": 680.0,
    "hz": 6742.26
   }
  },
  {
   "type": "Feature",
   "geometry": {
    "type": "Point",
    "coordinates": [
     -0.00023975264530470337,
     0.000116367334142413
    ]
   },
   "properties": {
    "classname": "item_ammopack_full",
    "team": "0",
    "targetname": "",
    "hx": -1401.01,
    "hy": 680.0,
    "hz": 6742.26
   }
  },
  {
   "type": "Feature",
   "geometry": {
    "type": "Point",
    "coordinates": [
     3.5594713973697755e-05,
     0.0003655303319532267
    ]
   },
   "properties": {
    "classname": "item_ammopack_full",
    "team": "0",
    "targetname": "",
    "hx": 208.0,
    "hy": 2136.0,
    "hz": 6870.0
   }
  },
  {
   "type": "Feature",
   "geometry": {
    "type": "Point",
    "coordinates": [
     -0.00013484920485942322,
     0.00011551169197960114
    ]
   },
   "properties": {
    "classname": "item_ammopack_full",
    "team": "0",
    "targetname": "",
    "hx": -788.0,
    "hy": 675.0,
    "hz": 6358.26
   }
  },
  {
   "type": "Feature",
   "geometry": {
    "type": "Point",
    "coordinates": [
     -0.0003135072884580266,
     0.0002806506294022902
    ]
   },
   "properties": {
    "classname": "item_healthkit_small",
    "team": "0",
    "targetname": "",
    "hx": -1832.0,
    "hy": 1640.0,
    "hz": 6806.26
   }
  },
  {
   "type": "Feature",
   "geometry": {
    "type": "Point",
    "coordinates": [
     -0.00031350728845825,
     0.00028886479416528405
    ]
   },
   "properties": {
    "classname": "item_ammopack_small",
    "team": "0",
    "targetname": "",
    "hx": -1832.0,
    "hy": 1688.0,
    "hz": 6806.26
   }
  },
  {
   "type": "Feature",
   "geometry": {
    "type": "Point",
    "coordinates": [
     -0.00036843951530801384,
     0.00014785496573388945
    ]
   },
   "properties": {
    "classname": "item_healthkit_medium",
    "team": "0",
    "targetname": "",
    "hx": -2153.0,
    "hy": 864.0,
    "hz": 6503.0
   }
  },
  {
   "type": "Feature",
   "geometry": {
    "type": "Point",
    "coordinates": [
     -0.00037665368007103504,
     0.00014785496573388945
    ]
   },
   "properties": {
    "classname": "item_ammopack_full",
    "team": "0",
    "targetname": "",
    "hx": -2201.0,
    "hy": 864.0,
    "hz": 6505.0
   }
  },
  {
   "type": "Feature",
   "geometry": {
    "type": "Point",
    "coordinates": [
     -0.00011499830668313683,
     -0.00026422229987630244
    ]
   },
   "properties": {
    "classname": "item_ammopack_medium",
    "team": "0",
    "targetname": "",
    "hx": -672.0,
    "hy": -1544.0,
    "hz": 6936.0
   }
  },
  {
   "type": "Feature",
   "geometry": {
    "type": "Point",
    "coordinates": [
     -0.00015585693124183994,
     -0.00023705394992270027
    ]
   },
   "properties": {
    "classname": "item_ammopack_full",
    "team": "0",
    "targetname": "",
    "hx": -910.76,
    "hy": -1385.24,
    "hz": 6616.0
   }
  },
  {
   "type": "Feature",
   "geometry": {
    "type": "Point",
    "coordinates": [
     7.118942794596507e-05,
     4.10708238149693e-05
    ]
   },
   "properties": {
    "classname": "info_player_teamspawn",
    "team": "2",
    "targetname": "redspawn_1",
    "hx": 416.0,
    "hy": 240.0,
    "hz": 6638.0
   }
  },
  {
   "type": "Feature",
   "geometry": {
    "type": "Point",
    "coordinates": [
     7.118942794595336e-05,
     2.464249428898158e-05
    ]
   },
   "properties": {
    "classname": "info_player_teamspawn",
    "team": "2",
    "targetname": "redspawn_1",
    "hx": 416.0,
    "hy": 144.0,
    "hz": 6638.0
   }
  },
  {
   "type": "Feature",
   "geometry": {
    "type": "Point",
    "coordinates": [
     7.118942794594752e-05,
     8.21416476299386e-06
    ]
   },
   "properties": {
    "classname": "info_player_teamspawn",
    "team": "2",
    "targetname": "redspawn_1",
    "hx": 416.0,
    "hy": 48.0,
    "hz": 6638.0
   }
  },
  {
   "type": "Feature",
   "geometry": {
    "type": "Point",
    "coordinates": [
     7.118942794594752e-05,
     -8.21416476299386e-06
    ]
   },
   "properties": {
    "classname": "info_player_teamspawn",
    "team": "2",
    "targetname": "redspawn_1",
    "hx": 416.0,
    "hy": -48.0,
    "hz": 6638.0
   }
  },
  {
   "type": "Feature",
   "geometry": {
    "type": "Point",
    "coordinates": [
     5.749915334095761e-05,
     -8.21416476299386e-06
    ]
   },
   "properties": {
    "classname": "info_player_teamspawn",
    "team": "2",
    "targetname": "redspawn_1",
    "hx": 336.0,
    "hy": -48.0,
    "hz": 6638.0
   }
  },
  {
   "type": "Feature",
   "geometry": {
    "type": "Point",
    "coordinates": [
     5.749915334097178e-05,
     4.10708238149693e-05
    ]
   },
   "properties": {
    "classname": "info_player_teamspawn",
    "team": "2",
    "targetname": "redspawn_1",
    "hx": 336.0,
    "hy": 240.0,
    "hz": 6638.0
   }
  },
  {
   "type": "Feature",
   "geometry": {
    "type": "Point",
    "coordinates": [
     5.749915334095761e-05,
     8.21416476299386e-06
    ]
   },
   "properties": {
    "classname": "info_player_teamspawn",
    "team": "2",
    "targetname": "redspawn_1",
    "hx": 336.0,
    "hy": 48.0,
    "hz": 6638.0
   }
  },
  {
   "type": "Feature",
   "geometry": {
    "type": "Point",
    "coordinates": [
     5.749915334096233e-05,
     2.464249428898158e-05
    ]
   },
   "properties": {
    "classname": "info_player_teamspawn",
    "team": "2",
    "targetname": "redspawn_1",
    "hx": 336.0,
    "hy": 144.0,
    "hz": 6638.0
   }
  },
  {
   "type": "Feature",
   "geometry": {
    "type": "Point",
    "coordinates": [
     4.38088787359677e-05,
     -8.21416476299386e-06
    ]
   },
   "properties": {
    "classname": "info_player_teamspawn",
    "team": "2",
    "targetname": "redspawn_1",
    "hx": 256.0,
    "hy": -48.0,
    "hz": 6638.0
   }
  },
  {
   "type": "Feature",
   "geometry": {
    "type": "Point",
    "coordinates": [
     4.3808878735978505e-05,
     4.10708238149693e-05
    ]
   },
   "properties": {
    "classname": "info_player_teamspawn",
    "team": "2",
    "targetname": "redspawn_1",
    "hx": 256.0,
    "hy": 240.0,
    "hz": 6638.0
   }
  },
  {
   "type": "Feature",
   "geometry": {
    "type": "Point",
    "coordinates": [
     4.38088787359677e-05,
     8.21416476299386e-06
    ]
   },
   "properties": {
    "classname": "info_player_teamspawn",
    "team": "2",
    "targetname": "redspawn_1",
    "hx": 256.0,
    "hy": 48.0,
    "hz": 6638.0
   }
  },
  {
   "type": "Feature",
   "geometry": {
    "type": "Point",
    "coordinates": [
     4.3808878735971295e-05,
     2.464249428898158e-05
    ]
   },
   "properties": {
    "classname": "info_player_teamspawn",
    "team": "2",
    "targetname": "redspawn_1",
    "hx": 256.0,
    "hy": 144.0,
    "hz": 6638.0
   }
  },
  {
   "type": "Feature",
   "geometry": {
    "type": "Point",
    "coordinates": [
     8.487970255093741e-05,
     -8.21416476299386e-06
    ]
   },
   "properties": {
    "classname": "info_player_teamspawn",
    "team": "2",
    "targetname": "redspawn_1",
    "hx": 496.0,
    "hy": -48.0,
    "hz": 6638.0
   }
  },
  {
   "type": "Feature",
   "geometry": {
    "type": "Point",
    "coordinates": [
     8.487970255093741e-05,
     8.21416476299386e-06
    ]
   },
   "properties": {
    "classname": "info_player_teamspawn",
    "team": "2",
    "targetname": "redspawn_1",
    "hx": 496.0,
    "hy": 48.0,
    "hz": 6638.0
   }
  },
  {
   "type": "Feature",
   "geometry": {
    "type": "Point",
    "coordinates": [
     8.48797025509444e-05,
     2.464249428898158e-05
    ]
   },
   "properties": {
    "classname": "info_player_teamspawn",
    "team": "2",
    "targetname": "redspawn_1",
    "hx": 496.0,
    "hy": 144.0,
    "hz": 6638.0
   }
  },
  {
   "type": "Feature",
   "geometry": {
    "type": "Point",
    "coordinates": [
     8.487970255095834e-05,
     4.10708238149693e-05
    ]
   },
   "properties": {
    "classname": "info_player_teamspawn",
    "team": "2",
    "targetname": "redspawn_1",
    "hx": 496.0,
    "hy": 240.0,
    "hz": 6638.0
   }
  },
  {
   "type": "Feature",
   "geometry": {
    "type": "Point",
    "coordinates": [
     -0.0004012961743602027,
     -0.00015350220400844772
    ]
   },
   "properties": {
    "classname": "info_player_teamspawn",
    "team": "3",
    "targetname": "bluespawn_2",
    "hx": -2345.0,
    "hy": -897.0,
    "hz": 6766.0
   }
  },
  {
   "type": "Feature",
   "geometry": {
    "type": "Point",
    "coordinates": [
     -0.00040129617436052747,
     -0.00016993053353443546
    ]
   },
   "properties": {
    "classname": "info_player_teamspawn",
    "team": "3",
    "targetname": "bluespawn_2",
    "hx": -2345.0,
    "hy": -993.0,
    "hz": 6766.0
   }
  },
  {
   "type": "Feature",
   "geometry": {
    "type": "Point",
    "coordinates": [
     -0.00040523212830885383,
     -0.00013690274604989764
    ]
   },
   "properties": {
    "classname": "info_player_teamspawn",
    "team": "3",
    "targetname": "bluespawn_2",
    "hx": -2368.0,
    "hy": -800.0,
    "hz": 6766.0
   }
  },
  {
   "type": "Feature",
   "geometry": {
    "type": "Point",
    "coordinates": [
     -0.00040523212830983666,
     -0.0001861877346278608
    ]
   },
   "properties": {
    "classname": "info_player_teamspawn",
    "team": "3",
    "targetname": "bluespawn_2",
    "hx": -2368.0,
    "hy": -1088.0,
    "hz": 6766.0
   }
  },
  {
   "type": "Feature",
   "geometry": {
    "type": "Point",
    "coordinates": [
     -0.0004052321283085929,
     -0.00012047441652390994
    ]
   },
   "properties": {
    "classname": "info_player_teamspawn",
    "team": "3",
    "targetname": "bluespawn_2",
    "hx": -2368.0,
    "hy": -704.0,
    "hz": 6766.0
   }
  },
  {
   "type": "Feature",
   "geometry": {
    "type": "Point",
    "coordinates": [
     -0.00038880379878256885,
     -0.00012047441652390994
    ]
   },
   "properties": {
    "classname": "info_player_teamspawn",
    "team": "3",
    "targetname": "bluespawn_2",
    "hx": -2272.0,
    "hy": -704.0,
    "hz": 6766.0
   }
  },
  {
   "type": "Feature",
   "geometry": {
    "type": "Point",
    "coordinates": [
     -0.0003888037987837622,
     -0.0001861877346278608
    ]
   },
   "properties": {
    "classname": "info_player_teamspawn",
    "team": "3",
    "targetname": "bluespawn_2",
    "hx": -2272.0,
    "hy": -1088.0,
    "hz": 6766.0
   }
  },
  {
   "type": "Feature",
   "geometry": {
    "type": "Point",
    "coordinates": [
     -0.0003888037987834159,
     -0.0001697594051018731
    ]
   },
   "properties": {
    "classname": "info_player_teamspawn",
    "team": "3",
    "targetname": "bluespawn_2",
    "hx": -2272.0,
    "hy": -992.0,
    "hz": 6766.0
   }
  },
  {
   "type": "Feature",
   "geometry": {
    "type": "Point",
    "coordinates": [
     -0.0003888037987831016,
     -0.00015333107557588535
    ]
   },
   "properties": {
    "classname": "info_player_teamspawn",
    "team": "3",
    "targetname": "bluespawn_2",
    "hx": -2272.0,
    "hy": -896.0,
    "hz": 6766.0
   }
  },
  {
   "type": "Feature",
   "geometry": {
    "type": "Point",
    "coordinates": [
     -0.0003888037987828192,
     -0.00013690274604989764
    ]
   },
   "properties": {
    "classname": "info_player_teamspawn",
    "team": "3",
    "targetname": "bluespawn_2",
    "hx": -2272.0,
    "hy": -800.0,
    "hz": 6766.0
   }
  },
  {
   "type": "Feature",
   "geometry": {
    "type": "Point",
    "coordinates": [
     -0.00038880379878414046,
     -0.00020261606415384855
    ]
   },
   "properties": {
    "classname": "info_player_teamspawn",
    "team": "3",
    "targetname": "bluespawn_2",
    "hx": -2272.0,
    "hy": -1184.0,
    "hz": 6766.0
   }
  },
  {
   "type": "Feature",
   "geometry": {
    "type": "Point",
    "coordinates": [
     -0.00040523212831023093,
     -0.00020261606415384855
    ]
   },
   "properties": {
    "classname": "info_player_teamspawn",
    "team": "3",
    "targetname": "bluespawn_2",
    "hx": -2368.0,
    "hy": -1184.0,
    "hz": 6766.0
   }
  },
  {
   "type": "Feature",
   "geometry": {
    "type": "Point",
    "coordinates": [
     -0.00040523212830836523,
     -0.00010404608699792221
    ]
   },
   "properties": {
    "classname": "info_player_teamspawn",
    "team": "3",
    "targetname": "bluespawn_2",
    "hx": -2368.0,
    "hy": -608.0,
    "hz": 6766.0
   }
  },
  {
   "type": "Feature",
   "geometry": {
    "type": "Point",
    "coordinates": [
     -0.0003888037987823504,
     -0.00010404608699792221
    ]
   },
   "properties": {
    "classname": "info_player_teamspawn",
    "team": "3",
    "targetname": "bluespawn_2",
    "hx": -2272.0,
    "hy": -608.0,
    "hz": 6766.0
   }
  },
  {
   "type": "Feature",
   "geometry": {
    "type": "Point",
    "coordinates": [
     -0.0003723754692576877,
     -0.0001861877346278608
    ]
   },
   "properties": {
    "classname": "info_player_teamspawn",
    "team": "3",
    "targetname": "bluespawn_2",
    "hx": -2176.0,
    "hy": -1088.0,
    "hz": 6766.0
   }
  },
  {
   "type": "Feature",
   "geometry": {
    "type": "Point",
    "coordinates": [
     -0.0003723754692565448,
     -0.00012047441652390994
    ]
   },
   "properties": {
    "classname": "info_player_teamspawn",
    "team": "3",
    "targetname": "bluespawn_2",
    "hx": -2176.0,
    "hy": -704.0,
    "hz": 6766.0
   }
  },
  {
   "type": "Feature",
   "geometry": {
    "type": "Point",
    "coordinates": [
     6.571331810395088e-05,
     0.0
    ]
   },
   "properties": {
    "classname": "info_player_teamspawn",
    "team": "2",
    "targetname": "redspawn_2",
    "hx": 384.0,
    "hy": 0.0,
    "hz": 6254.0
   }
  },
  {
   "type": "Feature",
   "geometry": {
    "type": "Point",
    "coordinates": [
     8.21416476299386e-05,
     0.0
    ]
   },
   "properties": {
    "classname": "info_player_teamspawn",
    "team": "2",
    "targetname": "redspawn_2",
    "hx": 480.0,
    "hy": 0.0,
    "hz": 6254.0
   }
  },
  {
   "type": "Feature",
   "geometry": {
    "type": "Point",
    "coordinates": [
     9.463402320699175e-05,
     -1.7112843256237207e-07
    ]
   },
   "properties": {
    "classname": "info_player_teamspawn",
    "team": "2",
    "targetname": "redspawn_2",
    "hx": 553.0,
    "hy": -1.0,
    "hz": 6254.0
   }
  },
  {
   "type": "Feature",
   "geometry": {
    "type": "Point",
    "coordinates": [
     9.463402320699855e-05,
     2.1733310935421254e-05
    ]
   },
   "properties": {
    "classname": "info_player_teamspawn",
    "team": "2",
    "targetname": "redspawn_2",
    "hx": 553.0,
    "hy": 127.0,
    "hz": 6254.0
   }
  },
  {
   "type": "Feature",
   "geometry": {
    "type": "Point",
    "coordinates": [
     8.214164762994458e-05,
     2.1904439367983625e-05
    ]
   },
   "properties": {
    "classname": "info_player_teamspawn",
    "team": "2",
    "targetname": "redspawn_2",
    "hx": 480.0,
    "hy": 128.0,
    "hz": 6254.0
   }
  },
  {
   "type": "Feature",
   "geometry": {
    "type": "Point",
    "coordinates": [
     6.571331810395568e-05,
     2.1904439367983625e-05
    ]
   },
   "properties": {
    "classname": "info_player_teamspawn",
    "team": "2",
    "targetname": "redspawn_2",
    "hx": 384.0,
    "hy": 128.0,
    "hz": 6254.0
   }
  },
  {
   "type": "Feature",
   "geometry": {
    "type": "Point",
    "coordinates": [
     7.5296510327955125e-06,
     -0.00021117248578196712
    ]
   },
   "properties": {
    "classname": "team_control_point",
    "team": "",
    "targetname": "cap_1",
    "hx": 44.0,
    "hy": -1234.0,
    "hz": 6614.0
   }
  },
  {
   "type": "Feature",
   "geometry": {
    "type": "Point",
    "coordinates": [
     -0.00020843443086173563,
     -0.00015538461676663383
    ]
   },
   "properties": {
    "classname": "team_control_point",
    "team": "",
    "targetname": "cap_2",
    "hx": -1218.0,
    "hy": -908.0,
    "hz": 6614.0
   }
  },
  {
   "type": "Feature",
   "geometry": {
    "type": "Point",
    "coordinates": [
     -0.00028578448238408827,
     0.00033643849841762346
    ]
   },
   "properties": {
    "classname": "team_control_point",
    "team": "",
    "targetname": "cap_3",
    "hx": -1670.0,
    "hy": 1966.0,
    "hz": 6614.0
   }
  },
  {
   "type": "Feature",
   "geometry": {
    "type": "Point",
    "coordinates": [
     -0.00025874619003735035,
     -0.00027791257448129224
    ]
   },
   "properties": {
    "classname": "item_ammopack_medium",
    "team": "0",
    "targetname": "",
    "hx": -1512.0,
    "hy": -1624.0,
    "hz": 6936.0
   }
  },
  {
   "type": "Feature",
   "geometry": {
    "type": "Point",
    "coordinates": [
     0.00010781091251457508,
     -0.00013074212247765228
    ]
   },
   "properties": {
    "classname": "item_healthkit_medium",
    "team": "0",
    "targetname": "",
    "hx": 630.0,
    "hy": -764.0,
    "hz": 6806.82
   }
  },
  {
   "type": "Feature",
   "geometry": {
    "type": "Point",
    "coordinates": [
     0.00010781091251459909,
     -0.00013621823231964815
    ]
   },
   "properties": {
    "classname": "item_ammopack_full",
    "team": "0",
    "targetname": "",
    "hx": 630.0,
    "hy": -796.0,
    "hz": 6806.82
   }
  },
  {
   "type": "Feature",
   "geometry": {
    "type": "Point",
    "coordinates": [
     0.0001752355149464694,
     -0.00031213826099376664
    ]
   },
   "properties": {
    "classname": "item_healthkit_medium",
    "team": "0",
    "targetname": "",
    "hx": 1024.0,
    "hy": -1824.0,
    "hz": 6872.0
   }
  },
  {
   "type": "Feature",
   "geometry": {
    "type": "Point",
    "coordinates": [
     1.6428329526041913e-05,
     0.00014717045200363996
    ]
   },
   "properties": {
    "classname": "team_control_point",
    "team": "",
    "targetname": "cap_4",
    "hx": 96.0,
    "hy": 860.0,
    "hz": 6365.0
   }
  },
  {
   "type": "Feature",
   "geometry": {
    "type": "Point",
    "coordinates": [
     0.00012595052636591749,
     2.464249428898158e-05
    ]
   },
   "properties": {
    "classname": "info_player_teamspawn",
    "team": "2",
    "targetname": "redspawn_2",
    "hx": 736.0,
    "hy": 144.0,
    "hz": 6638.0
   }
  },
  {
   "type": "Feature",
   "geometry": {
    "type": "Point",
    "coordinates": [
     0.00012595052636590716,
     8.21416476299386e-06
    ]
   },
   "properties": {
    "classname": "info_player_teamspawn",
    "team": "2",
    "targetname": "redspawn_2",
    "hx": 736.0,
    "hy": 48.0,
    "hz": 6638.0
   }
  },
  {
   "type": "Feature",
   "geometry": {
    "type": "Point",
    "coordinates": [
     0.00012595052636590716,
     -8.21416476299386e-06
    ]
   },
   "properties": {
    "classname": "info_player_teamspawn",
    "team": "2",
    "targetname": "redspawn_2",
    "hx": 736.0,
    "hy": -48.0,
    "hz": 6638.0
   }
  },
  {
   "type": "Feature",
   "geometry": {
    "type": "Point",
    "coordinates": [
     0.00014237885589191322,
     3.0118604130977485e-05
    ]
   },
   "properties": {
    "classname": "info_player_teamspawn",
    "team": "2",
    "targetname": "redspawn_2",
    "hx": 832.0,
    "hy": 176.0,
    "hz": 6638.0
   }
  },
  {
   "type": "Feature",
   "geometry": {
    "type": "Point",
    "coordinates": [
     0.00014237885589189503,
     -8.21416476299386e-06
    ]
   },
   "properties": {
    "classname": "info_player_teamspawn",
    "team": "2",
    "targetname": "redspawn_2",
    "hx": 832.0,
    "hy": -48.0,
    "hz": 6638.0
   }
  },
  {
   "type": "Feature",
   "geometry": {
    "type": "Point",
    "coordinates": [
     0.00010952219683992824,
     2.464249428898158e-05
    ]
   },
   "properties": {
    "classname": "info_player_teamspawn",
    "team": "2",
    "targetname": "redspawn_2",
    "hx": 640.0,
    "hy": 144.0,
    "hz": 6638.0
   }
  },
  {
   "type": "Feature",
   "geometry": {
    "type": "Point",
    "coordinates": [
     0.00010952219683991924,
     8.21416476299386e-06
    ]
   },
   "properties": {
    "classname": "info_player_teamspawn",
    "team": "2",
    "targetname": "redspawn_2",
    "hx": 640.0,
    "hy": 48.0,
    "hz": 6638.0
   }
  },
  {
   "type": "Feature",
   "geometry": {
    "type": "Point",
    "coordinates": [
     0.00010952219683991924,
     -8.21416476299386e-06
    ]
   },
   "properties": {
    "classname": "info_player_teamspawn",
    "team": "2",
    "targetname": "redspawn_2",
    "hx": 640.0,
    "hy": -48.0,
    "hz": 6638.0
   }
  },
  {
   "type": "Feature",
   "geometry": {
    "type": "Point",
    "coordinates": [
     9.309386731393137e-05,
     -8.21416476299386e-06
    ]
   },
   "properties": {
    "classname": "info_player_teamspawn",
    "team": "2",
    "targetname": "redspawn_2",
    "hx": 544.0,
    "hy": -48.0,
    "hz": 6638.0
   }
  },
  {
   "type": "Feature",
   "geometry": {
    "type": "Point",
    "coordinates": [
     7.666553778794348e-05,
     -8.21416476299386e-06
    ]
   },
   "properties": {
    "classname": "info_player_teamspawn",
    "team": "2",
    "targetname": "redspawn_2",
    "hx": 448.0,
    "hy": -48.0,
    "hz": 6638.0
   }
  },
  {
   "type": "Feature",
   "geometry": {
    "type": "Point",
    "coordinates": [
     0.00021356828384262003,
     -0.0003833276889397134
    ]
   },
   "properties": {
    "classname": "item_ammopack_full",
    "team": "0",
    "targetname": "",
    "hx": 1248.0,
    "hy": -2240.0,
    "hz": 6998.21
   }
  },
  {
   "type": "Feature",
   "geometry": {
    "type": "Point",
    "coordinates": [
     8.214164763163533e-05,
     -0.0003682683868742247
    ]
   },
   "properties": {
    "classname": "item_ammopack_medium",
    "team": "0",
    "targetname": "",
    "hx": 480.0,
    "hy": -2152.0,
    "hz": 6616.0
   }
  },
  {
   "type": "Feature",
   "geometry": {
    "type": "Point",
    "coordinates": [
     8.2141647631699e-05,
     -0.00037511352417671955
    ]
   },
   "properties": {
    "classname": "item_healthkit_small",
    "team": "0",
    "targetname": "",
    "hx": 480.0,
    "hy": -2192.0,
    "hz": 6616.0
   }
  },
  {
   "type": "Feature",
   "geometry": {
    "type": "Point",
    "coordinates": [
     3.2856659052552304e-05,
     0.0003395188102037462
    ]
   },
   "properties": {
    "classname": "item_healthkit_small",
    "team": "0",
    "targetname": "",
    "hx": 192.0,
    "hy": 1984.0,
    "hz": 6614.26
   }
  },
  {
   "type": "Feature",
   "geometry": {
    "type": "Point",
    "coordinates": [
     -0.00015038082139979717,
     -0.00023705394992270027
    ]
   },
   "properties": {
    "classname": "item_healthkit_small",
    "team": "0",
    "targetname": "",
    "hx": -878.76,
    "hy": -1385.24,
    "hz": 6616.0
   }
  },
  {
   "type": "Feature",
   "geometry": {
    "type": "Point",
    "coordinates": [
     -6.845137302723434e-06,
     -0.00046820739149064995
    ]
   },
   "properties": {
    "classname": "item_healthkit_medium",
    "team": "0",
    "targetname": "",
    "hx": -40.0,
    "hy": -2736.0,
    "hz": 6872.0
   }
  },
  {
   "type": "Feature",
   "geometry": {
    "type": "Point",
    "coordinates": [
     -0.00033951881021925337,
     -0.0005476109841995906
    ]
   },
   "properties": {
    "classname": "item_healthkit_medium",
    "team": "0",
    "targetname": "",
    "hx": -1984.0,
    "hy": -3200.0,
    "hz": 6632.0
   }
  },
  {
   "type": "Feature",
   "geometry": {
    "type": "Point",
    "coordinates": [
     -6.845137302728811e-06,
     -0.0004736835013326459
    ]
   },
   "properties": {
    "classname": "item_ammopack_full",
    "team": "0",
    "targetname": "",
    "hx": -40.0,
    "hy": -2768.0,
    "hz": 6872.0
   }
  },
  {
   "type": "Feature",
   "geometry": {
    "type": "Point",
    "coordinates": [
     -0.00011499830668321405,
     -0.0002724364646392963
    ]
   },
   "properties": {
    "classname": "item_healthkit_small",
    "team": "0",
    "targetname": "",
    "hx": -672.0,
    "hy": -1592.0,
    "hz": 6936.0
   }
  },
  {
   "type": "Feature",
   "geometry": {
    "type": "Point",
    "coordinates": [
     -0.0003230904806783786,
     -0.00011226025176091607
    ]
   },
   "properties": {
    "classname": "item_healthkit_small",
    "team": "0",
    "targetname": "",
    "hx": -1888.0,
    "hy": -656.0,
    "hz": 6744.0
   }
  },
  {
   "type": "Feature",
   "geometry": {
    "type": "Point",
    "coordinates": [
     -0.00025874619003718767,
     -0.00027038292344854783
    ]
   },
   "properties": {
    "classname": "item_healthkit_small",
    "team": "0",
    "targetname": "",
    "hx": -1512.0,
    "hy": -1580.0,
    "hz": 6936.0
   }
  },
  {
   "type": "Feature",
   "geometry": {
    "type": "Point",
    "coordinates": [
     -0.0003230904806783196,
     -0.00010678414191892016
    ]
   },
   "properties": {
    "classname": "item_ammopack_small",
    "team": "0",
    "targetname": "",
    "hx": -1888.0,
    "hy": -624.0,
    "hz": 6744.0
   }
  },
  {
   "type": "Feature",
   "geometry": {
    "type": "Point",
    "coordinates": [
     -0.0003559471397297364,
     -6.845137302494882e-06
    ]
   },
   "properties": {
    "classname": "item_ammopack_small",
    "team": "0",
    "targetname": "",
    "hx": -2080.0,
    "hy": -40.0,
    "hz": 6742.26
   }
  },
  {
   "type": "Feature",
   "geometry": {
    "type": "Point",
    "coordinates": [
     -0.0003559471397297462,
     -1.5059302065488742e-05
    ]
   },
   "properties": {
    "classname": "item_healthkit_small",
    "team": "0",
    "targetname": "",
    "hx": -2080.0,
    "hy": -88.0,
    "hz": 6742.26
   }
  },
  {
   "type": "Feature",
   "geometry": {
    "type": "Point",
    "coordinates": [
     -0.00014785496573392254,
     -3.833276889397134e-05
    ]
   },
   "properties": {
    "classname": "item_ammopack_medium",
    "team": "0",
    "targetname": "",
    "hx": -864.0,
    "hy": -224.0,
    "hz": 6680.0
   }
  },
  {
   "type": "Feature",
   "geometry": {
    "type": "Point",
    "coordinates": [
     0.0006297526318373067,
     -0.0002847577117837871
    ]
   },
   "properties": {
    "classname": "info_player_teamspawn",
    "team": "3",
    "targetname": "bluespawn_1",
    "hx": 3680.0,
    "hy": -1664.0,
    "hz": 6638.0
   }
  },
  {
   "type": "Feature",
   "geometry": {
    "type": "Point",
    "coordinates": [
     0.0006297526318364353,
     -0.0002683293822577994
    ]
   },
   "properties": {
    "classname": "info_player_teamspawn",
    "team": "3",
    "targetname": "bluespawn_1",
    "hx": 3680.0,
    "hy": -1568.0,
    "hz": 6638.0
   }
  },
  {
   "type": "Feature",
   "geometry": {
    "type": "Point",
    "coordinates": [
     0.0006297526318356155,
     -0.0002519010527318117
    ]
   },
   "properties": {
    "classname": "info_player_teamspawn",
    "team": "3",
    "targetname": "bluespawn_1",
    "hx": 3680.0,
    "hy": -1472.0,
    "hz": 6638.0
   }
  },
  {
   "type": "Feature",
   "geometry": {
    "type": "Point",
    "coordinates": [
     0.000613324302309469,
     -0.0002519010527318117
    ]
   },
   "properties": {
    "classname": "info_player_teamspawn",
    "team": "3",
    "targetname": "bluespawn_1",
    "hx": 3584.0,
    "hy": -1472.0,
    "hz": 6638.0
   }
  },
  {
   "type": "Feature",
   "geometry": {
    "type": "Point",
    "coordinates": [
     0.0006133243023102674,
     -0.0002683293822577994
    ]
   },
   "properties": {
    "classname": "info_player_teamspawn",
    "team": "3",
    "targetname": "bluespawn_1",
    "hx": 3584.0,
    "hy": -1568.0,
    "hz": 6638.0
   }
  },
  {
   "type": "Feature",
   "geometry": {
    "type": "Point",
    "coordinates": [
     0.0006133243023111161,
     -0.0002847577117837871
    ]
   },
   "properties": {
    "classname": "info_player_teamspawn",
    "team": "3",
    "targetname": "bluespawn_1",
    "hx": 3584.0,
    "hy": -1664.0,
    "hz": 6638.0
   }
  },
  {
   "type": "Feature",
   "geometry": {
    "type": "Point",
    "coordinates": [
     0.0005968959727833225,
     -0.0002519010527318117
    ]
   },
   "properties": {
    "classname": "info_player_teamspawn",
    "team": "3",
    "targetname": "bluespawn_1",
    "hx": 3488.0,
    "hy": -1472.0,
    "hz": 6638.0
   }
  },
  {
   "type": "Feature",
   "geometry": {
    "type": "Point",
    "coordinates": [
     0.0005968959727840994,
     -0.0002683293822577994
    ]
   },
   "properties": {
    "classname": "info_player_teamspawn",
    "team": "3",
    "targetname": "bluespawn_1",
    "hx": 3488.0,
    "hy": -1568.0,
    "hz": 6638.0
   }
  },
  {
   "type": "Feature",
   "geometry": {
    "type": "Point",
    "coordinates": [
     0.0005968959727849255,
     -0.0002847577117837871
    ]
   },
   "properties": {
    "classname": "info_player_teamspawn",
    "team": "3",
    "targetname": "bluespawn_1",
    "hx": 3488.0,
    "hy": -1664.0,
    "hz": 6638.0
   }
  },
  {
   "type": "Feature",
   "geometry": {
    "type": "Point",
    "coordinates": [
     0.000580467643258735,
     -0.0002847577117837871
    ]
   },
   "properties": {
    "classname": "info_player_teamspawn",
    "team": "3",
    "targetname": "bluespawn_1",
    "hx": 3392.0,
    "hy": -1664.0,
    "hz": 6638.0
   }
  },
  {
   "type": "Feature",
   "geometry": {
    "type": "Point",
    "coordinates": [
     0.0005804676432579317,
     -0.0002683293822577994
    ]
   },
   "properties": {
    "classname": "info_player_teamspawn",
    "team": "3",
    "targetname": "bluespawn_1",
    "hx": 3392.0,
    "hy": -1568.0,
    "hz": 6638.0
   }
  },
  {
   "type": "Feature",
   "geometry": {
    "type": "Point",
    "coordinates": [
     0.0005804676432571761,
     -0.0002519010527318117
    ]
   },
   "properties": {
    "classname": "info_player_teamspawn",
    "team": "3",
    "targetname": "bluespawn_1",
    "hx": 3392.0,
    "hy": -1472.0,
    "hz": 6638.0
   }
  },
  {
   "type": "Feature",
   "geometry": {
    "type": "Point",
    "coordinates": [
     0.0006133243023087211,
     -0.00023547272320582397
    ]
   },
   "properties": {
    "classname": "info_player_teamspawn",
    "team": "3",
    "targetname": "bluespawn_1",
    "hx": 3584.0,
    "hy": -1376.0,
    "hz": 6638.0
   }
  },
  {
   "type": "Feature",
   "geometry": {
    "type": "Point",
    "coordinates": [
     0.0006297526318341313,
     -0.00021904439367983623
    ]
   },
   "properties": {
    "classname": "info_player_teamspawn",
    "team": "3",
    "targetname": "bluespawn_1",
    "hx": 3680.0,
    "hy": -1280.0,
    "hz": 6638.0
   }
  },
  {
   "type": "Feature",
   "geometry": {
    "type": "Point",
    "coordinates": [
     0.0006133243023080235,
     -0.00021904439367983623
    ]
   },
   "properties": {
    "classname": "info_player_teamspawn",
    "team": "3",
    "targetname": "bluespawn_1",
    "hx": 3584.0,
    "hy": -1280.0,
    "hz": 6638.0
   }
  },
  {
   "type": "Feature",
   "geometry": {
    "type": "Point",
    "coordinates": [
     0.0006297526318348475,
     -0.00023547272320582397
    ]
   },
   "properties": {
    "classname": "info_player_teamspawn",
    "team": "3",
    "targetname": "bluespawn_1",
    "hx": 3680.0,
    "hy": -1376.0,
    "hz": 6638.0
   }
  },
  {
   "type": "Feature",
   "geometry": {
    "type": "Point",
    "coordinates": [
     6.0237208262588855e-05,
     0.0002628532724158035
    ]
   },
   "properties": {
    "classname": "item_ammopack_medium",
    "team": "0",
    "targetname": "",
    "hx": 352.0,
    "hy": 1536.0,
    "hz": 6742.26
   }
  },
  {
   "type": "Feature",
   "geometry": {
    "type": "Point",
    "coordinates": [
     8.419518882133349e-05,
     0.00022452050352183214
    ]
   },
   "properties": {
    "classname": "item_healthkit_small",
    "team": "0",
    "targetname": "",
    "hx": 492.0,
    "hy": 1312.0,
    "hz": 6742.26
   }
  },
  {
   "type": "Feature",
   "geometry": {
    "type": "Point",
    "coordinates": [
     9.104032612388093e-05,
     0.00022452050352183214
    ]
   },
   "properties": {
    "classname": "item_ammopack_medium",
    "team": "0",
    "targetname": "",
    "hx": 532.0,
    "hy": 1312.0,
    "hz": 6742.26
   }
  },
  {
   "type": "Feature",
   "geometry": {
    "type": "Point",
    "coordinates": [
     -0.0003094002060798924,
     0.00038880379878170935
    ]
   },
   "properties": {
    "classname": "item_ammopack_medium",
    "team": "0",
    "targetname": "",
    "hx": -1808.0,
    "hy": 2272.0,
    "hz": 6808.26
   }
  },
  {
   "type": "Feature",
   "geometry": {
    "type": "Point",
    "coordinates": [
     3.0118604131590408e-05,
     0.0003655303319532267
    ]
   },
   "properties": {
    "classname": "item_healthkit_small",
    "team": "0",
    "targetname": "",
    "hx": 176.0,
    "hy": 2136.0,
    "hz": 6870.0
   }
  },
  {
   "type": "Feature",
   "geometry": {
    "type": "Point",
    "coordinates": [
     -8.077262017192024e-05,
     0.0004490410070436643
    ]
   },
   "properties": {
    "classname": "item_healthkit_small",
    "team": "0",
    "targetname": "",
    "hx": -472.0,
    "hy": 2624.0,
    "hz": 6744.0
   }
  },
  {
   "type": "Feature",
   "geometry": {
    "type": "Point",
    "coordinates": [
     -8.07726201719811e-05,
     0.0004545171168856602
    ]
   },
   "properties": {
    "classname": "item_ammopack_small",
    "team": "0",
    "targetname": "",
    "hx": -472.0,
    "hy": 2656.0,
    "hz": 6744.0
   }
  }
 ]
}
