{
 "type": "FeatureCollection",
 "note": "pseudo-WGS84 via crs.local_to_wgs84 ((0,0)m maps to (0,0)deg); viewing only, not survey",
 "features": [
  {
   "type": "Feature",
   "geometry": {
    "type": "Point",
    "coordinates": [
     0.0005257065450797913,
     -0.0017605693142016838
    ]
   },
   "properties": {
    "classname": "info_player_teamspawn",
    "team": "2",
    "targetname": "forward_spawn_red",
    "hx": 3072.0,
    "hy": -10288.0,
    "hz": 225.0
   }
  },
  {
   "type": "Feature",
   "geometry": {
    "type": "Point",
    "coordinates": [
     0.0005120162704683385,
     -0.0017605693142016838
    ]
   },
   "properties": {
    "classname": "info_player_teamspawn",
    "team": "2",
    "targetname": "forward_spawn_red",
    "hx": 2992.0,
    "hy": -10288.0,
    "hz": 225.0
   }
  },
  {
   "type": "Feature",
   "geometry": {
    "type": "Point",
    "coordinates": [
     0.0004983259958568855,
     -0.0017605693142016838
    ]
   },
   "properties": {
    "classname": "info_player_teamspawn",
    "team": "2",
    "targetname": "forward_spawn_red",
    "hx": 2912.0,
    "hy": -10288.0,
    "hz": 225.0
   }
  },
  {
   "type": "Feature",
   "geometry": {
    "type": "Point",
    "coordinates": [
     0.00048737377616772323,
     -0.0017605693142016838
    ]
   },
   "properties": {
    "classname": "info_player_teamspawn",
    "team": "2",
    "targetname": "forward_spawn_red",
    "hx": 2848.0,
    "hy": -10288.0,
    "hz": 225.0
   }
  },
  {
   "type": "Feature",
   "geometry": {
    "type": "Point",
    "coordinates": [
     0.00048737377616486945,
     -0.0017496170945176918
    ]
   },
   "properties": {
    "classname": "info_player_teamspawn",
    "team": "2",
    "targetname": "forward_spawn_red",
    "hx": 2848.0,
    "hy": -10224.0,
    "hz": 225.0
   }
  },
  {
   "type": "Feature",
   "geometry": {
    "type": "Point",
    "coordinates": [
     0.0004983259958539676,
     -0.0017496170945176918
    ]
   },
   "properties": {
    "classname": "info_player_teamspawn",
    "team": "2",
    "targetname": "forward_spawn_red",
    "hx": 2912.0,
    "hy": -10224.0,
    "hz": 225.0
   }
  },
  {
   "type": "Feature",
   "geometry": {
    "type": "Point",
    "coordinates": [
     0.0005120162704653403,
     -0.0017496170945176918
    ]
   },
   "properties": {
    "classname": "info_player_teamspawn",
    "team": "2",
    "targetname": "forward_spawn_red",
    "hx": 2992.0,
    "hy": -10224.0,
    "hz": 225.0
   }
  },
  {
   "type": "Feature",
   "geometry": {
    "type": "Point",
    "coordinates": [
     0.0005257065450767132,
     -0.0017496170945176918
    ]
   },
   "properties": {
    "classname": "info_player_teamspawn",
    "team": "2",
    "targetname": "forward_spawn_red",
    "hx": 3072.0,
    "hy": -10224.0,
    "hz": 225.0
   }
  },
  {
   "type": "Feature",
   "geometry": {
    "type": "Point",
    "coordinates": [
     0.0005257065450736541,
     -0.0017386648748337
    ]
   },
   "properties": {
    "classname": "info_player_teamspawn",
    "team": "2",
    "targetname": "forward_spawn_red",
    "hx": 3072.0,
    "hy": -10160.0,
    "hz": 225.0
   }
  },
  {
   "type": "Feature",
   "geometry": {
    "type": "Point",
    "coordinates": [
     0.0005120162704623611,
     -0.0017386648748337
    ]
   },
   "properties": {
    "classname": "info_player_teamspawn",
    "team": "2",
    "targetname": "forward_spawn_red",
    "hx": 2992.0,
    "hy": -10160.0,
    "hz": 225.0
   }
  },
  {
   "type": "Feature",
   "geometry": {
    "type": "Point",
    "coordinates": [
     0.0004983259958510679,
     -0.0017386648748337
    ]
   },
   "properties": {
    "classname": "info_player_teamspawn",
    "team": "2",
    "targetname": "forward_spawn_red",
    "hx": 2912.0,
    "hy": -10160.0,
    "hz": 225.0
   }
  },
  {
   "type": "Feature",
   "geometry": {
    "type": "Point",
    "coordinates": [
     0.0004873737761620335,
     -0.0017386648748337
    ]
   },
   "properties": {
    "classname": "info_player_teamspawn",
    "team": "2",
    "targetname": "forward_spawn_red",
    "hx": 2848.0,
    "hy": -10160.0,
    "hz": 225.0
   }
  },
  {
   "type": "Feature",
   "geometry": {
    "type": "Point",
    "coordinates": [
     0.0005257065450797913,
     -0.0017605693142016838
    ]
   },
   "properties": {
    "classname": "info_player_teamspawn",
    "team": "3",
    "targetname": "forward_spawn_blue",
    "hx": 3072.0,
    "hy": -10288.0,
    "hz": 233.0
   }
  },
  {
   "type": "Feature",
   "geometry": {
    "type": "Point",
    "coordinates": [
     0.0005120162704683385,
     -0.0017605693142016838
    ]
   },
   "properties": {
    "classname": "info_player_teamspawn",
    "team": "3",
    "targetname": "forward_spawn_blue",
    "hx": 2992.0,
    "hy": -10288.0,
    "hz": 233.0
   }
  },
  {
   "type": "Feature",
   "geometry": {
    "type": "Point",
    "coordinates": [
     0.0004983259958568855,
     -0.0017605693142016838
    ]
   },
   "properties": {
    "classname": "info_player_teamspawn",
    "team": "3",
    "targetname": "forward_spawn_blue",
    "hx": 2912.0,
    "hy": -10288.0,
    "hz": 233.0
   }
  },
  {
   "type": "Feature",
   "geometry": {
    "type": "Point",
    "coordinates": [
     0.00048737377616772323,
     -0.0017605693142016838
    ]
   },
   "properties": {
    "classname": "info_player_teamspawn",
    "team": "3",
    "targetname": "forward_spawn_blue",
    "hx": 2848.0,
    "hy": -10288.0,
    "hz": 233.0
   }
  },
  {
   "type": "Feature",
   "geometry": {
    "type": "Point",
    "coordinates": [
     0.00048737377616486945,
     -0.0017496170945176918
    ]
   },
   "properties": {
    "classname": "info_player_teamspawn",
    "team": "3",
    "targetname": "forward_spawn_blue",
    "hx": 2848.0,
    "hy": -10224.0,
    "hz": 233.0
   }
  },
  {
   "type": "Feature",
   "geometry": {
    "type": "Point",
    "coordinates": [
     0.0004983259958539676,
     -0.0017496170945176918
    ]
   },
   "properties": {
    "classname": "info_player_teamspawn",
    "team": "3",
    "targetname": "forward_spawn_blue",
    "hx": 2912.0,
    "hy": -10224.0,
    "hz": 233.0
   }
  },
  {
   "type": "Feature",
   "geometry": {
    "type": "Point",
    "coordinates": [
     0.0005120162704653403,
     -0.0017496170945176918
    ]
   },
   "properties": {
    "classname": "info_player_teamspawn",
    "team": "3",
    "targetname": "forward_spawn_blue",
    "hx": 2992.0,
    "hy": -10224.0,
    "hz": 233.0
   }
  },
  {
   "type": "Feature",
   "geometry": {
    "type": "Point",
    "coordinates": [
     0.0005257065450767132,
     -0.0017496170945176918
    ]
   },
   "properties": {
    "classname": "info_player_teamspawn",
    "team": "3",
    "targetname": "forward_spawn_blue",
    "hx": 3072.0,
    "hy": -10224.0,
    "hz": 233.0
   }
  },
  {
   "type": "Feature",
   "geometry": {
    "type": "Point",
    "coordinates": [
     0.0005257065450736541,
     -0.0017386648748337
    ]
   },
   "properties": {
    "classname": "info_player_teamspawn",
    "team": "3",
    "targetname": "forward_spawn_blue",
    "hx": 3072.0,
    "hy": -10160.0,
    "hz": 233.0
   }
  },
  {
   "type": "Feature",
   "geometry": {
    "type": "Point",
    "coordinates": [
     0.0005120162704623611,
     -0.0017386648748337
    ]
   },
   "properties": {
    "classname": "info_player_teamspawn",
    "team": "3",
    "targetname": "forward_spawn_blue",
    "hx": 2992.0,
    "hy": -10160.0,
    "hz": 233.0
   }
  },
  {
   "type": "Feature",
   "geometry": {
    "type": "Point",
    "coordinates": [
     0.0004983259958510679,
     -0.0017386648748337
    ]
   },
   "properties": {
    "classname": "info_player_teamspawn",
    "team": "3",
    "targetname": "forward_spawn_blue",
    "hx": 2912.0,
    "hy": -10160.0,
    "hz": 233.0
   }
  },
  {
   "type": "Feature",
   "geometry": {
    "type": "Point",
    "coordinates": [
     0.0004873737761620335,
     -0.0017386648748337
    ]
   },
   "properties": {
    "classname": "info_player_teamspawn",
    "team": "3",
    "targetname": "forward_spawn_blue",
    "hx": 2848.0,
    "hy": -10160.0,
    "hz": 233.0
   }
  },
  {
   "type": "Feature",
   "geometry": {
    "type": "Point",
    "coordinates": [
     0.0009966519913679384,
     -0.0009062961788503225
    ]
   },
   "properties": {
    "classname": "info_player_teamspawn",
    "team": "2",
    "targetname": "red_spawn_2",
    "hx": 5824.0,
    "hy": -5296.0,
    "hz": 736.0
   }
  },
  {
   "type": "Feature",
   "geometry": {
    "type": "Point",
    "coordinates": [
     0.0009966519913641998,
     -0.0008926059042453327
    ]
   },
   "properties": {
    "classname": "info_player_teamspawn",
    "team": "2",
    "targetname": "red_spawn_2",
    "hx": 5824.0,
    "hy": -5216.0,
    "hz": 736.0
   }
  },
  {
   "type": "Feature",
   "geometry": {
    "type": "Point",
    "coordinates": [
     0.0009966519913605183,
     -0.0008789156296403429
    ]
   },
   "properties": {
    "classname": "info_player_teamspawn",
    "team": "2",
    "targetname": "red_spawn_2",
    "hx": 5824.0,
    "hy": -5136.0,
    "hz": 736.0
   }
  },
  {
   "type": "Feature",
   "geometry": {
    "type": "Point",
    "coordinates": [
     0.0009966519913533261,
     -0.0008515350804303634
    ]
   },
   "properties": {
    "classname": "info_player_teamspawn",
    "team": "2",
    "targetname": "red_spawn_2",
    "hx": 5824.0,
    "hy": -4976.0,
    "hz": 736.0
   }
  },
  {
   "type": "Feature",
   "geometry": {
    "type": "Point",
    "coordinates": [
     0.0009966519913568938,
     -0.0008652253550353531
    ]
   },
   "properties": {
    "classname": "info_player_teamspawn",
    "team": "2",
    "targetname": "red_spawn_2",
    "hx": 5824.0,
    "hy": -5056.0,
    "hz": 736.0
   }
  },
  {
   "type": "Feature",
   "geometry": {
    "type": "Point",
    "coordinates": [
     0.0009802236618290329,
     -0.0008652253550353531
    ]
   },
   "properties": {
    "classname": "info_player_teamspawn",
    "team": "2",
    "targetname": "red_spawn_2",
    "hx": 5728.0,
    "hy": -5056.0,
    "hz": 736.0
   }
  },
  {
   "type": "Feature",
   "geometry": {
    "type": "Point",
    "coordinates": [
     0.000980223661825524,
     -0.0008515350804303634
    ]
   },
   "properties": {
    "classname": "info_player_teamspawn",
    "team": "2",
    "targetname": "red_spawn_2",
    "hx": 5728.0,
    "hy": -4976.0,
    "hz": 736.0
   }
  },
  {
   "type": "Feature",
   "geometry": {
    "type": "Point",
    "coordinates": [
     0.0009802236618325977,
     -0.0008789156296403429
    ]
   },
   "properties": {
    "classname": "info_player_teamspawn",
    "team": "2",
    "targetname": "red_spawn_2",
    "hx": 5728.0,
    "hy": -5136.0,
    "hz": 736.0
   }
  },
  {
   "type": "Feature",
   "geometry": {
    "type": "Point",
    "coordinates": [
     0.0009802236618398955,
     -0.0009062961788503225
    ]
   },
   "properties": {
    "classname": "info_player_teamspawn",
    "team": "2",
    "targetname": "red_spawn_2",
    "hx": 5728.0,
    "hy": -5296.0,
    "hz": 736.0
   }
  },
  {
   "type": "Feature",
   "geometry": {
    "type": "Point",
    "coordinates": [
     0.0009802236618362185,
     -0.0008926059042453327
    ]
   },
   "properties": {
    "classname": "info_player_teamspawn",
    "team": "2",
    "targetname": "red_spawn_2",
    "hx": 5728.0,
    "hy": -5216.0,
    "hz": 736.0
   }
  },
  {
   "type": "Feature",
   "geometry": {
    "type": "Point",
    "coordinates": [
     0.0009637953323118524,
     -0.0009062961788503225
    ]
   },
   "properties": {
    "classname": "info_player_teamspawn",
    "team": "2",
    "targetname": "red_spawn_2",
    "hx": 5632.0,
    "hy": -5296.0,
    "hz": 736.0
   }
  },
  {
   "type": "Feature",
   "geometry": {
    "type": "Point",
    "coordinates": [
     0.0009637953323082372,
     -0.0008926059042453327
    ]
   },
   "properties": {
    "classname": "info_player_teamspawn",
    "team": "2",
    "targetname": "red_spawn_2",
    "hx": 5632.0,
    "hy": -5216.0,
    "hz": 736.0
   }
  },
  {
   "type": "Feature",
   "geometry": {
    "type": "Point",
    "coordinates": [
     0.000963795332304677,
     -0.0008789156296403429
    ]
   },
   "properties": {
    "classname": "info_player_teamspawn",
    "team": "2",
    "targetname": "red_spawn_2",
    "hx": 5632.0,
    "hy": -5136.0,
    "hz": 736.0
   }
  },
  {
   "type": "Feature",
   "geometry": {
    "type": "Point",
    "coordinates": [
     0.000963795332301172,
     -0.0008652253550353531
    ]
   },
   "properties": {
    "classname": "info_player_teamspawn",
    "team": "2",
    "targetname": "red_spawn_2",
    "hx": 5632.0,
    "hy": -5056.0,
    "hz": 736.0
   }
  },
  {
   "type": "Feature",
   "geometry": {
    "type": "Point",
    "coordinates": [
     0.0009637953322977219,
     -0.0008515350804303634
    ]
   },
   "properties": {
    "classname": "info_player_teamspawn",
    "team": "2",
    "targetname": "red_spawn_2",
    "hx": 5632.0,
    "hy": -4976.0,
    "hz": 736.0
   }
  },
  {
   "type": "Feature",
   "geometry": {
    "type": "Point",
    "coordinates": [
     2.6011521756423882e-05,
     -0.0013238495543025103
    ]
   },
   "properties": {
    "classname": "info_player_teamspawn",
    "team": "3",
    "targetname": "blue_spawn2",
    "hx": 152.0,
    "hy": -7736.0,
    "hz": 72.0
   }
  },
  {
   "type": "Feature",
   "geometry": {
    "type": "Point",
    "coordinates": [
     2.738054921741735e-05,
     -0.0013354862877167516
    ]
   },
   "properties": {
    "classname": "info_player_teamspawn",
    "team": "3",
    "targetname": "blue_spawn2",
    "hx": 160.0,
    "hy": -7804.0,
    "hz": 72.0
   }
  },
  {
   "type": "Feature",
   "geometry": {
    "type": "Point",
    "coordinates": [
     3.080311786973233e-05,
     -0.0013464385074007433
    ]
   },
   "properties": {
    "classname": "info_player_teamspawn",
    "team": "3",
    "targetname": "blue_spawn2",
    "hx": 180.0,
    "hy": -7868.0,
    "hz": 72.0
   }
  },
  {
   "type": "Feature",
   "geometry": {
    "type": "Point",
    "coordinates": [
     0.0005589054608884852,
     -0.001281409703027042
    ]
   },
   "properties": {
    "classname": "team_control_point",
    "team": "",
    "targetname": "cp_three",
    "hx": 3266.0,
    "hy": -7488.0,
    "hz": 344.325
   }
  },
  {
   "type": "Feature",
   "geometry": {
    "type": "Point",
    "coordinates": [
     0.0005777295885990871,
     -0.001746879039596694
    ]
   },
   "properties": {
    "classname": "info_player_teamspawn",
    "team": "3",
    "targetname": "forward_spawn_blue",
    "hx": 3376.0,
    "hy": -10208.0,
    "hz": 225.0
   }
  },
  {
   "type": "Feature",
   "geometry": {
    "type": "Point",
    "coordinates": [
     0.0005585632041399481,
     -0.0017359268199127022
    ]
   },
   "properties": {
    "classname": "info_player_teamspawn",
    "team": "3",
    "targetname": "forward_spawn_blue",
    "hx": 3264.0,
    "hy": -10144.0,
    "hz": 233.0
   }
  },
  {
   "type": "Feature",
   "geometry": {
    "type": "Point",
    "coordinates": [
     0.0005654083414492816,
     -0.001748248067057193
    ]
   },
   "properties": {
    "classname": "info_player_teamspawn",
    "team": "3",
    "targetname": "forward_spawn_blue",
    "hx": 3304.0,
    "hy": -10216.0,
    "hz": 233.0
   }
  },
  {
   "type": "Feature",
   "geometry": {
    "type": "Point",
    "coordinates": [
     -0.0001505930206743004,
     -0.0009199864534553122
    ]
   },
   "properties": {
    "classname": "info_player_teamspawn",
    "team": "3",
    "targetname": "blue_spawn1",
    "hx": -880.0,
    "hy": -5376.0,
    "hz": 16.0046
   }
  },
  {
   "type": "Feature",
   "geometry": {
    "type": "Point",
    "coordinates": [
     0.0005503490393696111,
     -0.0017236055727682113
    ]
   },
   "properties": {
    "classname": "info_player_teamspawn",
    "team": "3",
    "targetname": "forward_spawn_blue",
    "hx": 3216.0,
    "hy": -10072.0,
    "hz": 233.0
   }
  },
  {
   "type": "Feature",
   "geometry": {
    "type": "Point",
    "coordinates": [
     0.00055856320413312,
     -0.0017126533530842196
    ]
   },
   "properties": {
    "classname": "info_player_teamspawn",
    "team": "3",
    "targetname": "forward_spawn_blue",
    "hx": 3264.0,
    "hy": -10008.0,
    "hz": 233.0
   }
  },
  {
   "type": "Feature",
   "geometry": {
    "type": "Point",
    "coordinates": [
     -0.0001286885813034931,
     -0.0009199864534553122
    ]
   },
   "properties": {
    "classname": "info_player_teamspawn",
    "team": "3",
    "targetname": "blue_spawn1",
    "hx": -752.0,
    "hy": -5376.0,
    "hz": 16.0046
   }
  },
  {
   "type": "Feature",
   "geometry": {
    "type": "Point",
    "coordinates": [
     -0.0001177363616177302,
     -0.0009090342337713204
    ]
   },
   "properties": {
    "classname": "info_player_teamspawn",
    "team": "3",
    "targetname": "blue_spawn1",
    "hx": -688.0,
    "hy": -5312.0,
    "hz": 16.0046
   }
  },
  {
   "type": "Feature",
   "geometry": {
    "type": "Point",
    "coordinates": [
     0.000551718066839127,
     -0.0017523551494386899
    ]
   },
   "properties": {
    "classname": "info_player_teamspawn",
    "team": "3",
    "targetname": "forward_spawn_blue",
    "hx": 3224.0,
    "hy": -10240.0,
    "hz": 233.0
   }
  },
  {
   "type": "Feature",
   "geometry": {
    "type": "Point",
    "coordinates": [
     -0.00013964080098847068,
     -0.0009090342337713204
    ]
   },
   "properties": {
    "classname": "info_player_teamspawn",
    "team": "3",
    "targetname": "blue_spawn1",
    "hx": -816.0,
    "hy": -5312.0,
    "hz": 16.0046
   }
  },
  {
   "type": "Feature",
   "geometry": {
    "type": "Point",
    "coordinates": [
     -0.00016154524035921118,
     -0.0009090342337713204
    ]
   },
   "properties": {
    "classname": "info_player_teamspawn",
    "team": "3",
    "targetname": "blue_spawn1",
    "hx": -944.0,
    "hy": -5312.0,
    "hz": 16.0046
   }
  },
  {
   "type": "Feature",
   "geometry": {
    "type": "Point",
    "coordinates": [
     -0.00015059302067361327,
     -0.0009035581239293244
    ]
   },
   "properties": {
    "classname": "info_player_teamspawn",
    "team": "3",
    "targetname": "blue_spawn1",
    "hx": -880.0,
    "hy": -5280.0,
    "hz": 16.0046
   }
  },
  {
   "type": "Feature",
   "geometry": {
    "type": "Point",
    "coordinates": [
     -0.0001286885813029059,
     -0.0009035581239293244
    ]
   },
   "properties": {
    "classname": "info_player_teamspawn",
    "team": "3",
    "targetname": "blue_spawn1",
    "hx": -752.0,
    "hy": -5280.0,
    "hz": 16.0046
   }
  },
  {
   "type": "Feature",
   "geometry": {
    "type": "Point",
    "coordinates": [
     2.6011521756295238e-05,
     -0.0013115283071580195
    ]
   },
   "properties": {
    "classname": "info_player_teamspawn",
    "team": "3",
    "targetname": "blue_spawn2",
    "hx": 152.0,
    "hy": -7664.0,
    "hz": 72.0
   }
  },
  {
   "type": "Feature",
   "geometry": {
    "type": "Point",
    "coordinates": [
     3.833276890401404e-05,
     -0.0013115283071580195
    ]
   },
   "properties": {
    "classname": "info_player_teamspawn",
    "team": "3",
    "targetname": "blue_spawn2",
    "hx": 224.0,
    "hy": -7664.0,
    "hz": 72.0
   }
  },
  {
   "type": "Feature",
   "geometry": {
    "type": "Point",
    "coordinates": [
     3.833276890420361e-05,
     -0.0013238495543025103
    ]
   },
   "properties": {
    "classname": "info_player_teamspawn",
    "team": "3",
    "targetname": "blue_spawn2",
    "hx": 224.0,
    "hy": -7736.0,
    "hz": 72.0
   }
  },
  {
   "type": "Feature",
   "geometry": {
    "type": "Point",
    "coordinates": [
     4.10708238261146e-05,
     -0.001334801773986502
    ]
   },
   "properties": {
    "classname": "info_player_teamspawn",
    "team": "3",
    "targetname": "blue_spawn2",
    "hx": 240.0,
    "hy": -7800.0,
    "hz": 72.0
   }
  },
  {
   "type": "Feature",
   "geometry": {
    "type": "Point",
    "coordinates": [
     0.000787190789880398,
     -0.0008830227120218398
    ]
   },
   "properties": {
    "classname": "team_control_point",
    "team": "",
    "targetname": "cp_four",
    "hx": 4600.0,
    "hy": -5160.0,
    "hz": 560.0
   }
  },
  {
   "type": "Feature",
   "geometry": {
    "type": "Point",
    "coordinates": [
     -0.00011773636161737527,
     -0.0008980820140873286
    ]
   },
   "properties": {
    "classname": "info_player_teamspawn",
    "team": "3",
    "targetname": "blue_spawn1",
    "hx": -688.0,
    "hy": -5248.0,
    "hz": 16.0046
   }
  },
  {
   "type": "Feature",
   "geometry": {
    "type": "Point",
    "coordinates": [
     4.449339247848976e-05,
     -0.0013457539936704939
    ]
   },
   "properties": {
    "classname": "info_player_teamspawn",
    "team": "3",
    "targetname": "blue_spawn2",
    "hx": 260.0,
    "hy": -7864.0,
    "hz": 72.0
   }
  },
  {
   "type": "Feature",
   "geometry": {
    "type": "Point",
    "coordinates": [
     -0.00013964080098804974,
     -0.0008980820140873286
    ]
   },
   "properties": {
    "classname": "info_player_teamspawn",
    "team": "3",
    "targetname": "blue_spawn1",
    "hx": -816.0,
    "hy": -5248.0,
    "hz": 16.0046
   }
  },
  {
   "type": "Feature",
   "geometry": {
    "type": "Point",
    "coordinates": [
     -0.0001615452403587242,
     -0.0008980820140873286
    ]
   },
   "properties": {
    "classname": "info_player_teamspawn",
    "team": "3",
    "targetname": "blue_spawn1",
    "hx": -944.0,
    "hy": -5248.0,
    "hz": 16.0046
   }
  },
  {
   "type": "Feature",
   "geometry": {
    "type": "Point",
    "coordinates": [
     -0.00011773636161845293,
     -0.000930938673139304
    ]
   },
   "properties": {
    "classname": "info_player_teamspawn",
    "team": "3",
    "targetname": "blue_spawn1",
    "hx": -688.0,
    "hy": -5440.0,
    "hz": 16.0046
   }
  },
  {
   "type": "Feature",
   "geometry": {
    "type": "Point",
    "coordinates": [
     0.0002765435470486471,
     -0.0008132023115363921
    ]
   },
   "properties": {
    "classname": "item_ammopack_medium",
    "team": "0",
    "targetname": "",
    "hx": 1616.0,
    "hy": -4752.0,
    "hz": -54.0
   }
  },
  {
   "type": "Feature",
   "geometry": {
    "type": "Point",
    "coordinates": [
     0.00027412207972827494,
     -0.0008224175776298758
    ]
   },
   "properties": {
    "classname": "item_healthkit_small",
    "team": "0",
    "targetname": "",
    "hx": 1601.85,
    "hy": -4805.85,
    "hz": -54.0
   }
  },
  {
   "type": "Feature",
   "geometry": {
    "type": "Point",
    "coordinates": [
     0.00028749576676661805,
     -0.0011883158357131115
    ]
   },
   "properties": {
    "classname": "item_ammopack_medium",
    "team": "0",
    "targetname": "",
    "hx": 1680.0,
    "hy": -6944.0,
    "hz": 72.0
   }
  },
  {
   "type": "Feature",
   "geometry": {
    "type": "Point",
    "coordinates": [
     0.00027654354708027065,
     -0.0011883158357131115
    ]
   },
   "properties": {
    "classname": "item_healthkit_medium",
    "team": "0",
    "targetname": "",
    "hx": 1616.0,
    "hy": -6944.0,
    "hz": 72.0
   }
  },
  {
   "type": "Feature",
   "geometry": {
    "type": "Point",
    "coordinates": [
     -3.1487631596973166e-05,
     -0.0010705794741101996
    ]
   },
   "properties": {
    "classname": "item_ammopack_full",
    "team": "0",
    "targetname": "",
    "hx": -184.0,
    "hy": -6256.0,
    "hz": -20.0
   }
  },
  {
   "type": "Feature",
   "geometry": {
    "type": "Point",
    "coordinates": [
     -3.148763159707202e-05,
     -0.0010801626663336924
    ]
   },
   "properties": {
    "classname": "item_healthkit_medium",
    "team": "0",
    "targetname": "",
    "hx": -184.0,
    "hy": -6312.0,
    "hz": -20.0
   }
  },
  {
   "type": "Feature",
   "geometry": {
    "type": "Point",
    "coordinates": [
     9.856997717761747e-05,
     -0.0012020061103181013
    ]
   },
   "properties": {
    "classname": "item_ammopack_medium",
    "team": "0",
    "targetname": "",
    "hx": 576.0,
    "hy": -7024.0,
    "hz": -148.0
   }
  },
  {
   "type": "Feature",
   "geometry": {
    "type": "Point",
    "coordinates": [
     0.00010678414194241892,
     -0.0012020061103181013
    ]
   },
   "properties": {
    "classname": "item_healthkit_small",
    "team": "0",
    "targetname": "",
    "hx": 624.0,
    "hy": -7024.0,
    "hz": -148.0
   }
  },
  {
   "type": "Feature",
   "geometry": {
    "type": "Point",
    "coordinates": [
     -0.00012868858130429245,
     -0.0009418908928232959
    ]
   },
   "properties": {
    "classname": "info_player_teamspawn",
    "team": "3",
    "targetname": "blue_spawn1",
    "hx": -752.0,
    "hy": -5504.0,
    "hz": 16.0046
   }
  },
  {
   "type": "Feature",
   "geometry": {
    "type": "Point",
    "coordinates": [
     -0.00013964080098932788,
     -0.000930938673139304
    ]
   },
   "properties": {
    "classname": "info_player_teamspawn",
    "team": "3",
    "targetname": "blue_spawn1",
    "hx": -816.0,
    "hy": -5440.0,
    "hz": 16.0046
   }
  },
  {
   "type": "Feature",
   "geometry": {
    "type": "Point",
    "coordinates": [
     -0.00016154524036020285,
     -0.000930938673139304
    ]
   },
   "properties": {
    "classname": "info_player_teamspawn",
    "team": "3",
    "targetname": "blue_spawn1",
    "hx": -944.0,
    "hy": -5440.0,
    "hz": 16.0046
   }
  },
  {
   "type": "Feature",
   "geometry": {
    "type": "Point",
    "coordinates": [
     -0.0001505930206751177,
     -0.0009391528379022978
    ]
   },
   "properties": {
    "classname": "info_player_teamspawn",
    "team": "3",
    "targetname": "blue_spawn1",
    "hx": -880.0,
    "hy": -5488.0,
    "hz": 16.0046
   }
  },
  {
   "type": "Feature",
   "geometry": {
    "type": "Point",
    "coordinates": [
     0.0004435648973365229,
     -0.0014128363392349437
    ]
   },
   "properties": {
    "classname": "item_ammopack_small",
    "team": "0",
    "targetname": "",
    "hx": 2592.0,
    "hy": -8256.0,
    "hz": 152.0
   }
  },
  {
   "type": "Feature",
   "geometry": {
    "type": "Point",
    "coordinates": [
     -0.00015880718543946455,
     -0.0009446289477442938
    ]
   },
   "properties": {
    "classname": "info_player_teamspawn",
    "team": "3",
    "targetname": "blue_spawn1",
    "hx": -928.0,
    "hy": -5520.0,
    "hz": 16.0046
   }
  },
  {
   "type": "Feature",
   "geometry": {
    "type": "Point",
    "coordinates": [
     0.0004435648973386218,
     -0.0014237885589189355
    ]
   },
   "properties": {
    "classname": "item_healthkit_small",
    "team": "0",
    "targetname": "",
    "hx": 2592.0,
    "hy": -8320.0,
    "hz": 152.0
   }
  },
  {
   "type": "Feature",
   "geometry": {
    "type": "Point",
    "coordinates": [
     0.00030224019256051794,
     -0.0015185868654211871
    ]
   },
   "properties": {
    "classname": "item_ammopack_full",
    "team": "0",
    "targetname": "",
    "hx": 1766.16,
    "hy": -8873.96,
    "hz": 276.0
   }
  },
  {
   "type": "Feature",
   "geometry": {
    "type": "Point",
    "coordinates": [
     0.00031281935226565007,
     -0.0015214207522644204
    ]
   },
   "properties": {
    "classname": "item_healthkit_medium",
    "team": "0",
    "targetname": "",
    "hx": 1827.98,
    "hy": -8890.52,
    "hz": 276.0
   }
  },
  {
   "type": "Feature",
   "geometry": {
    "type": "Point",
    "coordinates": [
     0.0004627312817812754,
     -0.0013717655154199745
    ]
   },
   "properties": {
    "classname": "item_ammopack_small",
    "team": "0",
    "targetname": "",
    "hx": 2704.0,
    "hy": -8016.0,
    "hz": 348.0
   }
  },
  {
   "type": "Feature",
   "geometry": {
    "type": "Point",
    "coordinates": [
     0.00046273128178340154,
     -0.0013827177351039663
    ]
   },
   "properties": {
    "classname": "item_healthkit_small",
    "team": "0",
    "targetname": "",
    "hx": 2704.0,
    "hy": -8080.0,
    "hz": 348.0
   }
  },
  {
   "type": "Feature",
   "geometry": {
    "type": "Point",
    "coordinates": [
     0.000795639400698251,
     -0.0012709075511206892
    ]
   },
   "properties": {
    "classname": "item_healthkit_small",
    "team": "0",
    "targetname": "",
    "hx": 4649.37,
    "hy": -7426.63,
    "hz": 420.0
   }
  },
  {
   "type": "Feature",
   "geometry": {
    "type": "Point",
    "coordinates": [
     0.0005076747420034224,
     -0.001197664581983994
    ]
   },
   "properties": {
    "classname": "item_ammopack_medium",
    "team": "0",
    "targetname": "",
    "hx": 2966.63,
    "hy": -6998.63,
    "hz": 532.0
   }
  },
  {
   "type": "Feature",
   "geometry": {
    "type": "Point",
    "coordinates": [
     0.0005154183035800224,
     -0.0012054081435574412
    ]
   },
   "properties": {
    "classname": "item_healthkit_medium",
    "team": "0",
    "targetname": "",
    "hx": 3011.88,
    "hy": -7043.88,
    "hz": 532.0
   }
  },
  {
   "type": "Feature",
   "geometry": {
    "type": "Point",
    "coordinates": [
     0.0006927963464527146,
     -0.0007980745580978784
    ]
   },
   "properties": {
    "classname": "item_ammopack_small",
    "team": "0",
    "targetname": "",
    "hx": 4048.4,
    "hy": -4663.6,
    "hz": 540.0
   }
  },
  {
   "type": "Feature",
   "geometry": {
    "type": "Point",
    "coordinates": [
     0.00068221718675116,
     -0.0008009495157649261
    ]
   },
   "properties": {
    "classname": "item_healthkit_small",
    "team": "0",
    "targetname": "",
    "hx": 3986.58,
    "hy": -4680.4,
    "hz": 532.0
   }
  },
  {
   "type": "Feature",
   "geometry": {
    "type": "Point",
    "coordinates": [
     -0.00013964080098981903,
     -0.0009432599202837948
    ]
   },
   "properties": {
    "classname": "info_player_teamspawn",
    "team": "3",
    "targetname": "blue_spawn1",
    "hx": -816.0,
    "hy": -5512.0,
    "hz": 16.0046
   }
  },
  {
   "type": "Feature",
   "geometry": {
    "type": "Point",
    "coordinates": [
     0.0007146323345136504,
     -0.001106174188083173
    ]
   },
   "properties": {
    "classname": "item_ammopack_medium",
    "team": "0",
    "targetname": "",
    "hx": 4176.0,
    "hy": -6464.0,
    "hz": 476.0
   }
  },
  {
   "type": "Feature",
   "geometry": {
    "type": "Point",
    "coordinates": [
     0.0007255845541996834,
     -0.001106174188083173
    ]
   },
   "properties": {
    "classname": "item_healthkit_medium",
    "team": "0",
    "targetname": "",
    "hx": 4240.0,
    "hy": -6464.0,
    "hz": 476.0
   }
  },
  {
   "type": "Feature",
   "geometry": {
    "type": "Point",
    "coordinates": [
     0.0005749915334965609,
     -0.0009966519912432549
    ]
   },
   "properties": {
    "classname": "item_ammopack_small",
    "team": "0",
    "targetname": "",
    "hx": 3360.0,
    "hy": -5824.0,
    "hz": 476.0
   }
  },
  {
   "type": "Feature",
   "geometry": {
    "type": "Point",
    "coordinates": [
     0.0005859437531822096,
     -0.0009966519912432549
    ]
   },
   "properties": {
    "classname": "item_healthkit_small",
    "team": "0",
    "targetname": "",
    "hx": 3424.0,
    "hy": -5824.0,
    "hz": 476.0
   }
  },
  {
   "type": "Feature",
   "geometry": {
    "type": "Point",
    "coordinates": [
     0.0007077871972873567,
     -0.001393669954787958
    ]
   },
   "properties": {
    "classname": "item_ammopack_small",
    "team": "0",
    "targetname": "",
    "hx": 4136.0,
    "hy": -8144.0,
    "hz": 120.0
   }
  },
  {
   "type": "Feature",
   "geometry": {
    "type": "Point",
    "coordinates": [
     0.0007077871972840787,
     -0.0013827177351039663
    ]
   },
   "properties": {
    "classname": "item_healthkit_small",
    "team": "0",
    "targetname": "",
    "hx": 4136.0,
    "hy": -8080.0,
    "hz": 120.0
   }
  },
  {
   "type": "Feature",
   "geometry": {
    "type": "Point",
    "coordinates": [
     0.0006962873667209323,
     -0.0017128929328898068
    ]
   },
   "properties": {
    "classname": "item_healthkit_small",
    "team": "0",
    "targetname": "",
    "hx": 4068.8,
    "hy": -10009.4,
    "hz": 216.0
   }
  },
  {
   "type": "Feature",
   "geometry": {
    "type": "Point",
    "coordinates": [
     0.0006885420938626562,
     -0.0017211070976528007
    ]
   },
   "properties": {
    "classname": "item_ammopack_medium",
    "team": "0",
    "targetname": "",
    "hx": 4023.54,
    "hy": -10057.4,
    "hz": 220.0
   }
  },
  {
   "type": "Feature",
   "geometry": {
    "type": "Point",
    "coordinates": [
     -0.00011773636161886702,
     -0.0009432599202837948
    ]
   },
   "properties": {
    "classname": "info_player_teamspawn",
    "team": "3",
    "targetname": "blue_spawn1",
    "hx": -688.0,
    "hy": -5512.0,
    "hz": 16.0046
   }
  },
  {
   "type": "Feature",
   "geometry": {
    "type": "Point",
    "coordinates": [
     0.00027654354708220476,
     -0.0012074822201600971
    ]
   },
   "properties": {
    "classname": "item_ammopack_small",
    "team": "0",
    "targetname": "",
    "hx": 1616.0,
    "hy": -7056.0,
    "hz": 428.0
   }
  },
  {
   "type": "Feature",
   "geometry": {
    "type": "Point",
    "coordinates": [
     0.00028749576676862876,
     -0.0012074822201600971
    ]
   },
   "properties": {
    "classname": "item_healthkit_small",
    "team": "0",
    "targetname": "",
    "hx": 1680.0,
    "hy": -7056.0,
    "hz": 428.0
   }
  },
  {
   "type": "Feature",
   "geometry": {
    "type": "Point",
    "coordinates": [
     0.00028475771182187365,
     -0.0009370992967115495
    ]
   },
   "properties": {
    "classname": "item_ammopack_small",
    "team": "0",
    "targetname": "",
    "hx": 1664.0,
    "hy": -5476.0,
    "hz": -120.0
   }
  },
  {
   "type": "Feature",
   "geometry": {
    "type": "Point",
    "coordinates": [
     0.0002847577118227691,
     -0.0009480515163955412
    ]
   },
   "properties": {
    "classname": "item_healthkit_small",
    "team": "0",
    "targetname": "",
    "hx": 1664.0,
    "hy": -5540.0,
    "hz": -120.0
   }
  },
  {
   "type": "Feature",
   "geometry": {
    "type": "Point",
    "coordinates": [
     0.0005968959729180353,
     -0.0012430769341330707
    ]
   },
   "properties": {
    "classname": "item_healthkit_medium",
    "team": "0",
    "targetname": "",
    "hx": 3488.0,
    "hy": -7264.0,
    "hz": 396.0
   }
  },
  {
   "type": "Feature",
   "geometry": {
    "type": "Point",
    "coordinates": [
     0.0005859437532314658,
     -0.0012430769341330707
    ]
   },
   "properties": {
    "classname": "item_ammopack_medium",
    "team": "0",
    "targetname": "",
    "hx": 3424.0,
    "hy": -7264.0,
    "hz": 396.0
   }
  },
  {
   "type": "Feature",
   "geometry": {
    "type": "Point",
    "coordinates": [
     0.00032035242585132153,
     -0.0013921297988948968
    ]
   },
   "properties": {
    "classname": "team_control_point",
    "team": "",
    "targetname": "cp_two",
    "hx": 1872.0,
    "hy": -8135.0,
    "hz": 138.926
   }
  },
  {
   "type": "Feature",
   "geometry": {
    "type": "Point",
    "coordinates": [
     5.749915335148816e-05,
     -0.0010965909958596802
    ]
   },
   "properties": {
    "classname": "team_control_point",
    "team": "",
    "targetname": "cp_one",
    "hx": 336.0,
    "hy": -6408.0,
    "hz": -149.921
   }
  }
 ]
}
