{
 "type": "FeatureCollection",
 "note": "pseudo-WGS84 via crs.local_to_wgs84 ((0,0)m maps to (0,0)deg); viewing only, not survey",
 "features": [
  {
   "type": "Feature",
   "geometry": {
    "type": "Point",
    "coordinates": [
     8.761775747264042e-05,
     -0.00022999661336382804
    ]
   },
   "properties": {
    "classname": "item_healthkit_medium",
    "team": "0",
    "targetname": "",
    "hx": 512.0,
    "hy": -1344.0,
    "hz": 0.256157
   }
  },
  {
   "type": "Feature",
   "geometry": {
    "type": "Point",
    "coordinates": [
     -0.0004983259956228844,
     0.0001286885812869038
    ]
   },
   "properties": {
    "classname": "item_healthkit_medium",
    "team": "0",
    "targetname": "",
    "hx": -2912.0,
    "hy": 752.0,
    "hz": -160.0
   }
  },
  {
   "type": "Feature",
   "geometry": {
    "type": "Point",
    "coordinates": [
     -0.0010897458585577876,
     6.023720826195497e-05
    ]
   },
   "properties": {
    "classname": "info_player_teamspawn",
    "team": "3",
    "targetname": "Blu_spawnpoint_A",
    "hx": -6368.0,
    "hy": 352.0,
    "hz": -224.0
   }
  },
  {
   "type": "Feature",
   "geometry": {
    "type": "Point",
    "coordinates": [
     -0.0011006980782417854,
     6.023720826195497e-05
    ]
   },
   "properties": {
    "classname": "info_player_teamspawn",
    "team": "3",
    "targetname": "Blu_spawnpoint_A",
    "hx": -6432.0,
    "hy": 352.0,
    "hz": -224.0
   }
  },
  {
   "type": "Feature",
   "geometry": {
    "type": "Point",
    "coordinates": [
     -0.0002789393450769484,
     8.14571338996891e-05
    ]
   },
   "properties": {
    "classname": "item_healthkit_medium",
    "team": "",
    "targetname": "minigame-maze-node-01",
    "hx": -1630.0,
    "hy": 476.0,
    "hz": -10204.0
   }
  },
  {
   "type": "Feature",
   "geometry": {
    "type": "Point",
    "coordinates": [
     -4.9284988578503635e-05,
     -0.0002683293822577994
    ]
   },
   "properties": {
    "classname": "item_ammopack_medium",
    "team": "0",
    "targetname": "",
    "hx": -288.0,
    "hy": -1568.0,
    "hz": 9.0
   }
  },
  {
   "type": "Feature",
   "geometry": {
    "type": "Point",
    "coordinates": [
     0.0002519010527325894,
     -0.00014237885589189354
    ]
   },
   "properties": {
    "classname": "info_player_teamspawn",
    "team": "2",
    "targetname": "Red_spawn_pointB",
    "hx": 1472.0,
    "hy": -832.0,
    "hz": 4.0
   }
  },
  {
   "type": "Feature",
   "geometry": {
    "type": "Point",
    "coordinates": [
     3.8332768894063956e-05,
     0.00012595052636590586
    ]
   },
   "properties": {
    "classname": "item_ammopack_medium",
    "team": "0",
    "targetname": "",
    "hx": 224.0,
    "hy": 736.0,
    "hz": -309.0
   }
  },
  {
   "type": "Feature",
   "geometry": {
    "type": "Point",
    "coordinates": [
     0.0002655913273375001,
     -0.00013142663620790176
    ]
   },
   "properties": {
    "classname": "info_player_teamspawn",
    "team": "3",
    "targetname": "Blu_spawnpoint_C",
    "hx": 1552.0,
    "hy": -768.0,
    "hz": -12.0
   }
  },
  {
   "type": "Feature",
   "geometry": {
    "type": "Point",
    "coordinates": [
     -0.0011006980782420268,
     7.118942794594677e-05
    ]
   },
   "properties": {
    "classname": "info_player_teamspawn",
    "team": "3",
    "targetname": "Blu_spawnpoint_A",
    "hx": -6432.0,
    "hy": 416.0,
    "hz": -224.0
   }
  },
  {
   "type": "Feature",
   "geometry": {
    "type": "Point",
    "coordinates": [
     -0.00022041342114253546,
     -0.0002560081351133086
    ]
   },
   "properties": {
    "classname": "item_healthkit_medium",
    "team": "0",
    "targetname": "",
    "hx": -1288.0,
    "hy": -1496.0,
    "hz": 64.2361
   }
  },
  {
   "type": "Feature",
   "geometry": {
    "type": "Point",
    "coordinates": [
     9.856997715670169e-05,
     -0.0002272585584428301
    ]
   },
   "properties": {
    "classname": "item_ammopack_medium",
    "team": "0",
    "targetname": "",
    "hx": 576.0,
    "hy": -1328.0,
    "hz": 0.256157
   }
  },
  {
   "type": "Feature",
   "geometry": {
    "type": "Point",
    "coordinates": [
     0.00010678414192011521,
     0.00027106743717879734
    ]
   },
   "properties": {
    "classname": "info_player_teamspawn",
    "team": "3",
    "targetname": "Blu_spawnpoint_B",
    "hx": 624.0,
    "hy": 1584.0,
    "hz": -164.0
   }
  },
  {
   "type": "Feature",
   "geometry": {
    "type": "Point",
    "coordinates": [
     0.00010678414192021373,
     0.00028201965686278915
    ]
   },
   "properties": {
    "classname": "info_player_teamspawn",
    "team": "3",
    "targetname": "Blu_spawnpoint_B",
    "hx": 624.0,
    "hy": 1648.0,
    "hz": -164.0
   }
  },
  {
   "type": "Feature",
   "geometry": {
    "type": "Point",
    "coordinates": [
     0.00011773636160422959,
     0.00027106743717879734
    ]
   },
   "properties": {
    "classname": "info_player_teamspawn",
    "team": "3",
    "targetname": "Blu_spawnpoint_B",
    "hx": 688.0,
    "hy": 1584.0,
    "hz": -164.0
   }
  },
  {
   "type": "Feature",
   "geometry": {
    "type": "Point",
    "coordinates": [
     0.00011773636160433821,
     0.00028201965686278915
    ]
   },
   "properties": {
    "classname": "info_player_teamspawn",
    "team": "3",
    "targetname": "Blu_spawnpoint_B",
    "hx": 688.0,
    "hy": 1648.0,
    "hz": -164.0
   }
  },
  {
   "type": "Feature",
   "geometry": {
    "type": "Point",
    "coordinates": [
     0.00011773636160402525,
     0.0002491629978108137
    ]
   },
   "properties": {
    "classname": "info_player_teamspawn",
    "team": "3",
    "targetname": "Blu_spawnpoint_B",
    "hx": 688.0,
    "hy": 1456.0,
    "hz": -164.0
   }
  },
  {
   "type": "Feature",
   "geometry": {
    "type": "Point",
    "coordinates": [
     0.00011773636160412528,
     0.00026011521749480553
    ]
   },
   "properties": {
    "classname": "info_player_teamspawn",
    "team": "3",
    "targetname": "Blu_spawnpoint_B",
    "hx": 688.0,
    "hy": 1520.0,
    "hz": -164.0
   }
  },
  {
   "type": "Feature",
   "geometry": {
    "type": "Point",
    "coordinates": [
     0.00010678414191992987,
     0.0002491629978108137
    ]
   },
   "properties": {
    "classname": "info_player_teamspawn",
    "team": "3",
    "targetname": "Blu_spawnpoint_B",
    "hx": 624.0,
    "hy": 1456.0,
    "hz": -164.0
   }
  },
  {
   "type": "Feature",
   "geometry": {
    "type": "Point",
    "coordinates": [
     0.00010678414192002059,
     0.00026011521749480553
    ]
   },
   "properties": {
    "classname": "info_player_teamspawn",
    "team": "3",
    "targetname": "Blu_spawnpoint_B",
    "hx": 624.0,
    "hy": 1520.0,
    "hz": -164.0
   }
  },
  {
   "type": "Feature",
   "geometry": {
    "type": "Point",
    "coordinates": [
     -0.00040523212831029983,
     -0.00020535411907484646
    ]
   },
   "properties": {
    "classname": "info_player_teamspawn",
    "team": "2",
    "targetname": "Red_spawn_pointC",
    "hx": -2368.0,
    "hy": -1200.0,
    "hz": 44.0023
   }
  },
  {
   "type": "Feature",
   "geometry": {
    "type": "Point",
    "coordinates": [
     -0.00041618434799436195,
     -0.00020535411907484646
    ]
   },
   "properties": {
    "classname": "info_player_teamspawn",
    "team": "2",
    "targetname": "Red_spawn_pointC",
    "hx": -2432.0,
    "hy": -1200.0,
    "hz": 44.0023
   }
  },
  {
   "type": "Feature",
   "geometry": {
    "type": "Point",
    "coordinates": [
     -0.0004161843479946173,
     -0.0002149373112983393
    ]
   },
   "properties": {
    "classname": "info_player_teamspawn",
    "team": "2",
    "targetname": "Red_spawn_pointC",
    "hx": -2432.0,
    "hy": -1256.0,
    "hz": 44.0023
   }
  },
  {
   "type": "Feature",
   "geometry": {
    "type": "Point",
    "coordinates": [
     -0.00040523212831054844,
     -0.0002149373112983393
    ]
   },
   "properties": {
    "classname": "info_player_teamspawn",
    "team": "2",
    "targetname": "Red_spawn_pointC",
    "hx": -2368.0,
    "hy": -1256.0,
    "hz": 44.0023
   }
  },
  {
   "type": "Feature",
   "geometry": {
    "type": "Point",
    "coordinates": [
     -0.0004052321283100958,
     -0.00019713995431185264
    ]
   },
   "properties": {
    "classname": "info_player_teamspawn",
    "team": "2",
    "targetname": "Red_spawn_pointC",
    "hx": -2368.0,
    "hy": -1152.0,
    "hz": 44.0023
   }
  },
  {
   "type": "Feature",
   "geometry": {
    "type": "Point",
    "coordinates": [
     -0.00041618434799415237,
     -0.00019713995431185264
    ]
   },
   "properties": {
    "classname": "info_player_teamspawn",
    "team": "2",
    "targetname": "Red_spawn_pointC",
    "hx": -2432.0,
    "hy": -1152.0,
    "hz": 44.0023
   }
  },
  {
   "type": "Feature",
   "geometry": {
    "type": "Point",
    "coordinates": [
     -0.0001807116247906323,
     -0.00041618434799168885
    ]
   },
   "properties": {
    "classname": "item_ammopack_medium",
    "team": "0",
    "targetname": "",
    "hx": -1056.0,
    "hy": -2432.0,
    "hz": 128.0
   }
  },
  {
   "type": "Feature",
   "geometry": {
    "type": "Point",
    "coordinates": [
     -0.00018071162479088655,
     -0.00042713656767568066
    ]
   },
   "properties": {
    "classname": "item_healthkit_small",
    "team": "0",
    "targetname": "",
    "hx": -1056.0,
    "hy": -2496.0,
    "hz": 128.0
   }
  },
  {
   "type": "Feature",
   "geometry": {
    "type": "Point",
    "coordinates": [
     4.107082381552138e-06,
     0.00029707895892827787
    ]
   },
   "properties": {
    "classname": "item_healthkit_small",
    "team": "0",
    "targetname": "",
    "hx": 24.0,
    "hy": 1736.0,
    "hz": -312.0
   }
  },
  {
   "type": "Feature",
   "geometry": {
    "type": "Point",
    "coordinates": [
     -0.0001478549657357864,
     0.00029023382162578307
    ]
   },
   "properties": {
    "classname": "item_healthkit_medium",
    "team": "0",
    "targetname": "",
    "hx": -864.0,
    "hy": 1696.0,
    "hz": -582.884
   }
  },
  {
   "type": "Feature",
   "geometry": {
    "type": "Point",
    "coordinates": [
     0.0002847577117846663,
     -0.00014237885589189354
    ]
   },
   "properties": {
    "classname": "info_player_teamspawn",
    "team": "2",
    "targetname": "Red_spawn_pointB",
    "hx": 1664.0,
    "hy": -832.0,
    "hz": 4.0
   }
  },
  {
   "type": "Feature",
   "geometry": {
    "type": "Point",
    "coordinates": [
     -3.696374143439687e-05,
     -0.0004052321283076971
    ]
   },
   "properties": {
    "classname": "team_control_point",
    "team": "",
    "targetname": "cp_three",
    "hx": -216.0,
    "hy": -2368.0,
    "hz": -32.0
   }
  },
  {
   "type": "Feature",
   "geometry": {
    "type": "Point",
    "coordinates": [
     -0.00015059302065491216,
     3.285665905197544e-05
    ]
   },
   "properties": {
    "classname": "item_ammopack_medium",
    "team": "0",
    "targetname": "",
    "hx": -880.0,
    "hy": 192.0,
    "hz": -582.058
   }
  },
  {
   "type": "Feature",
   "geometry": {
    "type": "Point",
    "coordinates": [
     -0.0010897458585580264,
     7.118942794594677e-05
    ]
   },
   "properties": {
    "classname": "info_player_teamspawn",
    "team": "3",
    "targetname": "Blu_spawnpoint_A",
    "hx": -6368.0,
    "hy": 416.0,
    "hz": -224.0
   }
  },
  {
   "type": "Feature",
   "geometry": {
    "type": "Point",
    "coordinates": [
     -3.833276889439171e-05,
     -0.0002683293822577994
    ]
   },
   "properties": {
    "classname": "item_healthkit_medium",
    "team": "0",
    "targetname": "",
    "hx": -224.0,
    "hy": -1568.0,
    "hz": 9.0
   }
  },
  {
   "type": "Feature",
   "geometry": {
    "type": "Point",
    "coordinates": [
     -0.00010952219684586137,
     -0.0005968959727775537
    ]
   },
   "properties": {
    "classname": "item_healthkit_small",
    "team": "0",
    "targetname": "",
    "hx": -640.0,
    "hy": -3488.0,
    "hz": -120.0
   }
  },
  {
   "type": "Feature",
   "geometry": {
    "type": "Point",
    "coordinates": [
     0.00024368688796981954,
     -0.0001642832952598772
    ]
   },
   "properties": {
    "classname": "info_player_teamspawn",
    "team": "2",
    "targetname": "Red_spawn_pointB",
    "hx": 1424.0,
    "hy": -960.0,
    "hz": 8.0
   }
  },
  {
   "type": "Feature",
   "geometry": {
    "type": "Point",
    "coordinates": [
     -0.00013416469112892176,
     3.285665905197544e-05
    ]
   },
   "properties": {
    "classname": "item_healthkit_medium",
    "team": "0",
    "targetname": "",
    "hx": -784.0,
    "hy": 192.0,
    "hz": -582.058
   }
  },
  {
   "type": "Feature",
   "geometry": {
    "type": "Point",
    "coordinates": [
     0.0002738054921006085,
     -0.0001396408009708956
    ]
   },
   "properties": {
    "classname": "info_player_teamspawn",
    "team": "2",
    "targetname": "Red_spawn_pointB",
    "hx": 1600.0,
    "hy": -816.0,
    "hz": 4.0
   }
  },
  {
   "type": "Feature",
   "geometry": {
    "type": "Point",
    "coordinates": [
     -0.001067841419190299,
     8.21416476299386e-05
    ]
   },
   "properties": {
    "classname": "info_player_teamspawn",
    "team": "3",
    "targetname": "Blu_spawnpoint_A",
    "hx": -6240.0,
    "hy": 480.0,
    "hz": -224.0
   }
  },
  {
   "type": "Feature",
   "geometry": {
    "type": "Point",
    "coordinates": [
     -0.00011226025176130736,
     -0.0001512775343851369
    ]
   },
   "properties": {
    "classname": "item_ammopack_medium",
    "team": "0",
    "targetname": "",
    "hx": -656.0,
    "hy": -884.0,
    "hz": -319.744
   }
  },
  {
   "type": "Feature",
   "geometry": {
    "type": "Point",
    "coordinates": [
     -0.0004161843479962064,
     -0.00026696035479730043
    ]
   },
   "properties": {
    "classname": "item_ammopack_medium",
    "team": "0",
    "targetname": "",
    "hx": -2432.0,
    "hy": -1560.0,
    "hz": -80.0
   }
  },
  {
   "type": "Feature",
   "geometry": {
    "type": "Point",
    "coordinates": [
     0.00026559132733738856,
     -0.00012047441652390994
    ]
   },
   "properties": {
    "classname": "info_player_teamspawn",
    "team": "3",
    "targetname": "Blu_spawnpoint_C",
    "hx": 1552.0,
    "hy": -704.0,
    "hz": -12.0
   }
  },
  {
   "type": "Feature",
   "geometry": {
    "type": "Point",
    "coordinates": [
     -0.0010787936388740261,
     7.118942794594677e-05
    ]
   },
   "properties": {
    "classname": "info_player_teamspawn",
    "team": "3",
    "targetname": "Blu_spawnpoint_A",
    "hx": -6304.0,
    "hy": 416.0,
    "hz": -224.0
   }
  },
  {
   "type": "Feature",
   "geometry": {
    "type": "Point",
    "coordinates": [
     -0.0006762995655005684,
     -0.0003696374143347237
    ]
   },
   "properties": {
    "classname": "info_player_teamspawn",
    "team": "2",
    "targetname": "Red_spawn_pointD",
    "hx": -3952.0,
    "hy": -2160.0,
    "hz": 13.005
   }
  },
  {
   "type": "Feature",
   "geometry": {
    "type": "Point",
    "coordinates": [
     0.0002710674371801051,
     -0.00017797356986486694
    ]
   },
   "properties": {
    "classname": "info_player_teamspawn",
    "team": "3",
    "targetname": "Blu_spawnpoint_C",
    "hx": 1584.0,
    "hy": -1040.0,
    "hz": -12.0
   }
  },
  {
   "type": "Feature",
   "geometry": {
    "type": "Point",
    "coordinates": [
     -0.0006762995655014147,
     -0.0003805896340187155
    ]
   },
   "properties": {
    "classname": "info_player_teamspawn",
    "team": "2",
    "targetname": "Red_spawn_pointD",
    "hx": -3952.0,
    "hy": -2224.0,
    "hz": 13.005
   }
  },
  {
   "type": "Feature",
   "geometry": {
    "type": "Point",
    "coordinates": [
     -0.0006845137302637331,
     -0.0003696374143347237
    ]
   },
   "properties": {
    "classname": "info_player_teamspawn",
    "team": "2",
    "targetname": "Red_spawn_pointD",
    "hx": -4000.0,
    "hy": -2160.0,
    "hz": 13.005
   }
  },
  {
   "type": "Feature",
   "geometry": {
    "type": "Point",
    "coordinates": [
     -0.0006845137302645898,
     -0.0003805896340187155
    ]
   },
   "properties": {
    "classname": "info_player_teamspawn",
    "team": "2",
    "targetname": "Red_spawn_pointD",
    "hx": -4000.0,
    "hy": -2224.0,
    "hz": 13.005
   }
  },
  {
   "type": "Feature",
   "geometry": {
    "type": "Point",
    "coordinates": [
     -0.0006762995655020656,
     -0.00038880379878170935
    ]
   },
   "properties": {
    "classname": "info_player_teamspawn",
    "team": "2",
    "targetname": "Red_spawn_pointD",
    "hx": -3952.0,
    "hy": -2272.0,
    "hz": 13.005
   }
  },
  {
   "type": "Feature",
   "geometry": {
    "type": "Point",
    "coordinates": [
     -0.0006762995654999498,
     -0.0003614232495717298
    ]
   },
   "properties": {
    "classname": "info_player_teamspawn",
    "team": "2",
    "targetname": "Red_spawn_pointD",
    "hx": -3952.0,
    "hy": -2112.0,
    "hz": 13.005
   }
  },
  {
   "type": "Feature",
   "geometry": {
    "type": "Point",
    "coordinates": [
     0.00026559132733804363,
     -0.000175235514943869
    ]
   },
   "properties": {
    "classname": "info_player_teamspawn",
    "team": "2",
    "targetname": "Red_spawn_pointB",
    "hx": 1552.0,
    "hy": -1024.0,
    "hz": 4.0
   }
  },
  {
   "type": "Feature",
   "geometry": {
    "type": "Point",
    "coordinates": [
     -0.00040523212831209576,
     -0.00026696035479730043
    ]
   },
   "properties": {
    "classname": "item_healthkit_medium",
    "team": "0",
    "targetname": "",
    "hx": -2368.0,
    "hy": -1560.0,
    "hz": -80.0
   }
  },
  {
   "type": "Feature",
   "geometry": {
    "type": "Point",
    "coordinates": [
     0.00026011521749606044,
     -0.00017797356986486694
    ]
   },
   "properties": {
    "classname": "info_player_teamspawn",
    "team": "3",
    "targetname": "Blu_spawnpoint_C",
    "hx": 1520.0,
    "hy": -1040.0,
    "hz": -12.0
   }
  },
  {
   "type": "Feature",
   "geometry": {
    "type": "Point",
    "coordinates": [
     0.0002519010527327137,
     -0.00015333107557588535
    ]
   },
   "properties": {
    "classname": "info_player_teamspawn",
    "team": "2",
    "targetname": "Red_spawn_pointB",
    "hx": 1472.0,
    "hy": -896.0,
    "hz": 4.0
   }
  },
  {
   "type": "Feature",
   "geometry": {
    "type": "Point",
    "coordinates": [
     -0.0006817756753286539,
     -3.9701796354470314e-05
    ]
   },
   "properties": {
    "classname": "item_healthkit_medium",
    "team": "",
    "targetname": "",
    "hx": -3984.0,
    "hy": -232.0,
    "hz": -10587.8
   }
  },
  {
   "type": "Feature",
   "geometry": {
    "type": "Point",
    "coordinates": [
     0.00024368688796969044,
     -0.00015333107557588535
    ]
   },
   "properties": {
    "classname": "info_player_teamspawn",
    "team": "2",
    "targetname": "Red_spawn_pointB",
    "hx": 1424.0,
    "hy": -896.0,
    "hz": 4.0
   }
  },
  {
   "type": "Feature",
   "geometry": {
    "type": "Point",
    "coordinates": [
     0.0002436868879694589,
     -0.00013142663620790176
    ]
   },
   "properties": {
    "classname": "info_player_teamspawn",
    "team": "2",
    "targetname": "Red_spawn_pointB",
    "hx": 1424.0,
    "hy": -768.0,
    "hz": 4.0
   }
  },
  {
   "type": "Feature",
   "geometry": {
    "type": "Point",
    "coordinates": [
     -0.0006324906867508766,
     -6.023720826195497e-05
    ]
   },
   "properties": {
    "classname": "item_ammopack_small",
    "team": "0",
    "targetname": "",
    "hx": -3696.0,
    "hy": -352.0,
    "hz": -202.0
   }
  },
  {
   "type": "Feature",
   "geometry": {
    "type": "Point",
    "coordinates": [
     0.0002847577117847529,
     -0.00014922399319438842
    ]
   },
   "properties": {
    "classname": "info_player_teamspawn",
    "team": "2",
    "targetname": "Red_spawn_pointB",
    "hx": 1664.0,
    "hy": -872.0,
    "hz": 4.0
   }
  },
  {
   "type": "Feature",
   "geometry": {
    "type": "Point",
    "coordinates": [
     -0.0011006980782423082,
     8.21416476299386e-05
    ]
   },
   "properties": {
    "classname": "info_player_teamspawn",
    "team": "3",
    "targetname": "Blu_spawnpoint_A",
    "hx": -6432.0,
    "hy": 480.0,
    "hz": -224.0
   }
  },
  {
   "type": "Feature",
   "geometry": {
    "type": "Point",
    "coordinates": [
     -3.285665905198388e-05,
     4.10708238149693e-05
    ]
   },
   "properties": {
    "classname": "team_control_point",
    "team": "",
    "targetname": "cp_two",
    "hx": -192.0,
    "hy": 240.0,
    "hz": -440.0
   }
  },
  {
   "type": "Feature",
   "geometry": {
    "type": "Point",
    "coordinates": [
     -8.214164762998398e-05,
     6.023720826195497e-05
    ]
   },
   "properties": {
    "classname": "item_ammopack_medium",
    "team": "0",
    "targetname": "",
    "hx": -480.0,
    "hy": 352.0,
    "hz": -439.0
   }
  },
  {
   "type": "Feature",
   "geometry": {
    "type": "Point",
    "coordinates": [
     -3.285665905198279e-05,
     -3.833276889397134e-05
    ]
   },
   "properties": {
    "classname": "item_ammopack_full",
    "team": "0",
    "targetname": "",
    "hx": -192.0,
    "hy": -224.0,
    "hz": -255.744
   }
  },
  {
   "type": "Feature",
   "geometry": {
    "type": "Point",
    "coordinates": [
     -0.001078793638874302,
     8.21416476299386e-05
    ]
   },
   "properties": {
    "classname": "info_player_teamspawn",
    "team": "3",
    "targetname": "Blu_spawnpoint_A",
    "hx": -6304.0,
    "hy": 480.0,
    "hz": -224.0
   }
  },
  {
   "type": "Feature",
   "geometry": {
    "type": "Point",
    "coordinates": [
     0.0002847577117845362,
     -0.00013142663620790176
    ]
   },
   "properties": {
    "classname": "info_player_teamspawn",
    "team": "2",
    "targetname": "Red_spawn_pointB",
    "hx": 1664.0,
    "hy": -768.0,
    "hz": 0.0
   }
  },
  {
   "type": "Feature",
   "geometry": {
    "type": "Point",
    "coordinates": [
     -0.0004545171168856602,
     -3.4225686512474414e-07
    ]
   },
   "properties": {
    "classname": "team_control_point",
    "team": "",
    "targetname": "cp_one",
    "hx": -2656.0,
    "hy": -2.0,
    "hz": -311.921
   }
  },
  {
   "type": "Feature",
   "geometry": {
    "type": "Point",
    "coordinates": [
     -0.0002094612014584343,
     -0.0002560081351133086
    ]
   },
   "properties": {
    "classname": "item_ammopack_medium",
    "team": "0",
    "targetname": "",
    "hx": -1224.0,
    "hy": -1496.0,
    "hz": 64.2561
   }
  },
  {
   "type": "Feature",
   "geometry": {
    "type": "Point",
    "coordinates": [
     2.7380549210045686e-05,
     0.00012595052636590586
    ]
   },
   "properties": {
    "classname": "item_healthkit_medium",
    "team": "0",
    "targetname": "",
    "hx": 160.0,
    "hy": 736.0,
    "hz": -309.0
   }
  },
  {
   "type": "Feature",
   "geometry": {
    "type": "Point",
    "coordinates": [
     -0.0010678414191897917,
     6.023720826195497e-05
    ]
   },
   "properties": {
    "classname": "info_player_teamspawn",
    "team": "3",
    "targetname": "Blu_spawnpoint_A",
    "hx": -6240.0,
    "hy": 352.0,
    "hz": -224.0
   }
  },
  {
   "type": "Feature",
   "geometry": {
    "type": "Point",
    "coordinates": [
     -0.00047642155627411784,
     -0.0005311826546736028
    ]
   },
   "properties": {
    "classname": "item_ammopack_medium",
    "team": "0",
    "targetname": "",
    "hx": -2784.0,
    "hy": -3104.0,
    "hz": 73.0
   }
  },
  {
   "type": "Feature",
   "geometry": {
    "type": "Point",
    "coordinates": [
     -0.00040523212830876314,
     -0.00013142663620790176
    ]
   },
   "properties": {
    "classname": "item_healthkit_medium",
    "team": "0",
    "targetname": "",
    "hx": -2368.0,
    "hy": -768.0,
    "hz": -160.0
   }
  },
  {
   "type": "Feature",
   "geometry": {
    "type": "Point",
    "coordinates": [
     -0.0007502270483536192,
     -3.9701796354470314e-05
    ]
   },
   "properties": {
    "classname": "item_healthkit_medium",
    "team": "",
    "targetname": "",
    "hx": -4384.0,
    "hy": -232.0,
    "hz": -10587.8
   }
  },
  {
   "type": "Feature",
   "geometry": {
    "type": "Point",
    "coordinates": [
     0.00027654354702208667,
     -0.000175235514943869
    ]
   },
   "properties": {
    "classname": "info_player_teamspawn",
    "team": "2",
    "targetname": "Red_spawn_pointB",
    "hx": 1616.0,
    "hy": -1024.0,
    "hz": 4.0
   }
  },
  {
   "type": "Feature",
   "geometry": {
    "type": "Point",
    "coordinates": [
     -0.001067841419190026,
     7.118942794594677e-05
    ]
   },
   "properties": {
    "classname": "info_player_teamspawn",
    "team": "3",
    "targetname": "Blu_spawnpoint_A",
    "hx": -6240.0,
    "hy": 416.0,
    "hz": -224.0
   }
  },
  {
   "type": "Feature",
   "geometry": {
    "type": "Point",
    "coordinates": [
     -0.00013690274605165407,
     0.00029023382162578307
    ]
   },
   "properties": {
    "classname": "item_ammopack_full",
    "team": "0",
    "targetname": "",
    "hx": -800.0,
    "hy": 1696.0,
    "hz": -582.884
   }
  },
  {
   "type": "Feature",
   "geometry": {
    "type": "Point",
    "coordinates": [
     -0.0010678414191895966,
     4.928498857796316e-05
    ]
   },
   "properties": {
    "classname": "info_player_teamspawn",
    "team": "3",
    "targetname": "Blu_spawnpoint_A",
    "hx": -6240.0,
    "hy": 288.0,
    "hz": -224.0
   }
  },
  {
   "type": "Feature",
   "geometry": {
    "type": "Point",
    "coordinates": [
     -0.0007201084442227905,
     5.476109841995906e-05
    ]
   },
   "properties": {
    "classname": "item_healthkit_medium",
    "team": "",
    "targetname": "",
    "hx": -4208.0,
    "hy": 320.0,
    "hz": -10587.8
   }
  },
  {
   "type": "Feature",
   "geometry": {
    "type": "Point",
    "coordinates": [
     0.00026559132733765327,
     -0.00014511691081289154
    ]
   },
   "properties": {
    "classname": "info_player_teamspawn",
    "team": "3",
    "targetname": "Blu_spawnpoint_C",
    "hx": 1552.0,
    "hy": -848.0,
    "hz": -12.0
   }
  },
  {
   "type": "Feature",
   "geometry": {
    "type": "Point",
    "coordinates": [
     0.0001197899027985853,
     -0.0005195459212593616
    ]
   },
   "properties": {
    "classname": "item_healthkit_medium",
    "team": "0",
    "targetname": "",
    "hx": 700.0,
    "hy": -3036.0,
    "hz": -255.744
   }
  },
  {
   "type": "Feature",
   "geometry": {
    "type": "Point",
    "coordinates": [
     -0.0010897458585575883,
     4.928498857796316e-05
    ]
   },
   "properties": {
    "classname": "info_player_teamspawn",
    "team": "3",
    "targetname": "Blu_spawnpoint_A",
    "hx": -6368.0,
    "hy": 288.0,
    "hz": -224.0
   }
  },
  {
   "type": "Feature",
   "geometry": {
    "type": "Point",
    "coordinates": [
     -0.0006324906867510536,
     -7.392748286694472e-05
    ]
   },
   "properties": {
    "classname": "item_healthkit_small",
    "team": "0",
    "targetname": "",
    "hx": -3696.0,
    "hy": -432.0,
    "hz": -204.0
   }
  },
  {
   "type": "Feature",
   "geometry": {
    "type": "Point",
    "coordinates": [
     0.0002436868879695702,
     -0.00014237885589189354
    ]
   },
   "properties": {
    "classname": "info_player_teamspawn",
    "team": "2",
    "targetname": "Red_spawn_pointB",
    "hx": 1424.0,
    "hy": -832.0,
    "hz": 4.0
   }
  },
  {
   "type": "Feature",
   "geometry": {
    "type": "Point",
    "coordinates": [
     -0.0003449949200613422,
     -0.0005448729292785926
    ]
   },
   "properties": {
    "classname": "item_ammopack_full",
    "team": "0",
    "targetname": "",
    "hx": -2016.0,
    "hy": -3184.0,
    "hz": -191.744
   }
  },
  {
   "type": "Feature",
   "geometry": {
    "type": "Point",
    "coordinates": [
     -0.001089745858558305,
     8.21416476299386e-05
    ]
   },
   "properties": {
    "classname": "info_player_teamspawn",
    "team": "3",
    "targetname": "Blu_spawnpoint_A",
    "hx": -6368.0,
    "hy": 480.0,
    "hz": -224.0
   }
  },
  {
   "type": "Feature",
   "geometry": {
    "type": "Point",
    "coordinates": [
     -2.1904439367988527e-05,
     -3.833276889397134e-05
    ]
   },
   "properties": {
    "classname": "item_healthkit_medium",
    "team": "0",
    "targetname": "",
    "hx": -128.0,
    "hy": -224.0,
    "hz": -255.744
   }
  },
  {
   "type": "Feature",
   "geometry": {
    "type": "Point",
    "coordinates": [
     -0.0003449949200619756,
     -0.0005558251489625845
    ]
   },
   "properties": {
    "classname": "item_healthkit_medium",
    "team": "0",
    "targetname": "",
    "hx": -2016.0,
    "hy": -3248.0,
    "hz": -191.744
   }
  },
  {
   "type": "Feature",
   "geometry": {
    "type": "Point",
    "coordinates": [
     0.000273805492100707,
     -0.00014785496573388945
    ]
   },
   "properties": {
    "classname": "info_player_teamspawn",
    "team": "2",
    "targetname": "Red_spawn_pointB",
    "hx": 1600.0,
    "hy": -864.0,
    "hz": 4.0
   }
  },
  {
   "type": "Feature",
   "geometry": {
    "type": "Point",
    "coordinates": [
     1.369027460516211e-05,
     0.0002874957667047851
    ]
   },
   "properties": {
    "classname": "item_ammopack_small",
    "team": "0",
    "targetname": "",
    "hx": 80.0,
    "hy": 1680.0,
    "hz": -312.0
   }
  },
  {
   "type": "Feature",
   "geometry": {
    "type": "Point",
    "coordinates": [
     -0.0004983259956227291,
     0.00012047441652390994
    ]
   },
   "properties": {
    "classname": "item_ammopack_full",
    "team": "0",
    "targetname": "",
    "hx": -2912.0,
    "hy": 704.0,
    "hz": -160.0
   }
  },
  {
   "type": "Feature",
   "geometry": {
    "type": "Point",
    "coordinates": [
     -0.0006543951261188096,
     5.476109841995906e-05
    ]
   },
   "properties": {
    "classname": "item_healthkit_medium",
    "team": "",
    "targetname": "",
    "hx": -3824.0,
    "hy": 320.0,
    "hz": -10587.8
   }
  },
  {
   "type": "Feature",
   "geometry": {
    "type": "Point",
    "coordinates": [
     -0.00041618434799278373,
     -0.00013142663620790176
    ]
   },
   "properties": {
    "classname": "item_ammopack_full",
    "team": "0",
    "targetname": "",
    "hx": -2432.0,
    "hy": -768.0,
    "hz": -160.0
   }
  },
  {
   "type": "Feature",
   "geometry": {
    "type": "Point",
    "coordinates": [
     0.0002738054921005156,
     -0.00013142663620790176
    ]
   },
   "properties": {
    "classname": "info_player_teamspawn",
    "team": "2",
    "targetname": "Red_spawn_pointB",
    "hx": 1600.0,
    "hy": -768.0,
    "hz": 4.0
   }
  },
  {
   "type": "Feature",
   "geometry": {
    "type": "Point",
    "coordinates": [
     0.0002792816019424514,
     -0.00012458149890540686
    ]
   },
   "properties": {
    "classname": "info_player_teamspawn",
    "team": "3",
    "targetname": "Blu_spawnpoint_C",
    "hx": 1632.0,
    "hy": -728.0,
    "hz": -8.0
   }
  },
  {
   "type": "Feature",
   "geometry": {
    "type": "Point",
    "coordinates": [
     -0.0010787936388737898,
     6.023720826195497e-05
    ]
   },
   "properties": {
    "classname": "info_player_teamspawn",
    "team": "3",
    "targetname": "Blu_spawnpoint_A",
    "hx": -6304.0,
    "hy": 352.0,
    "hz": -224.0
   }
  },
  {
   "type": "Feature",
   "geometry": {
    "type": "Point",
    "coordinates": [
     0.00025190105273298986,
     -0.000175235514943869
    ]
   },
   "properties": {
    "classname": "info_player_teamspawn",
    "team": "2",
    "targetname": "Red_spawn_pointB",
    "hx": 1472.0,
    "hy": -1024.0,
    "hz": 4.0
   }
  },
  {
   "type": "Feature",
   "geometry": {
    "type": "Point",
    "coordinates": [
     0.0002519010527324744,
     -0.00013142663620790176
    ]
   },
   "properties": {
    "classname": "info_player_teamspawn",
    "team": "2",
    "targetname": "Red_spawn_pointB",
    "hx": 1472.0,
    "hy": -768.0,
    "hz": 4.0
   }
  },
  {
   "type": "Feature",
   "geometry": {
    "type": "Point",
    "coordinates": [
     -0.0003778515791035231,
     -0.0003176143708357625
    ]
   },
   "properties": {
    "classname": "item_ammopack_full",
    "team": "0",
    "targetname": "",
    "hx": -2208.0,
    "hy": -1856.0,
    "hz": -190.0
   }
  },
  {
   "type": "Feature",
   "geometry": {
    "type": "Point",
    "coordinates": [
     -0.0010787936388735925,
     4.928498857796316e-05
    ]
   },
   "properties": {
    "classname": "info_player_teamspawn",
    "team": "3",
    "targetname": "Blu_spawnpoint_A",
    "hx": -6304.0,
    "hy": 288.0,
    "hz": -224.0
   }
  },
  {
   "type": "Feature",
   "geometry": {
    "type": "Point",
    "coordinates": [
     2.1904439368793998e-05,
     -0.0004928498857796316
    ]
   },
   "properties": {
    "classname": "item_ammopack_full",
    "team": "0",
    "targetname": "",
    "hx": 128.0,
    "hy": -2880.0,
    "hz": -250.183
   }
  },
  {
   "type": "Feature",
   "geometry": {
    "type": "Point",
    "coordinates": [
     -0.0001040460869982816,
     -0.00015059302065488741
    ]
   },
   "properties": {
    "classname": "item_healthkit_medium",
    "team": "0",
    "targetname": "",
    "hx": -608.0,
    "hy": -880.0,
    "hz": -319.744
   }
  },
  {
   "type": "Feature",
   "geometry": {
    "type": "Point",
    "coordinates": [
     -0.0011006980782415842,
     4.928498857796316e-05
    ]
   },
   "properties": {
    "classname": "info_player_teamspawn",
    "team": "3",
    "targetname": "Blu_spawnpoint_A",
    "hx": -6432.0,
    "hy": 288.0,
    "hz": -224.0
   }
  },
  {
   "type": "Feature",
   "geometry": {
    "type": "Point",
    "coordinates": [
     -0.00046820739150112855,
     -0.0003833276889397134
    ]
   },
   "properties": {
    "classname": "team_control_point",
    "team": "",
    "targetname": "cp_four",
    "hx": -2736.0,
    "hy": -2240.0,
    "hz": -176.0
   }
  }
 ]
}
