{
 "type": "FeatureCollection",
 "note": "pseudo-WGS84 via crs.local_to_wgs84 ((0,0)m maps to (0,0)deg); viewing only, not survey",
 "features": [
  {
   "type": "Feature",
   "geometry": {
    "type": "Point",
    "coordinates": [
     0.000388803798781998,
     6.98204004854478e-05
    ]
   },
   "properties": {
    "classname": "item_ammopack_medium",
    "team": "",
    "targetname": "",
    "hx": 2272.0,
    "hy": 408.0,
    "hz": 192.211
   }
  },
  {
   "type": "Feature",
   "geometry": {
    "type": "Point",
    "coordinates": [
     0.00017523551495364552,
     0.0006052282161590157
    ]
   },
   "properties": {
    "classname": "item_healthkit_medium",
    "team": "",
    "targetname": "",
    "hx": 1024.0,
    "hy": 3536.69,
    "hz": 432.236
   }
  },
  {
   "type": "Feature",
   "geometry": {
    "type": "Point",
    "coordinates": [
     0.00046546933657680385,
     0.0003176143708357625
    ]
   },
   "properties": {
    "classname": "item_healthkit_medium",
    "team": "",
    "targetname": "",
    "hx": 2720.0,
    "hy": 1856.0,
    "hz": 320.256
   }
  },
  {
   "type": "Feature",
   "geometry": {
    "type": "Point",
    "coordinates": [
     -0.0006911877391348764,
     0.00038316169436012796
    ]
   },
   "properties": {
    "classname": "item_healthkit_small",
    "team": "0",
    "targetname": "",
    "hx": -4039.0,
    "hy": 2239.03,
    "hz": 208.0
   }
  },
  {
   "type": "Feature",
   "geometry": {
    "type": "Point",
    "coordinates": [
     -0.0005871416521278395,
     0.00026628097492002777
    ]
   },
   "properties": {
    "classname": "item_ammopack_medium",
    "team": "0",
    "targetname": "",
    "hx": -3431.0,
    "hy": 1556.03,
    "hz": 488.0
   }
  },
  {
   "type": "Feature",
   "geometry": {
    "type": "Point",
    "coordinates": [
     -0.0004572551718335918,
     0.0006218790126473344
    ]
   },
   "properties": {
    "classname": "info_player_teamspawn",
    "team": "3",
    "targetname": "BLU_SPAWN4",
    "hx": -2672.0,
    "hy": 3633.99,
    "hz": 486.616
   }
  },
  {
   "type": "Feature",
   "geometry": {
    "type": "Point",
    "coordinates": [
     -0.0004709471577227452,
     0.0006109267929633426
    ]
   },
   "properties": {
    "classname": "info_player_teamspawn",
    "team": "3",
    "targetname": "BLU_SPAWN4",
    "hx": -2752.01,
    "hy": 3569.99,
    "hz": 486.616
   }
  },
  {
   "type": "Feature",
   "geometry": {
    "type": "Point",
    "coordinates": [
     -0.0004408285535900556,
     0.0006109267929633426
    ]
   },
   "properties": {
    "classname": "info_player_teamspawn",
    "team": "3",
    "targetname": "BLU_SPAWN4",
    "hx": -2576.01,
    "hy": 3569.99,
    "hz": 486.616
   }
  },
  {
   "type": "Feature",
   "geometry": {
    "type": "Point",
    "coordinates": [
     -0.00042713656769909905,
     0.0005999745732793507
    ]
   },
   "properties": {
    "classname": "info_player_teamspawn",
    "team": "3",
    "targetname": "BLU_SPAWN4",
    "hx": -2496.0,
    "hy": 3505.99,
    "hz": 486.616
   }
  },
  {
   "type": "Feature",
   "geometry": {
    "type": "Point",
    "coordinates": [
     -0.00045725517183172783,
     0.0005999745732793507
    ]
   },
   "properties": {
    "classname": "info_player_teamspawn",
    "team": "3",
    "targetname": "BLU_SPAWN4",
    "hx": -2672.0,
    "hy": 3505.99,
    "hz": 486.616
   }
  },
  {
   "type": "Feature",
   "geometry": {
    "type": "Point",
    "coordinates": [
     -0.00047094715772179395,
     0.0005999745732793507
    ]
   },
   "properties": {
    "classname": "info_player_teamspawn",
    "team": "3",
    "targetname": "BLU_SPAWN4",
    "hx": -2752.01,
    "hy": 3505.99,
    "hz": 486.616
   }
  },
  {
   "type": "Feature",
   "geometry": {
    "type": "Point",
    "coordinates": [
     -0.0004408285535891652,
     0.0005999745732793507
    ]
   },
   "properties": {
    "classname": "info_player_teamspawn",
    "team": "3",
    "targetname": "BLU_SPAWN4",
    "hx": -2576.01,
    "hy": 3505.99,
    "hz": 486.616
   }
  },
  {
   "type": "Feature",
   "geometry": {
    "type": "Point",
    "coordinates": [
     -0.0004271365676999618,
     0.0006109267929633426
    ]
   },
   "properties": {
    "classname": "info_player_teamspawn",
    "team": "3",
    "targetname": "BLU_SPAWN4",
    "hx": -2496.0,
    "hy": 3569.99,
    "hz": 486.616
   }
  },
  {
   "type": "Feature",
   "geometry": {
    "type": "Point",
    "coordinates": [
     -0.00045725517183265146,
     0.0006109267929633426
    ]
   },
   "properties": {
    "classname": "info_player_teamspawn",
    "team": "3",
    "targetname": "BLU_SPAWN4",
    "hx": -2672.0,
    "hy": 3569.99,
    "hz": 486.616
   }
  },
  {
   "type": "Feature",
   "geometry": {
    "type": "Point",
    "coordinates": [
     -0.0004709471577237137,
     0.0006218790126473344
    ]
   },
   "properties": {
    "classname": "info_player_teamspawn",
    "team": "3",
    "targetname": "BLU_SPAWN4",
    "hx": -2752.01,
    "hy": 3633.99,
    "hz": 486.616
   }
  },
  {
   "type": "Feature",
   "geometry": {
    "type": "Point",
    "coordinates": [
     -0.00044082855359096223,
     0.0006218790126473344
    ]
   },
   "properties": {
    "classname": "info_player_teamspawn",
    "team": "3",
    "targetname": "BLU_SPAWN4",
    "hx": -2576.01,
    "hy": 3633.99,
    "hz": 486.616
   }
  },
  {
   "type": "Feature",
   "geometry": {
    "type": "Point",
    "coordinates": [
     -0.00044082855359188483,
     0.0006328312323313262
    ]
   },
   "properties": {
    "classname": "info_player_teamspawn",
    "team": "3",
    "targetname": "BLU_SPAWN4",
    "hx": -2576.01,
    "hy": 3697.99,
    "hz": 486.616
   }
  },
  {
   "type": "Feature",
   "geometry": {
    "type": "Point",
    "coordinates": [
     -0.0004271365677017342,
     0.0006328312323313262
    ]
   },
   "properties": {
    "classname": "info_player_teamspawn",
    "team": "3",
    "targetname": "BLU_SPAWN4",
    "hx": -2496.0,
    "hy": 3697.99,
    "hz": 486.616
   }
  },
  {
   "type": "Feature",
   "geometry": {
    "type": "Point",
    "coordinates": [
     -0.0004271365677008402,
     0.0006218790126473344
    ]
   },
   "properties": {
    "classname": "info_player_teamspawn",
    "team": "3",
    "targetname": "BLU_SPAWN4",
    "hx": -2496.0,
    "hy": 3633.99,
    "hz": 486.616
   }
  },
  {
   "type": "Feature",
   "geometry": {
    "type": "Point",
    "coordinates": [
     -0.0004572551718345488,
     0.0006328312323313262
    ]
   },
   "properties": {
    "classname": "info_player_teamspawn",
    "team": "3",
    "targetname": "BLU_SPAWN4",
    "hx": -2672.0,
    "hy": 3697.99,
    "hz": 486.616
   }
  },
  {
   "type": "Feature",
   "geometry": {
    "type": "Point",
    "coordinates": [
     -0.0004709471577246994,
     0.0006328312323313262
    ]
   },
   "properties": {
    "classname": "info_player_teamspawn",
    "team": "3",
    "targetname": "BLU_SPAWN4",
    "hx": -2752.01,
    "hy": 3697.99,
    "hz": 486.616
   }
  },
  {
   "type": "Feature",
   "geometry": {
    "type": "Point",
    "coordinates": [
     -0.0001656519804689736,
     0.00046530334199006656
    ]
   },
   "properties": {
    "classname": "item_healthkit_small",
    "team": "0",
    "targetname": "",
    "hx": -967.998,
    "hy": 2719.03,
    "hz": 328.0
   }
  },
  {
   "type": "Feature",
   "geometry": {
    "type": "Point",
    "coordinates": [
     -0.00016616536576645425,
     0.0004557201497665737
    ]
   },
   "properties": {
    "classname": "item_ammopack_medium",
    "team": "0",
    "targetname": "",
    "hx": -970.998,
    "hy": 2663.03,
    "hz": 328.0
   }
  },
  {
   "type": "Feature",
   "geometry": {
    "type": "Point",
    "coordinates": [
     -0.0003039240962460771,
     0.0005749932446938959
    ]
   },
   "properties": {
    "classname": "info_player_teamspawn",
    "team": "2",
    "targetname": "RED_Spawn_Avancado",
    "hx": -1776.0,
    "hy": 3360.01,
    "hz": 304.0
   }
  },
  {
   "type": "Feature",
   "geometry": {
    "type": "Point",
    "coordinates": [
     -0.0003148763159307718,
     0.0005777312996148938
    ]
   },
   "properties": {
    "classname": "info_player_teamspawn",
    "team": "2",
    "targetname": "RED_Spawn_Avancado",
    "hx": -1840.0,
    "hy": 3376.01,
    "hz": 304.0
   }
  },
  {
   "type": "Feature",
   "geometry": {
    "type": "Point",
    "coordinates": [
     -0.00032582853561532034,
     0.0005777295883305681
    ]
   },
   "properties": {
    "classname": "info_player_teamspawn",
    "team": "2",
    "targetname": "RED_Spawn_Avancado",
    "hx": -1904.0,
    "hy": 3376.0,
    "hz": 304.0
   }
  },
  {
   "type": "Feature",
   "geometry": {
    "type": "Point",
    "coordinates": [
     -0.0003039240962466657,
     0.0005859454643778876
    ]
   },
   "properties": {
    "classname": "info_player_teamspawn",
    "team": "2",
    "targetname": "RED_Spawn_Avancado",
    "hx": -1776.0,
    "hy": 3424.01,
    "hz": 304.0
   }
  },
  {
   "type": "Feature",
   "geometry": {
    "type": "Point",
    "coordinates": [
     -0.0003039240962472654,
     0.0005968976840618795
    ]
   },
   "properties": {
    "classname": "info_player_teamspawn",
    "team": "2",
    "targetname": "RED_Spawn_Avancado",
    "hx": -1776.0,
    "hy": 3488.01,
    "hz": 304.0
   }
  },
  {
   "type": "Feature",
   "geometry": {
    "type": "Point",
    "coordinates": [
     -0.00031487631593153935,
     0.0005914198629355578
    ]
   },
   "properties": {
    "classname": "info_player_teamspawn",
    "team": "2",
    "targetname": "RED_Spawn_Avancado",
    "hx": -1840.0,
    "hy": 3456.0,
    "hz": 304.0
   }
  },
  {
   "type": "Feature",
   "geometry": {
    "type": "Point",
    "coordinates": [
     -0.0003039240962480306,
     0.0006105879586668692
    ]
   },
   "properties": {
    "classname": "info_player_teamspawn",
    "team": "2",
    "targetname": "RED_Spawn_Avancado",
    "hx": -1776.0,
    "hy": 3568.01,
    "hz": 304.0
   }
  },
  {
   "type": "Feature",
   "geometry": {
    "type": "Point",
    "coordinates": [
     -0.0003148763159321268,
     0.0006016875688893001
    ]
   },
   "properties": {
    "classname": "info_player_teamspawn",
    "team": "2",
    "targetname": "RED_Spawn_Avancado",
    "hx": -1840.0,
    "hy": 3516.0,
    "hz": 304.0
   }
  },
  {
   "type": "Feature",
   "geometry": {
    "type": "Point",
    "coordinates": [
     -0.00031487631593280494,
     0.0006133243023035414
    ]
   },
   "properties": {
    "classname": "info_player_teamspawn",
    "team": "2",
    "targetname": "RED_Spawn_Avancado",
    "hx": -1840.0,
    "hy": 3584.0,
    "hz": 304.0
   }
  },
  {
   "type": "Feature",
   "geometry": {
    "type": "Point",
    "coordinates": [
     -0.00032856659053853704,
     0.000612639788573292
    ]
   },
   "properties": {
    "classname": "info_player_teamspawn",
    "team": "2",
    "targetname": "RED_Spawn_Avancado",
    "hx": -1920.0,
    "hy": 3580.0,
    "hz": 304.0
   }
  },
  {
   "type": "Feature",
   "geometry": {
    "type": "Point",
    "coordinates": [
     -0.00032856659053783036,
     0.0006010030551590506
    ]
   },
   "properties": {
    "classname": "info_player_teamspawn",
    "team": "2",
    "targetname": "RED_Spawn_Avancado",
    "hx": -1920.0,
    "hy": 3512.0,
    "hz": 304.0
   }
  },
  {
   "type": "Feature",
   "geometry": {
    "type": "Point",
    "coordinates": [
     -0.00032856659053705645,
     0.0005879972942843104
    ]
   },
   "properties": {
    "classname": "info_player_teamspawn",
    "team": "2",
    "targetname": "RED_Spawn_Avancado",
    "hx": -1920.0,
    "hy": 3436.0,
    "hz": 304.0
   }
  },
  {
   "type": "Feature",
   "geometry": {
    "type": "Point",
    "coordinates": [
     -0.00029297187656341674,
     0.0006105862473825435
    ]
   },
   "properties": {
    "classname": "info_player_teamspawn",
    "team": "2",
    "targetname": "RED_Spawn_Avancado",
    "hx": -1712.0,
    "hy": 3568.0,
    "hz": 304.0
   }
  },
  {
   "type": "Feature",
   "geometry": {
    "type": "Point",
    "coordinates": [
     -0.00029297187656267916,
     0.0005968959727775537
    ]
   },
   "properties": {
    "classname": "info_player_teamspawn",
    "team": "2",
    "targetname": "RED_Spawn_Avancado",
    "hx": -1712.0,
    "hy": 3488.0,
    "hz": 304.0
   }
  },
  {
   "type": "Feature",
   "geometry": {
    "type": "Point",
    "coordinates": [
     -0.00029297187656210106,
     0.0005859437530935619
    ]
   },
   "properties": {
    "classname": "info_player_teamspawn",
    "team": "2",
    "targetname": "RED_Spawn_Avancado",
    "hx": -1712.0,
    "hy": 3424.0,
    "hz": 304.0
   }
  },
  {
   "type": "Feature",
   "geometry": {
    "type": "Point",
    "coordinates": [
     -0.00029297187656153375,
     0.0005749915334095702
    ]
   },
   "properties": {
    "classname": "info_player_teamspawn",
    "team": "2",
    "targetname": "RED_Spawn_Avancado",
    "hx": -1712.0,
    "hy": 3360.0,
    "hz": 304.0
   }
  },
  {
   "type": "Feature",
   "geometry": {
    "type": "Point",
    "coordinates": [
     -0.00010883802536723281,
     0.0002053558303591721
    ]
   },
   "properties": {
    "classname": "info_player_teamspawn",
    "team": "3",
    "targetname": "BLU_SPAWN2",
    "hx": -636.002,
    "hy": 1200.01,
    "hz": 296.616
   }
  },
  {
   "type": "Feature",
   "geometry": {
    "type": "Point",
    "coordinates": [
     -0.00011979024505129497,
     0.0002053558303591721
    ]
   },
   "properties": {
    "classname": "info_player_teamspawn",
    "team": "3",
    "targetname": "BLU_SPAWN2",
    "hx": -700.002,
    "hy": 1200.01,
    "hz": 296.616
   }
  },
  {
   "type": "Feature",
   "geometry": {
    "type": "Point",
    "coordinates": [
     -0.0001197902450511958,
     0.0001916638444698567
    ]
   },
   "properties": {
    "classname": "info_player_teamspawn",
    "team": "3",
    "targetname": "BLU_SPAWN2",
    "hx": -700.002,
    "hy": 1120.0,
    "hz": 296.616
   }
  },
  {
   "type": "Feature",
   "geometry": {
    "type": "Point",
    "coordinates": [
     -0.0001088380253671427,
     0.0001916638444698567
    ]
   },
   "properties": {
    "classname": "info_player_teamspawn",
    "team": "3",
    "targetname": "BLU_SPAWN2",
    "hx": -636.002,
    "hy": 1120.0,
    "hz": 296.616
   }
  },
  {
   "type": "Feature",
   "geometry": {
    "type": "Point",
    "coordinates": [
     -9.78858056830896e-05,
     0.0001916638444698567
    ]
   },
   "properties": {
    "classname": "info_player_teamspawn",
    "team": "3",
    "targetname": "BLU_SPAWN2",
    "hx": -572.002,
    "hy": 1120.0,
    "hz": 296.616
   }
  },
  {
   "type": "Feature",
   "geometry": {
    "type": "Point",
    "coordinates": [
     -8.693358599903652e-05,
     0.0001916638444698567
    ]
   },
   "properties": {
    "classname": "info_player_teamspawn",
    "team": "3",
    "targetname": "BLU_SPAWN2",
    "hx": -508.002,
    "hy": 1120.0,
    "hz": 296.616
   }
  },
  {
   "type": "Feature",
   "geometry": {
    "type": "Point",
    "coordinates": [
     -9.788580568317065e-05,
     0.0002053558303591721
    ]
   },
   "properties": {
    "classname": "info_player_teamspawn",
    "team": "3",
    "targetname": "BLU_SPAWN2",
    "hx": -572.002,
    "hy": 1200.01,
    "hz": 296.616
   }
  },
  {
   "type": "Feature",
   "geometry": {
    "type": "Point",
    "coordinates": [
     -8.693358599910851e-05,
     0.0002053558303591721
    ]
   },
   "properties": {
    "classname": "info_player_teamspawn",
    "team": "3",
    "targetname": "BLU_SPAWN2",
    "hx": -508.002,
    "hy": 1200.01,
    "hz": 296.616
   }
  },
  {
   "type": "Feature",
   "geometry": {
    "type": "Point",
    "coordinates": [
     -9.788580568327525e-05,
     0.0002217824486008342
    ]
   },
   "properties": {
    "classname": "info_player_teamspawn",
    "team": "3",
    "targetname": "BLU_SPAWN2",
    "hx": -572.002,
    "hy": 1296.0,
    "hz": 296.616
   }
  },
  {
   "type": "Feature",
   "geometry": {
    "type": "Point",
    "coordinates": [
     -0.00010883802536745292,
     0.00023547443449014956
    ]
   },
   "properties": {
    "classname": "info_player_teamspawn",
    "team": "3",
    "targetname": "BLU_SPAWN2",
    "hx": -636.002,
    "hy": 1376.01,
    "hz": 296.616
   }
  },
  {
   "type": "Feature",
   "geometry": {
    "type": "Point",
    "coordinates": [
     -0.00010883802536734912,
     0.0002217824486008342
    ]
   },
   "properties": {
    "classname": "info_player_teamspawn",
    "team": "3",
    "targetname": "BLU_SPAWN2",
    "hx": -636.002,
    "hy": 1296.0,
    "hz": 296.616
   }
  },
  {
   "type": "Feature",
   "geometry": {
    "type": "Point",
    "coordinates": [
     -0.00011979024505142299,
     0.0002217824486008342
    ]
   },
   "properties": {
    "classname": "info_player_teamspawn",
    "team": "3",
    "targetname": "BLU_SPAWN2",
    "hx": -700.002,
    "hy": 1296.0,
    "hz": 296.616
   }
  },
  {
   "type": "Feature",
   "geometry": {
    "type": "Point",
    "coordinates": [
     -0.00011979024505153723,
     0.00023547443449014956
    ]
   },
   "properties": {
    "classname": "info_player_teamspawn",
    "team": "3",
    "targetname": "BLU_SPAWN2",
    "hx": -700.002,
    "hy": 1376.01,
    "hz": 296.616
   }
  },
  {
   "type": "Feature",
   "geometry": {
    "type": "Point",
    "coordinates": [
     -9.78858056833686e-05,
     0.00023547443449014956
    ]
   },
   "properties": {
    "classname": "info_player_teamspawn",
    "team": "3",
    "targetname": "BLU_SPAWN2",
    "hx": -572.002,
    "hy": 1376.01,
    "hz": 296.616
   }
  },
  {
   "type": "Feature",
   "geometry": {
    "type": "Point",
    "coordinates": [
     -8.693358599928431e-05,
     0.00023547443449014956
    ]
   },
   "properties": {
    "classname": "info_player_teamspawn",
    "team": "3",
    "targetname": "BLU_SPAWN2",
    "hx": -508.002,
    "hy": 1376.01,
    "hz": 296.616
   }
  },
  {
   "type": "Feature",
   "geometry": {
    "type": "Point",
    "coordinates": [
     -8.693358599920141e-05,
     0.0002217824486008342
    ]
   },
   "properties": {
    "classname": "info_player_teamspawn",
    "team": "3",
    "targetname": "BLU_SPAWN2",
    "hx": -508.002,
    "hy": 1296.0,
    "hz": 296.616
   }
  },
  {
   "type": "Feature",
   "geometry": {
    "type": "Point",
    "coordinates": [
     -0.00013416469113469514,
     0.0005325516821341018
    ]
   },
   "properties": {
    "classname": "info_player_teamspawn",
    "team": "",
    "targetname": "",
    "hx": -784.0,
    "hy": 3112.0,
    "hz": 193.0
   }
  },
  {
   "type": "Feature",
   "geometry": {
    "type": "Point",
    "coordinates": [
     -0.0009254608520207981,
     0.00023547272320582397
    ]
   },
   "properties": {
    "classname": "info_player_teamspawn",
    "team": "2",
    "targetname": "red_spawn_final",
    "hx": -5407.99,
    "hy": 1376.0,
    "hz": 392.616
   }
  },
  {
   "type": "Feature",
   "geometry": {
    "type": "Point",
    "coordinates": [
     -0.0009145086323367138,
     0.00023547272320582397
    ]
   },
   "properties": {
    "classname": "info_player_teamspawn",
    "team": "2",
    "targetname": "red_spawn_final",
    "hx": -5343.99,
    "hy": 1376.0,
    "hz": 392.616
   }
  },
  {
   "type": "Feature",
   "geometry": {
    "type": "Point",
    "coordinates": [
     -0.0009145086323360121,
     0.00022452050352183214
    ]
   },
   "properties": {
    "classname": "info_player_teamspawn",
    "team": "2",
    "targetname": "red_spawn_final",
    "hx": -5343.99,
    "hy": 1312.0,
    "hz": 392.616
   }
  },
  {
   "type": "Feature",
   "geometry": {
    "type": "Point",
    "coordinates": [
     -0.0009145086323353437,
     0.00021356828383784033
    ]
   },
   "properties": {
    "classname": "info_player_teamspawn",
    "team": "2",
    "targetname": "red_spawn_final",
    "hx": -5343.99,
    "hy": 1248.0,
    "hz": 392.616
   }
  },
  {
   "type": "Feature",
   "geometry": {
    "type": "Point",
    "coordinates": [
     -0.0009145086323347089,
     0.00020261606415384855
    ]
   },
   "properties": {
    "classname": "info_player_teamspawn",
    "team": "2",
    "targetname": "red_spawn_final",
    "hx": -5343.99,
    "hy": 1184.0,
    "hz": 392.616
   }
  },
  {
   "type": "Feature",
   "geometry": {
    "type": "Point",
    "coordinates": [
     -0.0009254608520187693,
     0.00020261606415384855
    ]
   },
   "properties": {
    "classname": "info_player_teamspawn",
    "team": "2",
    "targetname": "red_spawn_final",
    "hx": -5407.99,
    "hy": 1184.0,
    "hz": 392.616
   }
  },
  {
   "type": "Feature",
   "geometry": {
    "type": "Point",
    "coordinates": [
     -0.0009254608520194116,
     0.00021356828383784033
    ]
   },
   "properties": {
    "classname": "info_player_teamspawn",
    "team": "2",
    "targetname": "red_spawn_final",
    "hx": -5407.99,
    "hy": 1248.0,
    "hz": 392.616
   }
  },
  {
   "type": "Feature",
   "geometry": {
    "type": "Point",
    "coordinates": [
     -0.000925460852020088,
     0.00022452050352183214
    ]
   },
   "properties": {
    "classname": "info_player_teamspawn",
    "team": "2",
    "targetname": "red_spawn_final",
    "hx": -5407.99,
    "hy": 1312.0,
    "hz": 392.616
   }
  },
  {
   "type": "Feature",
   "geometry": {
    "type": "Point",
    "coordinates": [
     -0.0009364130717048825,
     0.00023547272320582397
    ]
   },
   "properties": {
    "classname": "info_player_teamspawn",
    "team": "2",
    "targetname": "red_spawn_final",
    "hx": -5471.99,
    "hy": 1376.0,
    "hz": 392.616
   }
  },
  {
   "type": "Feature",
   "geometry": {
    "type": "Point",
    "coordinates": [
     -0.0009364130717041639,
     0.00022452050352183214
    ]
   },
   "properties": {
    "classname": "info_player_teamspawn",
    "team": "2",
    "targetname": "red_spawn_final",
    "hx": -5471.99,
    "hy": 1312.0,
    "hz": 392.616
   }
  },
  {
   "type": "Feature",
   "geometry": {
    "type": "Point",
    "coordinates": [
     -0.0009364130717034795,
     0.00021356828383784033
    ]
   },
   "properties": {
    "classname": "info_player_teamspawn",
    "team": "2",
    "targetname": "red_spawn_final",
    "hx": -5471.99,
    "hy": 1248.0,
    "hz": 392.616
   }
  },
  {
   "type": "Feature",
   "geometry": {
    "type": "Point",
    "coordinates": [
     -0.0009364130717028295,
     0.00020261606415384855
    ]
   },
   "properties": {
    "classname": "info_player_teamspawn",
    "team": "2",
    "targetname": "red_spawn_final",
    "hx": -5471.99,
    "hy": 1184.0,
    "hz": 392.616
   }
  },
  {
   "type": "Feature",
   "geometry": {
    "type": "Point",
    "coordinates": [
     -0.0009473652913868898,
     0.00020261606415384855
    ]
   },
   "properties": {
    "classname": "info_player_teamspawn",
    "team": "2",
    "targetname": "red_spawn_final",
    "hx": -5535.99,
    "hy": 1184.0,
    "hz": 392.616
   }
  },
  {
   "type": "Feature",
   "geometry": {
    "type": "Point",
    "coordinates": [
     -0.0009473652913875474,
     0.00021356828383784033
    ]
   },
   "properties": {
    "classname": "info_player_teamspawn",
    "team": "2",
    "targetname": "red_spawn_final",
    "hx": -5535.99,
    "hy": 1248.0,
    "hz": 392.616
   }
  },
  {
   "type": "Feature",
   "geometry": {
    "type": "Point",
    "coordinates": [
     -0.0009473652913882397,
     0.00022452050352183214
    ]
   },
   "properties": {
    "classname": "info_player_teamspawn",
    "team": "2",
    "targetname": "red_spawn_final",
    "hx": -5535.99,
    "hy": 1312.0,
    "hz": 392.616
   }
  },
  {
   "type": "Feature",
   "geometry": {
    "type": "Point",
    "coordinates": [
     -0.0009473652913889667,
     0.00023547272320582397
    ]
   },
   "properties": {
    "classname": "info_player_teamspawn",
    "team": "2",
    "targetname": "red_spawn_final",
    "hx": -5535.99,
    "hy": 1376.0,
    "hz": 392.616
   }
  },
  {
   "type": "Feature",
   "geometry": {
    "type": "Point",
    "coordinates": [
     0.00019440189940776414,
     0.0007557048694797607
    ]
   },
   "properties": {
    "classname": "info_player_teamspawn",
    "team": "3",
    "targetname": "BLU_SPAWN3",
    "hx": 1136.0,
    "hy": 4416.01,
    "hz": 180.616
   }
  },
  {
   "type": "Feature",
   "geometry": {
    "type": "Point",
    "coordinates": [
     0.00018070991351680548,
     0.0007447526497957688
    ]
   },
   "properties": {
    "classname": "info_player_teamspawn",
    "team": "3",
    "targetname": "BLU_SPAWN3",
    "hx": 1055.99,
    "hy": 4352.01,
    "hz": 180.616
   }
  },
  {
   "type": "Feature",
   "geometry": {
    "type": "Point",
    "coordinates": [
     0.00021082851765032734,
     0.0007447526497957688
    ]
   },
   "properties": {
    "classname": "info_player_teamspawn",
    "team": "3",
    "targetname": "BLU_SPAWN3",
    "hx": 1231.99,
    "hy": 4352.01,
    "hz": 180.616
   }
  },
  {
   "type": "Feature",
   "geometry": {
    "type": "Point",
    "coordinates": [
     0.00022452050354024566,
     0.0007338004301117771
    ]
   },
   "properties": {
    "classname": "info_player_teamspawn",
    "team": "3",
    "targetname": "BLU_SPAWN3",
    "hx": 1312.0,
    "hy": 4288.01,
    "hz": 180.616
   }
  },
  {
   "type": "Feature",
   "geometry": {
    "type": "Point",
    "coordinates": [
     0.0001944018994067981,
     0.0007338004301117771
    ]
   },
   "properties": {
    "classname": "info_player_teamspawn",
    "team": "3",
    "targetname": "BLU_SPAWN3",
    "hx": 1136.0,
    "hy": 4288.01,
    "hz": 180.616
   }
  },
  {
   "type": "Feature",
   "geometry": {
    "type": "Point",
    "coordinates": [
     0.0001807099135163598,
     0.0007338004301117771
    ]
   },
   "properties": {
    "classname": "info_player_teamspawn",
    "team": "3",
    "targetname": "BLU_SPAWN3",
    "hx": 1055.99,
    "hy": 4288.01,
    "hz": 180.616
   }
  },
  {
   "type": "Feature",
   "geometry": {
    "type": "Point",
    "coordinates": [
     0.00021082851764980736,
     0.0007338004301117771
    ]
   },
   "properties": {
    "classname": "info_player_teamspawn",
    "team": "3",
    "targetname": "BLU_SPAWN3",
    "hx": 1231.99,
    "hy": 4288.01,
    "hz": 180.616
   }
  },
  {
   "type": "Feature",
   "geometry": {
    "type": "Point",
    "coordinates": [
     0.00022452050354079941,
     0.0007447526497957688
    ]
   },
   "properties": {
    "classname": "info_player_teamspawn",
    "team": "3",
    "targetname": "BLU_SPAWN3",
    "hx": 1312.0,
    "hy": 4352.01,
    "hz": 180.616
   }
  },
  {
   "type": "Feature",
   "geometry": {
    "type": "Point",
    "coordinates": [
     0.00019440189940727755,
     0.0007447526497957688
    ]
   },
   "properties": {
    "classname": "info_player_teamspawn",
    "team": "3",
    "targetname": "BLU_SPAWN3",
    "hx": 1136.0,
    "hy": 4352.01,
    "hz": 180.616
   }
  },
  {
   "type": "Feature",
   "geometry": {
    "type": "Point",
    "coordinates": [
     0.0001807099135172578,
     0.0007557048694797607
    ]
   },
   "properties": {
    "classname": "info_player_teamspawn",
    "team": "3",
    "targetname": "BLU_SPAWN3",
    "hx": 1055.99,
    "hy": 4416.01,
    "hz": 180.616
   }
  },
  {
   "type": "Feature",
   "geometry": {
    "type": "Point",
    "coordinates": [
     0.00021082851765085505,
     0.0007557048694797607
    ]
   },
   "properties": {
    "classname": "info_player_teamspawn",
    "team": "3",
    "targetname": "BLU_SPAWN3",
    "hx": 1231.99,
    "hy": 4416.01,
    "hz": 180.616
   }
  },
  {
   "type": "Feature",
   "geometry": {
    "type": "Point",
    "coordinates": [
     0.00021082851765139043,
     0.0007666570891637526
    ]
   },
   "properties": {
    "classname": "info_player_teamspawn",
    "team": "3",
    "targetname": "BLU_SPAWN3",
    "hx": 1231.99,
    "hy": 4480.01,
    "hz": 180.616
   }
  },
  {
   "type": "Feature",
   "geometry": {
    "type": "Point",
    "coordinates": [
     0.00022452050354193154,
     0.0007666570891637526
    ]
   },
   "properties": {
    "classname": "info_player_teamspawn",
    "team": "3",
    "targetname": "BLU_SPAWN3",
    "hx": 1312.0,
    "hy": 4480.01,
    "hz": 180.616
   }
  },
  {
   "type": "Feature",
   "geometry": {
    "type": "Point",
    "coordinates": [
     0.00022452050354136138,
     0.0007557048694797607
    ]
   },
   "properties": {
    "classname": "info_player_teamspawn",
    "team": "3",
    "targetname": "BLU_SPAWN3",
    "hx": 1312.0,
    "hy": 4416.01,
    "hz": 180.616
   }
  },
  {
   "type": "Feature",
   "geometry": {
    "type": "Point",
    "coordinates": [
     0.0001944018994082578,
     0.0007666570891637526
    ]
   },
   "properties": {
    "classname": "info_player_teamspawn",
    "team": "3",
    "targetname": "BLU_SPAWN3",
    "hx": 1136.0,
    "hy": 4480.01,
    "hz": 180.616
   }
  },
  {
   "type": "Feature",
   "geometry": {
    "type": "Point",
    "coordinates": [
     0.0001807099135177167,
     0.0007666570891637526
    ]
   },
   "properties": {
    "classname": "info_player_teamspawn",
    "team": "3",
    "targetname": "BLU_SPAWN3",
    "hx": 1055.99,
    "hy": 4480.01,
    "hz": 180.616
   }
  },
  {
   "type": "Feature",
   "geometry": {
    "type": "Point",
    "coordinates": [
     -0.00012184310172845658,
     0.00022178073731650858
    ]
   },
   "properties": {
    "classname": "info_player_teamspawn",
    "team": "3",
    "targetname": "BLU_SPAWN1",
    "hx": -711.998,
    "hy": 1295.99,
    "hz": 305.12
   }
  },
  {
   "type": "Feature",
   "geometry": {
    "type": "Point",
    "coordinates": [
     -0.00012184361511387046,
     0.00023547443449014956
    ]
   },
   "properties": {
    "classname": "info_player_teamspawn",
    "team": "3",
    "targetname": "BLU_SPAWN1",
    "hx": -712.001,
    "hy": 1376.01,
    "hz": 305.12
   }
  },
  {
   "type": "Feature",
   "geometry": {
    "type": "Point",
    "coordinates": [
     -0.00011089139542978617,
     0.00023547443449014956
    ]
   },
   "properties": {
    "classname": "info_player_teamspawn",
    "team": "3",
    "targetname": "BLU_SPAWN1",
    "hx": -648.001,
    "hy": 1376.01,
    "hz": 305.12
   }
  },
  {
   "type": "Feature",
   "geometry": {
    "type": "Point",
    "coordinates": [
     -9.993917574570185e-05,
     0.00023547443449014956
    ]
   },
   "properties": {
    "classname": "info_player_teamspawn",
    "team": "3",
    "targetname": "BLU_SPAWN1",
    "hx": -584.001,
    "hy": 1376.01,
    "hz": 305.12
   }
  },
  {
   "type": "Feature",
   "geometry": {
    "type": "Point",
    "coordinates": [
     -8.898695606161755e-05,
     0.00023547443449014956
    ]
   },
   "properties": {
    "classname": "info_player_teamspawn",
    "team": "3",
    "targetname": "BLU_SPAWN1",
    "hx": -520.001,
    "hy": 1376.01,
    "hz": 305.12
   }
  },
  {
   "type": "Feature",
   "geometry": {
    "type": "Point",
    "coordinates": [
     -8.8986442676235e-05,
     0.00022178073731650858
    ]
   },
   "properties": {
    "classname": "info_player_teamspawn",
    "team": "3",
    "targetname": "BLU_SPAWN1",
    "hx": -519.998,
    "hy": 1295.99,
    "hz": 305.12
   }
  },
  {
   "type": "Feature",
   "geometry": {
    "type": "Point",
    "coordinates": [
     -9.993866236030887e-05,
     0.00022178073731650858
    ]
   },
   "properties": {
    "classname": "info_player_teamspawn",
    "team": "3",
    "targetname": "BLU_SPAWN1",
    "hx": -583.998,
    "hy": 1295.99,
    "hz": 305.12
   }
  },
  {
   "type": "Feature",
   "geometry": {
    "type": "Point",
    "coordinates": [
     -0.00011089088204438271,
     0.00022178073731650858
    ]
   },
   "properties": {
    "classname": "info_player_teamspawn",
    "team": "3",
    "targetname": "BLU_SPAWN1",
    "hx": -647.998,
    "hy": 1295.99,
    "hz": 305.12
   }
  },
  {
   "type": "Feature",
   "geometry": {
    "type": "Point",
    "coordinates": [
     -0.0001108913954295619,
     0.00020535411907484646
    ]
   },
   "properties": {
    "classname": "info_player_teamspawn",
    "team": "3",
    "targetname": "BLU_SPAWN1",
    "hx": -648.001,
    "hy": 1200.0,
    "hz": 305.12
   }
  },
  {
   "type": "Feature",
   "geometry": {
    "type": "Point",
    "coordinates": [
     -9.993917574549974e-05,
     0.00020535411907484646
    ]
   },
   "properties": {
    "classname": "info_player_teamspawn",
    "team": "3",
    "targetname": "BLU_SPAWN1",
    "hx": -584.001,
    "hy": 1200.0,
    "hz": 305.12
   }
  },
  {
   "type": "Feature",
   "geometry": {
    "type": "Point",
    "coordinates": [
     -8.898695606143758e-05,
     0.00020535411907484646
    ]
   },
   "properties": {
    "classname": "info_player_teamspawn",
    "team": "3",
    "targetname": "BLU_SPAWN1",
    "hx": -520.001,
    "hy": 1200.0,
    "hz": 305.12
   }
  },
  {
   "type": "Feature",
   "geometry": {
    "type": "Point",
    "coordinates": [
     -8.898644267606623e-05,
     0.00019166213318553107
    ]
   },
   "properties": {
    "classname": "info_player_teamspawn",
    "team": "3",
    "targetname": "BLU_SPAWN1",
    "hx": -519.998,
    "hy": 1119.99,
    "hz": 305.12
   }
  },
  {
   "type": "Feature",
   "geometry": {
    "type": "Point",
    "coordinates": [
     -9.993866236011933e-05,
     0.00019166213318553107
    ]
   },
   "properties": {
    "classname": "info_player_teamspawn",
    "team": "3",
    "targetname": "BLU_SPAWN1",
    "hx": -583.998,
    "hy": 1119.99,
    "hz": 305.12
   }
  },
  {
   "type": "Feature",
   "geometry": {
    "type": "Point",
    "coordinates": [
     -0.0001108908820441724,
     0.00019166213318553107
    ]
   },
   "properties": {
    "classname": "info_player_teamspawn",
    "team": "3",
    "targetname": "BLU_SPAWN1",
    "hx": -647.998,
    "hy": 1119.99,
    "hz": 305.12
   }
  },
  {
   "type": "Feature",
   "geometry": {
    "type": "Point",
    "coordinates": [
     -0.00012184310172822551,
     0.00019166213318553107
    ]
   },
   "properties": {
    "classname": "info_player_teamspawn",
    "team": "3",
    "targetname": "BLU_SPAWN1",
    "hx": -711.998,
    "hy": 1119.99,
    "hz": 305.12
   }
  },
  {
   "type": "Feature",
   "geometry": {
    "type": "Point",
    "coordinates": [
     -0.00012184361511362405,
     0.00020535411907484646
    ]
   },
   "properties": {
    "classname": "info_player_teamspawn",
    "team": "3",
    "targetname": "BLU_SPAWN1",
    "hx": -712.001,
    "hy": 1200.0,
    "hz": 305.12
   }
  },
  {
   "type": "Feature",
   "geometry": {
    "type": "Point",
    "coordinates": [
     0.00022725855844381158,
     0.0001683903776413741
    ]
   },
   "properties": {
    "classname": "item_ammopack_small",
    "team": "",
    "targetname": "",
    "hx": 1328.0,
    "hy": 984.0,
    "hz": 208.0
   }
  },
  {
   "type": "Feature",
   "geometry": {
    "type": "Point",
    "coordinates": [
     0.0002005625229683045,
     0.0004127617793404414
    ]
   },
   "properties": {
    "classname": "item_healthkit_medium",
    "team": "",
    "targetname": "",
    "hx": 1172.0,
    "hy": 2412.0,
    "hz": 387.774
   }
  },
  {
   "type": "Feature",
   "geometry": {
    "type": "Point",
    "coordinates": [
     -0.0012054321015799497,
     0.00047800107168619456
    ]
   },
   "properties": {
    "classname": "item_healthkit_small",
    "team": "0",
    "targetname": "",
    "hx": -7044.02,
    "hy": 2793.23,
    "hz": 296.0
   }
  },
  {
   "type": "Feature",
   "geometry": {
    "type": "Point",
    "coordinates": [
     -0.0012054321015814036,
     0.0004862152364491884
    ]
   },
   "properties": {
    "classname": "item_ammopack_medium",
    "team": "0",
    "targetname": "",
    "hx": -7044.02,
    "hy": 2841.23,
    "hz": 296.0
   }
  },
  {
   "type": "Feature",
   "geometry": {
    "type": "Point",
    "coordinates": [
     -0.0011075432156102823,
     0.0006283887382220071
    ]
   },
   "properties": {
    "classname": "item_ammopack_medium",
    "team": "0",
    "targetname": "",
    "hx": -6472.0,
    "hy": 3672.03,
    "hz": 232.0
   }
  },
  {
   "type": "Feature",
   "geometry": {
    "type": "Point",
    "coordinates": [
     -0.0011075432156082662,
     0.0006188055459985142
    ]
   },
   "properties": {
    "classname": "item_healthkit_medium",
    "team": "0",
    "targetname": "",
    "hx": -6472.0,
    "hy": 3616.03,
    "hz": 232.0
   }
  },
  {
   "type": "Feature",
   "geometry": {
    "type": "Point",
    "coordinates": [
     -0.0009186174260752972,
     0.0007584463469694098
    ]
   },
   "properties": {
    "classname": "item_healthkit_medium",
    "team": "0",
    "targetname": "",
    "hx": -5368.0,
    "hy": 4432.03,
    "hz": 328.0
   }
  },
  {
   "type": "Feature",
   "geometry": {
    "type": "Point",
    "coordinates": [
     -0.0009186174260773438,
     0.0007680295391929027
    ]
   },
   "properties": {
    "classname": "item_ammopack_medium",
    "team": "0",
    "targetname": "",
    "hx": -5368.0,
    "hy": 4488.03,
    "hz": 328.0
   }
  },
  {
   "type": "Feature",
   "geometry": {
    "type": "Point",
    "coordinates": [
     -0.0008789156296876018,
     0.0005941630517095327
    ]
   },
   "properties": {
    "classname": "item_healthkit_medium",
    "team": "0",
    "targetname": "",
    "hx": -5136.0,
    "hy": 3472.03,
    "hz": 280.0
   }
  },
  {
   "type": "Feature",
   "geometry": {
    "type": "Point",
    "coordinates": [
     -0.0008789156296860896,
     0.0005845798594860398
    ]
   },
   "properties": {
    "classname": "item_ammopack_medium",
    "team": "0",
    "targetname": "",
    "hx": -5136.0,
    "hy": 3416.03,
    "hz": 280.0
   }
  },
  {
   "type": "Feature",
   "geometry": {
    "type": "Point",
    "coordinates": [
     -0.0006044256238307162,
     0.0004709488689802991
    ]
   },
   "properties": {
    "classname": "item_ammopack_full",
    "team": "0",
    "targetname": "",
    "hx": -3532.0,
    "hy": 2752.02,
    "hz": 488.0
   }
  },
  {
   "type": "Feature",
   "geometry": {
    "type": "Point",
    "coordinates": [
     -0.00037990512030177976,
     0.0004796781303253058
    ]
   },
   "properties": {
    "classname": "item_healthkit_small",
    "team": "0",
    "targetname": "",
    "hx": -2220.0,
    "hy": 2803.03,
    "hz": 488.0
   }
  },
  {
   "type": "Feature",
   "geometry": {
    "type": "Point",
    "coordinates": [
     -0.0004206336872517963,
     0.00045880046155269644
    ]
   },
   "properties": {
    "classname": "item_healthkit_small",
    "team": "0",
    "targetname": "",
    "hx": -2458.0,
    "hy": 2681.03,
    "hz": 408.0
   }
  },
  {
   "type": "Feature",
   "geometry": {
    "type": "Point",
    "coordinates": [
     -0.00042063882110522985,
     0.0004664995297336775
    ]
   },
   "properties": {
    "classname": "item_ammopack_full",
    "team": "0",
    "targetname": "",
    "hx": -2458.03,
    "hy": 2726.02,
    "hz": 408.0
   }
  },
  {
   "type": "Feature",
   "geometry": {
    "type": "Point",
    "coordinates": [
     -0.0006128109170244318,
     0.0004461369575430809
    ]
   },
   "properties": {
    "classname": "item_ammopack_medium",
    "team": "0",
    "targetname": "",
    "hx": -3581.0,
    "hy": 2607.03,
    "hz": 280.0
   }
  },
  {
   "type": "Feature",
   "geometry": {
    "type": "Point",
    "coordinates": [
     -0.0006124686601586334,
     0.0004380939212126494
    ]
   },
   "properties": {
    "classname": "item_healthkit_small",
    "team": "0",
    "targetname": "",
    "hx": -3579.0,
    "hy": 2560.03,
    "hz": 280.0
   }
  },
  {
   "type": "Feature",
   "geometry": {
    "type": "Point",
    "coordinates": [
     -0.0009502761860906944,
     0.0007045357568592857
    ]
   },
   "properties": {
    "classname": "item_ammopack_medium",
    "team": "0",
    "targetname": "",
    "hx": -5553.0,
    "hy": 4117.0,
    "hz": 88.0
   }
  },
  {
   "type": "Feature",
   "geometry": {
    "type": "Point",
    "coordinates": [
     -0.0009499339292239134,
     0.0006964927205288543
    ]
   },
   "properties": {
    "classname": "item_healthkit_small",
    "team": "0",
    "targetname": "",
    "hx": -5551.0,
    "hy": 4070.0,
    "hz": 88.0
   }
  },
  {
   "type": "Feature",
   "geometry": {
    "type": "Point",
    "coordinates": [
     -0.00031649347961899046,
     0.0005852592393633123
    ]
   },
   "properties": {
    "classname": "info_player_teamspawn",
    "team": "2",
    "targetname": "RED_Spawn_Avancado_2",
    "hx": -1849.45,
    "hy": 3420.0,
    "hz": 304.0
   }
  },
  {
   "type": "Feature",
   "geometry": {
    "type": "Point",
    "coordinates": [
     -0.00032548627875115274,
     0.0005945001747216805
    ]
   },
   "properties": {
    "classname": "info_player_teamspawn",
    "team": "2",
    "targetname": "RED_Spawn_Avancado_2",
    "hx": -1902.0,
    "hy": 3474.0,
    "hz": 304.0
   }
  },
  {
   "type": "Feature",
   "geometry": {
    "type": "Point",
    "coordinates": [
     -0.00033474432695377546,
     0.0006026920927884413
    ]
   },
   "properties": {
    "classname": "info_player_teamspawn",
    "team": "2",
    "targetname": "RED_Spawn_Avancado_2",
    "hx": -1956.1,
    "hy": 3521.87,
    "hz": 304.0
   }
  },
  {
   "type": "Feature",
   "geometry": {
    "type": "Point",
    "coordinates": [
     -0.0003075571528707373,
     0.0005964613065588453
    ]
   },
   "properties": {
    "classname": "info_player_teamspawn",
    "team": "2",
    "targetname": "RED_Spawn_Avancado_2",
    "hx": -1797.23,
    "hy": 3485.46,
    "hz": 304.0
   }
  },
  {
   "type": "Feature",
   "geometry": {
    "type": "Point",
    "coordinates": [
     -0.0002971525441709756,
     0.0006073690328503709
    ]
   },
   "properties": {
    "classname": "info_player_teamspawn",
    "team": "2",
    "targetname": "RED_Spawn_Avancado_2",
    "hx": -1736.43,
    "hy": 3549.2,
    "hz": 304.0
   }
  },
  {
   "type": "Feature",
   "geometry": {
    "type": "Point",
    "coordinates": [
     -0.000317617793422205,
     0.0006064398054615572
    ]
   },
   "properties": {
    "classname": "info_player_teamspawn",
    "team": "2",
    "targetname": "RED_Spawn_Avancado_2",
    "hx": -1856.02,
    "hy": 3543.77,
    "hz": 304.0
   }
  },
  {
   "type": "Feature",
   "geometry": {
    "type": "Point",
    "coordinates": [
     -0.00028375489918530276,
     0.0006147155764602737
    ]
   },
   "properties": {
    "classname": "info_player_teamspawn",
    "team": "2",
    "targetname": "RED_Spawn_Avancado_2",
    "hx": -1658.14,
    "hy": 3592.13,
    "hz": 304.0
   }
  },
  {
   "type": "Feature",
   "geometry": {
    "type": "Point",
    "coordinates": [
     -0.0003072833473798344,
     0.0006177839092561168
    ]
   },
   "properties": {
    "classname": "info_player_teamspawn",
    "team": "2",
    "targetname": "RED_Spawn_Avancado_2",
    "hx": -1795.63,
    "hy": 3610.06,
    "hz": 304.0
   }
  },
  {
   "type": "Feature",
   "geometry": {
    "type": "Point",
    "coordinates": [
     -0.0002933141334293831,
     0.0006254744210154699
    ]
   },
   "properties": {
    "classname": "info_player_teamspawn",
    "team": "2",
    "targetname": "RED_Spawn_Avancado_2",
    "hx": -1714.0,
    "hy": 3655.0,
    "hz": 304.0
   }
  },
  {
   "type": "Feature",
   "geometry": {
    "type": "Point",
    "coordinates": [
     -0.0002780905480679018,
     0.0006287583756363418
    ]
   },
   "properties": {
    "classname": "info_player_teamspawn",
    "team": "2",
    "targetname": "RED_Spawn_Avancado_2",
    "hx": -1625.04,
    "hy": 3674.19,
    "hz": 304.0
   }
  },
  {
   "type": "Feature",
   "geometry": {
    "type": "Point",
    "coordinates": [
     -0.0003169298571242326,
     0.0006227363660944719
    ]
   },
   "properties": {
    "classname": "info_player_teamspawn",
    "team": "2",
    "targetname": "RED_Spawn_Avancado_2",
    "hx": -1852.0,
    "hy": 3639.0,
    "hz": 304.0
   }
  },
  {
   "type": "Feature",
   "geometry": {
    "type": "Point",
    "coordinates": [
     -0.00032636416761140327,
     0.0006137846377871343
    ]
   },
   "properties": {
    "classname": "info_player_teamspawn",
    "team": "2",
    "targetname": "RED_Spawn_Avancado_2",
    "hx": -1907.13,
    "hy": 3586.69,
    "hz": 304.0
   }
  },
  {
   "type": "Feature",
   "geometry": {
    "type": "Point",
    "coordinates": [
     -0.00027836435355878475,
     0.0006051820114822238
    ]
   },
   "properties": {
    "classname": "info_player_teamspawn",
    "team": "2",
    "targetname": "RED_Spawn_Avancado_2",
    "hx": -1626.64,
    "hy": 3536.42,
    "hz": 304.0
   }
  },
  {
   "type": "Feature",
   "geometry": {
    "type": "Point",
    "coordinates": [
     -0.0002896844993731076,
     0.0005993585109221263
    ]
   },
   "properties": {
    "classname": "info_player_teamspawn",
    "team": "2",
    "targetname": "RED_Spawn_Avancado_2",
    "hx": -1692.79,
    "hy": 3502.39,
    "hz": 304.0
   }
  },
  {
   "type": "Feature",
   "geometry": {
    "type": "Point",
    "coordinates": [
     -0.0002994182846172336,
     0.000589131875792199
    ]
   },
   "properties": {
    "classname": "info_player_teamspawn",
    "team": "2",
    "targetname": "RED_Spawn_Avancado_2",
    "hx": -1749.67,
    "hy": 3442.63,
    "hz": 304.0
   }
  },
  {
   "type": "Feature",
   "geometry": {
    "type": "Point",
    "coordinates": [
     -0.00030700440803260796,
     0.0005796804524617792
    ]
   },
   "properties": {
    "classname": "info_player_teamspawn",
    "team": "2",
    "targetname": "RED_Spawn_Avancado_2",
    "hx": -1794.0,
    "hy": 3387.4,
    "hz": 304.0
   }
  },
  {
   "type": "Feature",
   "geometry": {
    "type": "Point",
    "coordinates": [
     -3.559471397308755e-05,
     -0.00014511691081289154
    ]
   },
   "properties": {
    "classname": "item_ammopack_full",
    "team": "",
    "targetname": "",
    "hx": -208.0,
    "hy": -848.0,
    "hz": -60.374
   }
  },
  {
   "type": "Feature",
   "geometry": {
    "type": "Point",
    "coordinates": [
     -0.0007296728123357692,
     0.0003956438022312273
    ]
   },
   "properties": {
    "classname": "team_control_point",
    "team": "",
    "targetname": "cp_three",
    "hx": -4263.89,
    "hy": 2311.97,
    "hz": 179.605
   }
  },
  {
   "type": "Feature",
   "geometry": {
    "type": "Point",
    "coordinates": [
     0.0003888037987821291,
     8.419518882068705e-05
    ]
   },
   "properties": {
    "classname": "item_healthkit_small",
    "team": "",
    "targetname": "",
    "hx": 2272.0,
    "hy": 492.0,
    "hz": 192.98
   }
  },
  {
   "type": "Feature",
   "geometry": {
    "type": "Point",
    "coordinates": [
     6.277298937897747e-05,
     0.0005886818080145599
    ]
   },
   "properties": {
    "classname": "item_ammopack_medium",
    "team": "",
    "targetname": "",
    "hx": 366.818,
    "hy": 3440.0,
    "hz": 192.256
   }
  },
  {
   "type": "Feature",
   "geometry": {
    "type": "Point",
    "coordinates": [
     -4.3902657119528476e-05,
     0.0006135330789912675
    ]
   },
   "properties": {
    "classname": "item_healthkit_medium",
    "team": "",
    "targetname": "",
    "hx": -256.548,
    "hy": 3585.22,
    "hz": 368.256
   }
  },
  {
   "type": "Feature",
   "geometry": {
    "type": "Point",
    "coordinates": [
     0.0002272585584442607,
     0.00020330057788409803
    ]
   },
   "properties": {
    "classname": "item_healthkit_small",
    "team": "",
    "targetname": "",
    "hx": 1328.0,
    "hy": 1188.0,
    "hz": 208.0
   }
  },
  {
   "type": "Feature",
   "geometry": {
    "type": "Point",
    "coordinates": [
     0.00032925110425296506,
     0.00024300237423856833
    ]
   },
   "properties": {
    "classname": "team_control_point",
    "team": "",
    "targetname": "cp_one",
    "hx": 1924.0,
    "hy": 1420.0,
    "hz": 103.605
   }
  },
  {
   "type": "Feature",
   "geometry": {
    "type": "Point",
    "coordinates": [
     -6.74129656975841e-05,
     0.0003723754692557216
    ]
   },
   "properties": {
    "classname": "team_control_point",
    "team": "",
    "targetname": "cp_two",
    "hx": -393.932,
    "hy": 2176.0,
    "hz": 202.653
   }
  },
  {
   "type": "Feature",
   "geometry": {
    "type": "Point",
    "coordinates": [
     0.0003203524257571351,
     -8.76177574719345e-05
    ]
   },
   "properties": {
    "classname": "item_ammopack_medium",
    "team": "",
    "targetname": "",
    "hx": 1872.0,
    "hy": -512.0,
    "hz": 132.0
   }
  },
  {
   "type": "Feature",
   "geometry": {
    "type": "Point",
    "coordinates": [
     0.000306828145731715,
     -8.76177574719345e-05
    ]
   },
   "properties": {
    "classname": "item_healthkit_medium",
    "team": "",
    "targetname": "",
    "hx": 1792.97,
    "hy": -512.0,
    "hz": 128.256
   }
  },
  {
   "type": "Feature",
   "geometry": {
    "type": "Point",
    "coordinates": [
     -0.0009706028212647668,
     0.0004206336872383105
    ]
   },
   "properties": {
    "classname": "team_control_point",
    "team": "",
    "targetname": "cp_four",
    "hx": -5671.78,
    "hy": 2458.0,
    "hz": 128.0
   }
  },
  {
   "type": "Feature",
   "geometry": {
    "type": "Point",
    "coordinates": [
     -0.0006044256238298357,
     0.0004606828743108825
    ]
   },
   "properties": {
    "classname": "item_healthkit_medium",
    "team": "0",
    "targetname": "",
    "hx": -3532.0,
    "hy": 2692.03,
    "hz": 488.0
   }
  },
  {
   "type": "Feature",
   "geometry": {
    "type": "Point",
    "coordinates": [
     6.961812668183367e-05,
     0.0005886818080145599
    ]
   },
   "properties": {
    "classname": "item_healthkit_small",
    "team": "",
    "targetname": "",
    "hx": 406.818,
    "hy": 3440.0,
    "hz": 192.256
   }
  },
  {
   "type": "Feature",
   "geometry": {
    "type": "Point",
    "coordinates": [
     0.00010952219684013872,
     -0.00011499830668191402
    ]
   },
   "properties": {
    "classname": "item_healthkit_full",
    "team": "",
    "targetname": "",
    "hx": 640.0,
    "hy": -672.0,
    "hz": 36.0
   }
  },
  {
   "type": "Feature",
   "geometry": {
    "type": "Point",
    "coordinates": [
     0.00046546933657717085,
     0.00032566254101917087
    ]
   },
   "properties": {
    "classname": "item_ammopack_medium",
    "team": "",
    "targetname": "",
    "hx": 2720.0,
    "hy": 1903.03,
    "hz": 320.256
   }
  },
  {
   "type": "Feature",
   "geometry": {
    "type": "Point",
    "coordinates": [
     0.00021219925638236566,
     0.0003942799086237053
    ]
   },
   "properties": {
    "classname": "item_ammopack_full",
    "team": "",
    "targetname": "",
    "hx": 1240.0,
    "hy": 2304.0,
    "hz": 387.774
   }
  },
  {
   "type": "Feature",
   "geometry": {
    "type": "Point",
    "coordinates": [
     -4.390265711942423e-05,
     0.0006006933126961128
    ]
   },
   "properties": {
    "classname": "item_ammopack_full",
    "team": "",
    "targetname": "",
    "hx": -256.548,
    "hy": 3510.19,
    "hz": 368.256
   }
  },
  {
   "type": "Feature",
   "geometry": {
    "type": "Point",
    "coordinates": [
     0.00040591664205185865,
     0.00047436801506289534
    ]
   },
   "properties": {
    "classname": "item_healthkit_small",
    "team": "",
    "targetname": "",
    "hx": 2372.0,
    "hy": 2772.0,
    "hz": 48.2561
   }
  },
  {
   "type": "Feature",
   "geometry": {
    "type": "Point",
    "coordinates": [
     0.00017523551495391272,
     0.0006134423809220096
    ]
   },
   "properties": {
    "classname": "item_ammopack_medium",
    "team": "",
    "targetname": "",
    "hx": 1024.0,
    "hy": 3584.69,
    "hz": 432.236
   }
  },
  {
   "type": "Feature",
   "geometry": {
    "type": "Point",
    "coordinates": [
     6.229074945276905e-05,
     8.316841822531282e-05
    ]
   },
   "properties": {
    "classname": "item_healthkit_small",
    "team": "",
    "targetname": "",
    "hx": 364.0,
    "hy": 486.0,
    "hz": 232.269
   }
  },
  {
   "type": "Feature",
   "geometry": {
    "type": "Point",
    "coordinates": [
     0.00039838699101881684,
     0.0004736835013326459
    ]
   },
   "properties": {
    "classname": "item_ammopack_medium",
    "team": "",
    "targetname": "",
    "hx": 2328.0,
    "hy": 2768.0,
    "hz": 48.2561
   }
  }
 ]
}
