{
 "type": "FeatureCollection",
 "note": "pseudo-WGS84 via crs.local_to_wgs84 ((0,0)m maps to (0,0)deg); viewing only, not survey",
 "features": [
  {
   "type": "Feature",
   "geometry": {
    "type": "Point",
    "coordinates": [
     -0.0002281159118956881,
     -0.0004057677603016173
    ]
   },
   "properties": {
    "classname": "info_player_teamspawn",
    "team": "3",
    "targetname": "blue_forward_spawn",
    "hx": -1333.01,
    "hy": -2371.13,
    "hz": 265.005
   }
  },
  {
   "type": "Feature",
   "geometry": {
    "type": "Point",
    "coordinates": [
     -0.00022811591189545878,
     -0.0003975518842542978
    ]
   },
   "properties": {
    "classname": "info_player_teamspawn",
    "team": "3",
    "targetname": "blue_forward_spawn",
    "hx": -1333.01,
    "hy": -2323.12,
    "hz": 265.005
   }
  },
  {
   "type": "Feature",
   "geometry": {
    "type": "Point",
    "coordinates": [
     -0.00022811591189523427,
     -0.00038933943077562957
    ]
   },
   "properties": {
    "classname": "info_player_teamspawn",
    "team": "3",
    "targetname": "blue_forward_spawn",
    "hx": -1333.01,
    "hy": -2275.13,
    "hz": 265.005
   }
  },
  {
   "type": "Feature",
   "geometry": {
    "type": "Point",
    "coordinates": [
     -0.0002281159118950143,
     -0.0003811235547283101
    ]
   },
   "properties": {
    "classname": "info_player_teamspawn",
    "team": "3",
    "targetname": "blue_forward_spawn",
    "hx": -1333.01,
    "hy": -2227.12,
    "hz": 265.005
   }
  },
  {
   "type": "Feature",
   "geometry": {
    "type": "Point",
    "coordinates": [
     -0.0002363300766588879,
     -0.00040576604901729164
    ]
   },
   "properties": {
    "classname": "info_player_teamspawn",
    "team": "3",
    "targetname": "blue_forward_spawn",
    "hx": -1381.01,
    "hy": -2371.12,
    "hz": 265.005
   }
  },
  {
   "type": "Feature",
   "geometry": {
    "type": "Point",
    "coordinates": [
     -0.0002363317879429761,
     -0.00039755359553862344
    ]
   },
   "properties": {
    "classname": "info_player_teamspawn",
    "team": "3",
    "targetname": "blue_forward_spawn",
    "hx": -1381.02,
    "hy": -2323.13,
    "hz": 265.005
   }
  },
  {
   "type": "Feature",
   "geometry": {
    "type": "Point",
    "coordinates": [
     -0.00023633007665841771,
     -0.00038933771949130395
    ]
   },
   "properties": {
    "classname": "info_player_teamspawn",
    "team": "3",
    "targetname": "blue_forward_spawn",
    "hx": -1381.01,
    "hy": -2275.12,
    "hz": 265.005
   }
  },
  {
   "type": "Feature",
   "geometry": {
    "type": "Point",
    "coordinates": [
     -0.00023633007665818998,
     -0.0003811252660126357
    ]
   },
   "properties": {
    "classname": "info_player_teamspawn",
    "team": "3",
    "targetname": "blue_forward_spawn",
    "hx": -1381.01,
    "hy": -2227.13,
    "hz": 265.005
   }
  },
  {
   "type": "Feature",
   "geometry": {
    "type": "Point",
    "coordinates": [
     -0.00024454424142136556,
     -0.0003811252660126357
    ]
   },
   "properties": {
    "classname": "info_player_teamspawn",
    "team": "3",
    "targetname": "blue_forward_spawn",
    "hx": -1429.01,
    "hy": -2227.13,
    "hz": 265.005
   }
  },
  {
   "type": "Feature",
   "geometry": {
    "type": "Point",
    "coordinates": [
     -0.00024454595270592694,
     -0.00038933943077562957
    ]
   },
   "properties": {
    "classname": "info_player_teamspawn",
    "team": "3",
    "targetname": "blue_forward_spawn",
    "hx": -1429.02,
    "hy": -2275.13,
    "hz": 265.005
   }
  },
  {
   "type": "Feature",
   "geometry": {
    "type": "Point",
    "coordinates": [
     -0.00024454424142184196,
     -0.0003975518842542978
    ]
   },
   "properties": {
    "classname": "info_player_teamspawn",
    "team": "3",
    "targetname": "blue_forward_spawn",
    "hx": -1429.01,
    "hy": -2323.12,
    "hz": 265.005
   }
  },
  {
   "type": "Feature",
   "geometry": {
    "type": "Point",
    "coordinates": [
     -0.0002445442414220878,
     -0.0004057677603016173
    ]
   },
   "properties": {
    "classname": "info_player_teamspawn",
    "team": "3",
    "targetname": "blue_forward_spawn",
    "hx": -1429.01,
    "hy": -2371.13,
    "hz": 265.005
   }
  },
  {
   "type": "Feature",
   "geometry": {
    "type": "Point",
    "coordinates": [
     -0.00025275840618528767,
     -0.0004057677603016173
    ]
   },
   "properties": {
    "classname": "info_player_teamspawn",
    "team": "3",
    "targetname": "blue_forward_spawn",
    "hx": -1477.01,
    "hy": -2371.13,
    "hz": 265.005
   }
  },
  {
   "type": "Feature",
   "geometry": {
    "type": "Point",
    "coordinates": [
     -0.00025275840618503353,
     -0.0003975518842542978
    ]
   },
   "properties": {
    "classname": "info_player_teamspawn",
    "team": "3",
    "targetname": "blue_forward_spawn",
    "hx": -1477.01,
    "hy": -2323.12,
    "hz": 265.005
   }
  },
  {
   "type": "Feature",
   "geometry": {
    "type": "Point",
    "coordinates": [
     -0.0002527584061847848,
     -0.00038933943077562957
    ]
   },
   "properties": {
    "classname": "info_player_teamspawn",
    "team": "3",
    "targetname": "blue_forward_spawn",
    "hx": -1477.01,
    "hy": -2275.13,
    "hz": 265.005
   }
  },
  {
   "type": "Feature",
   "geometry": {
    "type": "Point",
    "coordinates": [
     -0.0002527584061845411,
     -0.0003811235547283101
    ]
   },
   "properties": {
    "classname": "info_player_teamspawn",
    "team": "3",
    "targetname": "blue_forward_spawn",
    "hx": -1477.01,
    "hy": -2227.12,
    "hz": 265.005
   }
  },
  {
   "type": "Feature",
   "geometry": {
    "type": "Point",
    "coordinates": [
     0.00038960981373162984,
     -0.0007406438561299463
    ]
   },
   "properties": {
    "classname": "info_player_teamspawn",
    "team": "3",
    "targetname": "blue_forward_2_spawn",
    "hx": 2276.71,
    "hy": -4328.0,
    "hz": 608.005
   }
  },
  {
   "type": "Feature",
   "geometry": {
    "type": "Point",
    "coordinates": [
     0.0003824960047890642,
     -0.0007365367737484494
    ]
   },
   "properties": {
    "classname": "info_player_teamspawn",
    "team": "3",
    "targetname": "blue_forward_2_spawn",
    "hx": 2235.14,
    "hy": -4304.0,
    "hz": 608.005
   }
  },
  {
   "type": "Feature",
   "geometry": {
    "type": "Point",
    "coordinates": [
     0.00037538219584651387,
     -0.0007324314026512781
    ]
   },
   "properties": {
    "classname": "info_player_teamspawn",
    "team": "3",
    "targetname": "blue_forward_2_spawn",
    "hx": 2193.57,
    "hy": -4280.01,
    "hz": 608.005
   }
  },
  {
   "type": "Feature",
   "geometry": {
    "type": "Point",
    "coordinates": [
     0.0003682683869039781,
     -0.0007283226089854555
    ]
   },
   "properties": {
    "classname": "info_player_teamspawn",
    "team": "3",
    "targetname": "blue_forward_2_spawn",
    "hx": 2152.0,
    "hy": -4256.0,
    "hz": 608.005
   }
  },
  {
   "type": "Feature",
   "geometry": {
    "type": "Point",
    "coordinates": [
     0.00038550102006608563,
     -0.0007477576650715641
    ]
   },
   "properties": {
    "classname": "info_player_teamspawn",
    "team": "3",
    "targetname": "blue_forward_2_spawn",
    "hx": 2252.7,
    "hy": -4369.57,
    "hz": 608.005
   }
  },
  {
   "type": "Feature",
   "geometry": {
    "type": "Point",
    "coordinates": [
     0.0003783889224078349,
     -0.0007436522939743927
    ]
   },
   "properties": {
    "classname": "info_player_teamspawn",
    "team": "3",
    "targetname": "blue_forward_2_spawn",
    "hx": 2211.14,
    "hy": -4345.58,
    "hz": 608.005
   }
  },
  {
   "type": "Feature",
   "geometry": {
    "type": "Point",
    "coordinates": [
     0.0003712734021809475,
     -0.0007395435003085701
    ]
   },
   "properties": {
    "classname": "info_player_teamspawn",
    "team": "3",
    "targetname": "blue_forward_2_spawn",
    "hx": 2169.56,
    "hy": -4321.57,
    "hz": 608.005
   }
  },
  {
   "type": "Feature",
   "geometry": {
    "type": "Point",
    "coordinates": [
     0.000364161304522727,
     -0.0007354381292113989
    ]
   },
   "properties": {
    "classname": "info_player_teamspawn",
    "team": "3",
    "targetname": "blue_forward_2_spawn",
    "hx": 2128.0,
    "hy": -4297.58,
    "hz": 608.005
   }
  },
  {
   "type": "Feature",
   "geometry": {
    "type": "Point",
    "coordinates": [
     0.00040256252479339225,
     -0.0007410220499659092
    ]
   },
   "properties": {
    "classname": "info_player_teamspawn",
    "team": "3",
    "targetname": "blue_forward_2_spawn",
    "hx": 2352.4,
    "hy": -4330.21,
    "hz": 608.005
   }
  },
  {
   "type": "Feature",
   "geometry": {
    "type": "Point",
    "coordinates": [
     0.0004104977502121707,
     -0.000743150887666985
    ]
   },
   "properties": {
    "classname": "info_player_teamspawn",
    "team": "3",
    "targetname": "blue_forward_2_spawn",
    "hx": 2398.77,
    "hy": -4342.65,
    "hz": 608.005
   }
  },
  {
   "type": "Feature",
   "geometry": {
    "type": "Point",
    "coordinates": [
     0.0004184295530623054,
     -0.0007452763027994097
    ]
   },
   "properties": {
    "classname": "info_player_teamspawn",
    "team": "3",
    "targetname": "blue_forward_2_spawn",
    "hx": 2445.12,
    "hy": -4355.07,
    "hz": 608.005
   }
  },
  {
   "type": "Feature",
   "geometry": {
    "type": "Point",
    "coordinates": [
     0.00042636648976542555,
     -0.0007474000066475087
    ]
   },
   "properties": {
    "classname": "info_player_teamspawn",
    "team": "3",
    "targetname": "blue_forward_2_spawn",
    "hx": 2491.5,
    "hy": -4367.48,
    "hz": 608.005
   }
  },
  {
   "type": "Feature",
   "geometry": {
    "type": "Point",
    "coordinates": [
     0.00042423936334926504,
     -0.0007553369433497514
    ]
   },
   "properties": {
    "classname": "info_player_teamspawn",
    "team": "3",
    "targetname": "blue_forward_2_spawn",
    "hx": 2479.07,
    "hy": -4413.86,
    "hz": 608.005
   }
  },
  {
   "type": "Feature",
   "geometry": {
    "type": "Point",
    "coordinates": [
     0.00041630413793045454,
     -0.0007532081056486757
    ]
   },
   "properties": {
    "classname": "info_player_teamspawn",
    "team": "3",
    "targetname": "blue_forward_2_spawn",
    "hx": 2432.7,
    "hy": -4401.42,
    "hz": 608.005
   }
  },
  {
   "type": "Feature",
   "geometry": {
    "type": "Point",
    "coordinates": [
     0.00040837062379597865,
     -0.000751082690516251
    ]
   },
   "properties": {
    "classname": "info_player_teamspawn",
    "team": "3",
    "targetname": "blue_forward_2_spawn",
    "hx": 2386.34,
    "hy": -4389.0,
    "hz": 608.005
   }
  },
  {
   "type": "Feature",
   "geometry": {
    "type": "Point",
    "coordinates": [
     0.00040043539837718534,
     -0.000748958986668152
    ]
   },
   "properties": {
    "classname": "info_player_teamspawn",
    "team": "3",
    "targetname": "blue_forward_2_spawn",
    "hx": 2339.97,
    "hy": -4376.59,
    "hz": 608.005
   }
  },
  {
   "type": "Feature",
   "geometry": {
    "type": "Point",
    "coordinates": [
     0.0004380887873632021,
     0.00022999661336382804
    ]
   },
   "properties": {
    "classname": "info_player_teamspawn",
    "team": "2",
    "targetname": "",
    "hx": 2560.0,
    "hy": 1344.0,
    "hz": 768.0
   }
  },
  {
   "type": "Feature",
   "geometry": {
    "type": "Point",
    "coordinates": [
     0.000427136567679122,
     0.00022999661336382804
    ]
   },
   "properties": {
    "classname": "info_player_teamspawn",
    "team": "2",
    "targetname": "",
    "hx": 2496.0,
    "hy": 1344.0,
    "hz": 768.0
   }
  },
  {
   "type": "Feature",
   "geometry": {
    "type": "Point",
    "coordinates": [
     0.00041618434799504196,
     0.00022999661336382804
    ]
   },
   "properties": {
    "classname": "info_player_teamspawn",
    "team": "2",
    "targetname": "",
    "hx": 2432.0,
    "hy": 1344.0,
    "hz": 768.0
   }
  },
  {
   "type": "Feature",
   "geometry": {
    "type": "Point",
    "coordinates": [
     0.000405232128310962,
     0.00022999661336382804
    ]
   },
   "properties": {
    "classname": "info_player_teamspawn",
    "team": "2",
    "targetname": "",
    "hx": 2368.0,
    "hy": 1344.0,
    "hz": 768.0
   }
  },
  {
   "type": "Feature",
   "geometry": {
    "type": "Point",
    "coordinates": [
     0.00039427990862688194,
     0.00022999661336382804
    ]
   },
   "properties": {
    "classname": "info_player_teamspawn",
    "team": "2",
    "targetname": "",
    "hx": 2304.0,
    "hy": 1344.0,
    "hz": 768.0
   }
  },
  {
   "type": "Feature",
   "geometry": {
    "type": "Point",
    "coordinates": [
     0.0003833276889428019,
     0.00022999661336382804
    ]
   },
   "properties": {
    "classname": "info_player_teamspawn",
    "team": "2",
    "targetname": "",
    "hx": 2240.0,
    "hy": 1344.0,
    "hz": 768.0
   }
  },
  {
   "type": "Feature",
   "geometry": {
    "type": "Point",
    "coordinates": [
     0.00043808878736287395,
     0.00021904439367983623
    ]
   },
   "properties": {
    "classname": "info_player_teamspawn",
    "team": "2",
    "targetname": "",
    "hx": 2560.0,
    "hy": 1280.0,
    "hz": 768.0
   }
  },
  {
   "type": "Feature",
   "geometry": {
    "type": "Point",
    "coordinates": [
     0.00042713656767880213,
     0.00021904439367983623
    ]
   },
   "properties": {
    "classname": "info_player_teamspawn",
    "team": "2",
    "targetname": "",
    "hx": 2496.0,
    "hy": 1280.0,
    "hz": 768.0
   }
  },
  {
   "type": "Feature",
   "geometry": {
    "type": "Point",
    "coordinates": [
     0.00041618434799473025,
     0.00021904439367983623
    ]
   },
   "properties": {
    "classname": "info_player_teamspawn",
    "team": "2",
    "targetname": "",
    "hx": 2432.0,
    "hy": 1280.0,
    "hz": 768.0
   }
  },
  {
   "type": "Feature",
   "geometry": {
    "type": "Point",
    "coordinates": [
     0.0004052321283106585,
     0.00021904439367983623
    ]
   },
   "properties": {
    "classname": "info_player_teamspawn",
    "team": "2",
    "targetname": "",
    "hx": 2368.0,
    "hy": 1280.0,
    "hz": 768.0
   }
  },
  {
   "type": "Feature",
   "geometry": {
    "type": "Point",
    "coordinates": [
     0.0003942799086265866,
     0.00021904439367983623
    ]
   },
   "properties": {
    "classname": "info_player_teamspawn",
    "team": "2",
    "targetname": "",
    "hx": 2304.0,
    "hy": 1280.0,
    "hz": 768.0
   }
  },
  {
   "type": "Feature",
   "geometry": {
    "type": "Point",
    "coordinates": [
     0.00038332768894251473,
     0.00021904439367983623
    ]
   },
   "properties": {
    "classname": "info_player_teamspawn",
    "team": "2",
    "targetname": "",
    "hx": 2240.0,
    "hy": 1280.0,
    "hz": 768.0
   }
  },
  {
   "type": "Feature",
   "geometry": {
    "type": "Point",
    "coordinates": [
     0.00045999322673101765,
     0.00021904439367983623
    ]
   },
   "properties": {
    "classname": "info_player_teamspawn",
    "team": "2",
    "targetname": "",
    "hx": 2688.0,
    "hy": 1280.0,
    "hz": 768.0
   }
  },
  {
   "type": "Feature",
   "geometry": {
    "type": "Point",
    "coordinates": [
     0.0004599932267313622,
     0.00022999661336382804
    ]
   },
   "properties": {
    "classname": "info_player_teamspawn",
    "team": "2",
    "targetname": "",
    "hx": 2688.0,
    "hy": 1344.0,
    "hz": 768.0
   }
  },
  {
   "type": "Feature",
   "geometry": {
    "type": "Point",
    "coordinates": [
     0.00044904100704728215,
     0.00022999661336382804
    ]
   },
   "properties": {
    "classname": "info_player_teamspawn",
    "team": "2",
    "targetname": "",
    "hx": 2624.0,
    "hy": 1344.0,
    "hz": 768.0
   }
  },
  {
   "type": "Feature",
   "geometry": {
    "type": "Point",
    "coordinates": [
     0.00044904100704694583,
     0.00021904439367983623
    ]
   },
   "properties": {
    "classname": "info_player_teamspawn",
    "team": "2",
    "targetname": "",
    "hx": 2624.0,
    "hy": 1280.0,
    "hz": 768.0
   }
  },
  {
   "type": "Feature",
   "geometry": {
    "type": "Point",
    "coordinates": [
     0.0003381497827435608,
     -7.803456524844166e-05
    ]
   },
   "properties": {
    "classname": "item_healthkit_full",
    "team": "0",
    "targetname": "plank_health",
    "hx": 1976.0,
    "hy": -456.0,
    "hz": 528.0
   }
  },
  {
   "type": "Feature",
   "geometry": {
    "type": "Point",
    "coordinates": [
     -0.0002477956816347836,
     6.160452443812832e-05
    ]
   },
   "properties": {
    "classname": "info_player_teamspawn",
    "team": "3",
    "targetname": "blu_primary_spawns",
    "hx": -1448.01,
    "hy": 359.99,
    "hz": 201.0
   }
  },
  {
   "type": "Feature",
   "geometry": {
    "type": "Point",
    "coordinates": [
     -0.00024779568163483905,
     7.255674412212014e-05
    ]
   },
   "properties": {
    "classname": "info_player_teamspawn",
    "team": "3",
    "targetname": "blu_primary_spawns",
    "hx": -1448.01,
    "hy": 423.99,
    "hz": 201.0
   }
  },
  {
   "type": "Feature",
   "geometry": {
    "type": "Point",
    "coordinates": [
     -0.00024779568163490356,
     8.350896380611193e-05
    ]
   },
   "properties": {
    "classname": "info_player_teamspawn",
    "team": "3",
    "targetname": "blu_primary_spawns",
    "hx": -1448.01,
    "hy": 487.99,
    "hz": 201.0
   }
  },
  {
   "type": "Feature",
   "geometry": {
    "type": "Point",
    "coordinates": [
     -0.0002477956816349771,
     9.446118349010376e-05
    ]
   },
   "properties": {
    "classname": "info_player_teamspawn",
    "team": "3",
    "targetname": "blu_primary_spawns",
    "hx": -1448.01,
    "hy": 551.99,
    "hz": 201.0
   }
  },
  {
   "type": "Feature",
   "geometry": {
    "type": "Point",
    "coordinates": [
     -0.00023958151687197208,
     9.446118349010376e-05
    ]
   },
   "properties": {
    "classname": "info_player_teamspawn",
    "team": "3",
    "targetname": "blu_primary_spawns",
    "hx": -1400.01,
    "hy": 551.99,
    "hz": 201.0
   }
  },
  {
   "type": "Feature",
   "geometry": {
    "type": "Point",
    "coordinates": [
     -0.00023958151687190096,
     8.350896380611193e-05
    ]
   },
   "properties": {
    "classname": "info_player_teamspawn",
    "team": "3",
    "targetname": "blu_primary_spawns",
    "hx": -1400.01,
    "hy": 487.99,
    "hz": 201.0
   }
  },
  {
   "type": "Feature",
   "geometry": {
    "type": "Point",
    "coordinates": [
     -0.00023958151687183862,
     7.255674412212014e-05
    ]
   },
   "properties": {
    "classname": "info_player_teamspawn",
    "team": "3",
    "targetname": "blu_primary_spawns",
    "hx": -1400.01,
    "hy": 423.99,
    "hz": 201.0
   }
  },
  {
   "type": "Feature",
   "geometry": {
    "type": "Point",
    "coordinates": [
     -0.00023958151687178495,
     6.160452443812832e-05
    ]
   },
   "properties": {
    "classname": "info_player_teamspawn",
    "team": "3",
    "targetname": "blu_primary_spawns",
    "hx": -1400.01,
    "hy": 359.99,
    "hz": 201.0
   }
  },
  {
   "type": "Feature",
   "geometry": {
    "type": "Point",
    "coordinates": [
     -0.00023136735210896707,
     9.446118349010376e-05
    ]
   },
   "properties": {
    "classname": "info_player_teamspawn",
    "team": "3",
    "targetname": "blu_primary_spawns",
    "hx": -1352.01,
    "hy": 551.99,
    "hz": 201.0
   }
  },
  {
   "type": "Feature",
   "geometry": {
    "type": "Point",
    "coordinates": [
     -0.0002313673521088984,
     8.350896380611193e-05
    ]
   },
   "properties": {
    "classname": "info_player_teamspawn",
    "team": "3",
    "targetname": "blu_primary_spawns",
    "hx": -1352.01,
    "hy": 487.99,
    "hz": 201.0
   }
  },
  {
   "type": "Feature",
   "geometry": {
    "type": "Point",
    "coordinates": [
     -0.00023136735210883816,
     7.255674412212014e-05
    ]
   },
   "properties": {
    "classname": "info_player_teamspawn",
    "team": "3",
    "targetname": "blu_primary_spawns",
    "hx": -1352.01,
    "hy": 423.99,
    "hz": 201.0
   }
  },
  {
   "type": "Feature",
   "geometry": {
    "type": "Point",
    "coordinates": [
     -0.00023136735210878636,
     6.160452443812832e-05
    ]
   },
   "properties": {
    "classname": "info_player_teamspawn",
    "team": "3",
    "targetname": "blu_primary_spawns",
    "hx": -1352.01,
    "hy": 359.99,
    "hz": 201.0
   }
  },
  {
   "type": "Feature",
   "geometry": {
    "type": "Point",
    "coordinates": [
     -0.00022315318734596206,
     9.446118349010376e-05
    ]
   },
   "properties": {
    "classname": "info_player_teamspawn",
    "team": "3",
    "targetname": "blu_primary_spawns",
    "hx": -1304.01,
    "hy": 551.99,
    "hz": 201.0
   }
  },
  {
   "type": "Feature",
   "geometry": {
    "type": "Point",
    "coordinates": [
     -0.00022315318734589582,
     8.350896380611193e-05
    ]
   },
   "properties": {
    "classname": "info_player_teamspawn",
    "team": "3",
    "targetname": "blu_primary_spawns",
    "hx": -1304.01,
    "hy": 487.99,
    "hz": 201.0
   }
  },
  {
   "type": "Feature",
   "geometry": {
    "type": "Point",
    "coordinates": [
     -0.00022315318734583773,
     7.255674412212014e-05
    ]
   },
   "properties": {
    "classname": "info_player_teamspawn",
    "team": "3",
    "targetname": "blu_primary_spawns",
    "hx": -1304.01,
    "hy": 423.99,
    "hz": 201.0
   }
  },
  {
   "type": "Feature",
   "geometry": {
    "type": "Point",
    "coordinates": [
     -0.00022315318734578778,
     6.160452443812832e-05
    ]
   },
   "properties": {
    "classname": "info_player_teamspawn",
    "team": "3",
    "targetname": "blu_primary_spawns",
    "hx": -1304.01,
    "hy": 359.99,
    "hz": 201.0
   }
  },
  {
   "type": "Feature",
   "geometry": {
    "type": "Point",
    "coordinates": [
     0.00021630633877134215,
     -0.0006160623572245393
    ]
   },
   "properties": {
    "classname": "item_healthkit_small",
    "team": "",
    "targetname": "",
    "hx": 1264.0,
    "hy": -3600.0,
    "hz": 448.0
   }
  },
  {
   "type": "Feature",
   "geometry": {
    "type": "Point",
    "coordinates": [
     -0.0001396408009730783,
     -0.0003203524257567605
    ]
   },
   "properties": {
    "classname": "item_ammopack_medium",
    "team": "",
    "targetname": "",
    "hx": -816.0,
    "hy": -1872.0,
    "hz": 264.0
   }
  },
  {
   "type": "Feature",
   "geometry": {
    "type": "Point",
    "coordinates": [
     -0.00013964080097300432,
     -0.0003148763159147646
    ]
   },
   "properties": {
    "classname": "item_healthkit_medium",
    "team": "",
    "targetname": "",
    "hx": -816.0,
    "hy": -1840.0,
    "hz": 264.0
   }
  },
  {
   "type": "Feature",
   "geometry": {
    "type": "Point",
    "coordinates": [
     0.0004490410070445262,
     -0.00011226025176091607
    ]
   },
   "properties": {
    "classname": "item_ammopack_medium",
    "team": "",
    "targetname": "",
    "hx": 2624.0,
    "hy": -656.0,
    "hz": 656.0
   }
  },
  {
   "type": "Feature",
   "geometry": {
    "type": "Point",
    "coordinates": [
     0.00044904100704444414,
     -0.00010678414191892016
    ]
   },
   "properties": {
    "classname": "item_healthkit_medium",
    "team": "",
    "targetname": "",
    "hx": 2624.0,
    "hy": -624.0,
    "hz": 656.0
   }
  },
  {
   "type": "Feature",
   "geometry": {
    "type": "Point",
    "coordinates": [
     0.00036963741435705125,
     -0.0006297526318295292
    ]
   },
   "properties": {
    "classname": "item_healthkit_medium",
    "team": "",
    "targetname": "",
    "hx": 2160.0,
    "hy": -3680.0,
    "hz": 592.0
   }
  },
  {
   "type": "Feature",
   "geometry": {
    "type": "Point",
    "coordinates": [
     0.0003751135241993779,
     -0.0006297526318295292
    ]
   },
   "properties": {
    "classname": "item_ammopack_medium",
    "team": "",
    "targetname": "",
    "hx": 2192.0,
    "hy": -3680.0,
    "hz": 592.0
   }
  },
  {
   "type": "Feature",
   "geometry": {
    "type": "Point",
    "coordinates": [
     0.00032856659051976034,
     1.0952219683991812e-05
    ]
   },
   "properties": {
    "classname": "item_healthkit_small",
    "team": "",
    "targetname": "",
    "hx": 1920.0,
    "hy": 64.0,
    "hz": 720.0
   }
  },
  {
   "type": "Feature",
   "geometry": {
    "type": "Point",
    "coordinates": [
     0.00032309048067776435,
     1.0952219683991812e-05
    ]
   },
   "properties": {
    "classname": "item_ammopack_medium",
    "team": "",
    "targetname": "",
    "hx": 1888.0,
    "hy": 64.0,
    "hz": 720.0
   }
  },
  {
   "type": "Feature",
   "geometry": {
    "type": "Point",
    "coordinates": [
     0.00020535411907773553,
     -0.00030392409623077277
    ]
   },
   "properties": {
    "classname": "item_ammopack_medium",
    "team": "",
    "targetname": "",
    "hx": 1200.0,
    "hy": -1776.0,
    "hz": 592.0
   }
  },
  {
   "type": "Feature",
   "geometry": {
    "type": "Point",
    "coordinates": [
     7.94035927111755e-05,
     -0.0004298746225966786
    ]
   },
   "properties": {
    "classname": "item_healthkit_small",
    "team": "",
    "targetname": "",
    "hx": 464.0,
    "hy": -2512.0,
    "hz": 80.0
   }
  },
  {
   "type": "Feature",
   "geometry": {
    "type": "Point",
    "coordinates": [
     0.00025190105273298986,
     -0.000175235514943869
    ]
   },
   "properties": {
    "classname": "item_ammopack_full",
    "team": "",
    "targetname": "",
    "hx": 1472.0,
    "hy": -1024.0,
    "hz": 496.0
   }
  },
  {
   "type": "Feature",
   "geometry": {
    "type": "Point",
    "coordinates": [
     0.0002628532724170329,
     -0.000175235514943869
    ]
   },
   "properties": {
    "classname": "item_healthkit_medium",
    "team": "",
    "targetname": "",
    "hx": 1536.0,
    "hy": -1024.0,
    "hz": 496.0
   }
  },
  {
   "type": "Feature",
   "geometry": {
    "type": "Point",
    "coordinates": [
     0.00038606574386251705,
     -0.000175235514943869
    ]
   },
   "properties": {
    "classname": "item_ammopack_small",
    "team": "",
    "targetname": "",
    "hx": 2256.0,
    "hy": -1024.0,
    "hz": 496.0
   }
  },
  {
   "type": "Feature",
   "geometry": {
    "type": "Point",
    "coordinates": [
     0.00018892578954971497,
     -0.00017249746002287103
    ]
   },
   "properties": {
    "classname": "item_healthkit_medium",
    "team": "",
    "targetname": "",
    "hx": 1104.0,
    "hy": -1008.0,
    "hz": 656.0
   }
  },
  {
   "type": "Feature",
   "geometry": {
    "type": "Point",
    "coordinates": [
     0.00020261606415385988,
     1.916638444698567e-05
    ]
   },
   "properties": {
    "classname": "item_ammopack_small",
    "team": "",
    "targetname": "",
    "hx": 1184.0,
    "hy": 112.0,
    "hz": 720.0
   }
  },
  {
   "type": "Feature",
   "geometry": {
    "type": "Point",
    "coordinates": [
     9.856997715601455e-05,
     -7.666553778794268e-05
    ]
   },
   "properties": {
    "classname": "item_ammopack_medium",
    "team": "",
    "targetname": "",
    "hx": 576.0,
    "hy": -448.0,
    "hz": 656.0
   }
  },
  {
   "type": "Feature",
   "geometry": {
    "type": "Point",
    "coordinates": [
     0.00032856659052013856,
     -8.76177574719345e-05
    ]
   },
   "properties": {
    "classname": "team_control_point",
    "team": "",
    "targetname": "cp_three",
    "hx": 1920.0,
    "hy": -512.0,
    "hz": 792.0
   }
  },
  {
   "type": "Feature",
   "geometry": {
    "type": "Point",
    "coordinates": [
     0.00033678075528965326,
     -0.00036689935941372574
    ]
   },
   "properties": {
    "classname": "team_control_point",
    "team": "",
    "targetname": "cp_two",
    "hx": 1968.0,
    "hy": -2144.0,
    "hz": 584.0
   }
  },
  {
   "type": "Feature",
   "geometry": {
    "type": "Point",
    "coordinates": [
     0.00014384508430680885,
     -0.0004641978523157136
    ]
   },
   "properties": {
    "classname": "team_control_point",
    "team": "",
    "targetname": "cp_one",
    "hx": 840.568,
    "hy": -2712.57,
    "hz": 360.0
   }
  },
  {
   "type": "Feature",
   "geometry": {
    "type": "Point",
    "coordinates": [
     0.0002163063387711208,
     -0.0006105862473825435
    ]
   },
   "properties": {
    "classname": "item_ammopack_medium",
    "team": "",
    "targetname": "",
    "hx": 1264.0,
    "hy": -3568.0,
    "hz": 448.0
   }
  },
  {
   "type": "Feature",
   "geometry": {
    "type": "Point",
    "coordinates": [
     0.000438088787367364,
     -0.0003395188102037462
    ]
   },
   "properties": {
    "classname": "item_ammopack_medium",
    "team": "",
    "targetname": "",
    "hx": 2560.0,
    "hy": -1984.0,
    "hz": 752.0
   }
  },
  {
   "type": "Feature",
   "geometry": {
    "type": "Point",
    "coordinates": [
     0.0004271365676831799,
     -0.0003395188102037462
    ]
   },
   "properties": {
    "classname": "item_healthkit_small",
    "team": "",
    "targetname": "",
    "hx": 2496.0,
    "hy": -1984.0,
    "hz": 752.0
   }
  },
  {
   "type": "Feature",
   "geometry": {
    "type": "Point",
    "coordinates": [
     0.0003997560184769525,
     -0.0004298746225966786
    ]
   },
   "properties": {
    "classname": "item_healthkit_medium",
    "team": "",
    "targetname": "",
    "hx": 2336.0,
    "hy": -2512.0,
    "hz": 592.256
   }
  },
  {
   "type": "Feature",
   "geometry": {
    "type": "Point",
    "coordinates": [
     0.00040797018324017755,
     -0.0004298746225966786
    ]
   },
   "properties": {
    "classname": "item_ammopack_medium",
    "team": "",
    "targetname": "",
    "hx": 2384.0,
    "hy": -2512.0,
    "hz": 592.256
   }
  },
  {
   "type": "Feature",
   "geometry": {
    "type": "Point",
    "coordinates": [
     1.23212471452777e-05,
     -0.0006475499888160159
    ]
   },
   "properties": {
    "classname": "item_ammopack_medium",
    "team": "0",
    "targetname": "",
    "hx": 72.0,
    "hy": -3784.0,
    "hz": 352.0
   }
  },
  {
   "type": "Feature",
   "geometry": {
    "type": "Point",
    "coordinates": [
     1.232124714526445e-05,
     -0.0006420738789740199
    ]
   },
   "properties": {
    "classname": "item_healthkit_medium",
    "team": "0",
    "targetname": "",
    "hx": 72.0,
    "hy": -3752.0,
    "hz": 351.98
   }
  },
  {
   "type": "Feature",
   "geometry": {
    "type": "Point",
    "coordinates": [
     -4.92849885802142e-05,
     -0.0005476109841995906
    ]
   },
   "properties": {
    "classname": "item_healthkit_small",
    "team": "0",
    "targetname": "",
    "hx": -288.0,
    "hy": -3200.0,
    "hz": 208.0
   }
  },
  {
   "type": "Feature",
   "geometry": {
    "type": "Point",
    "coordinates": [
     -0.0001259505263686447,
     -0.00037785157909771754
    ]
   },
   "properties": {
    "classname": "item_ammopack_medium",
    "team": "0",
    "targetname": "",
    "hx": -736.0,
    "hy": -2208.0,
    "hz": 72.2562
   }
  },
  {
   "type": "Feature",
   "geometry": {
    "type": "Point",
    "coordinates": [
     -0.00012595052636872465,
     -0.0003833276889397134
    ]
   },
   "properties": {
    "classname": "item_healthkit_medium",
    "team": "0",
    "targetname": "",
    "hx": -736.0,
    "hy": -2240.0,
    "hz": 72.2562
   }
  },
  {
   "type": "Feature",
   "geometry": {
    "type": "Point",
    "coordinates": [
     8.214164763043842e-06,
     -0.00019987800923285058
    ]
   },
   "properties": {
    "classname": "item_ammopack_medium",
    "team": "0",
    "targetname": "",
    "hx": 48.0,
    "hy": -1168.0,
    "hz": 72.2361
   }
  },
  {
   "type": "Feature",
   "geometry": {
    "type": "Point",
    "coordinates": [
     3.2856659052396985e-05,
     -0.00029023382162578307
    ]
   },
   "properties": {
    "classname": "item_ammopack_medium",
    "team": "0",
    "targetname": "",
    "hx": 192.0,
    "hy": -1696.0,
    "hz": 80.2562
   }
  },
  {
   "type": "Feature",
   "geometry": {
    "type": "Point",
    "coordinates": [
     -8.077330468392571e-05,
     -0.0002478675555763166
    ]
   },
   "properties": {
    "classname": "item_ammopack_medium",
    "team": "0",
    "targetname": "",
    "hx": -472.004,
    "hy": -1448.43,
    "hz": -23.7438
   }
  },
  {
   "type": "Feature",
   "geometry": {
    "type": "Point",
    "coordinates": [
     0.00022452050352941657,
     -0.00047094544641164795
    ]
   },
   "properties": {
    "classname": "item_ammopack_medium",
    "team": "0",
    "targetname": "",
    "hx": 1312.0,
    "hy": -2752.0,
    "hz": 368.0
   }
  },
  {
   "type": "Feature",
   "geometry": {
    "type": "Point",
    "coordinates": [
     2.4642494289297737e-05,
     -0.00029023382162578307
    ]
   },
   "properties": {
    "classname": "item_healthkit_small",
    "team": "0",
    "targetname": "",
    "hx": 144.0,
    "hy": -1696.0,
    "hz": 80.2352
   }
  },
  {
   "type": "Feature",
   "geometry": {
    "type": "Point",
    "coordinates": [
     -8.07726201702459e-05,
     -0.0002560081351133086
    ]
   },
   "properties": {
    "classname": "item_healthkit_small",
    "team": "0",
    "targetname": "",
    "hx": -472.0,
    "hy": -1496.0,
    "hz": -23.7648
   }
  },
  {
   "type": "Feature",
   "geometry": {
    "type": "Point",
    "coordinates": [
     8.214164763041141e-06,
     -0.00019440189939085468
    ]
   },
   "properties": {
    "classname": "item_healthkit_medium",
    "team": "0",
    "targetname": "",
    "hx": 48.0,
    "hy": -1136.0,
    "hz": 72.2361
   }
  },
  {
   "type": "Feature",
   "geometry": {
    "type": "Point",
    "coordinates": [
     0.0002327346682926879,
     -0.00047094544641164795
    ]
   },
   "properties": {
    "classname": "item_healthkit_medium",
    "team": "0",
    "targetname": "",
    "hx": 1360.0,
    "hy": -2752.0,
    "hz": 368.0
   }
  }
 ]
}
