{
 "type": "FeatureCollection",
 "note": "pseudo-WGS84 via crs.local_to_wgs84 ((0,0)m maps to (0,0)deg); viewing only, not survey",
 "features": [
  {
   "type": "Feature",
   "geometry": {
    "type": "Point",
    "coordinates": [
     -0.0005024330780179032,
     -0.00043945781482017144
    ]
   },
   "properties": {
    "classname": "info_player_teamspawn",
    "team": "3",
    "targetname": "spawn_blueA",
    "hx": -2936.0,
    "hy": -2568.0,
    "hz": 17.0
   }
  },
  {
   "type": "Feature",
   "geometry": {
    "type": "Point",
    "coordinates": [
     -0.0005133852977022171,
     -0.00043945781482017144
    ]
   },
   "properties": {
    "classname": "info_player_teamspawn",
    "team": "3",
    "targetname": "spawn_blueA",
    "hx": -3000.0,
    "hy": -2568.0,
    "hz": 17.0
   }
  },
  {
   "type": "Feature",
   "geometry": {
    "type": "Point",
    "coordinates": [
     -0.0005133852977029791,
     -0.00045041003450416324
    ]
   },
   "properties": {
    "classname": "info_player_teamspawn",
    "team": "3",
    "targetname": "spawn_blueA",
    "hx": -3000.0,
    "hy": -2632.0,
    "hz": 17.0
   }
  },
  {
   "type": "Feature",
   "geometry": {
    "type": "Point",
    "coordinates": [
     -0.0005024330780186489,
     -0.00045041003450416324
    ]
   },
   "properties": {
    "classname": "info_player_teamspawn",
    "team": "3",
    "targetname": "spawn_blueA",
    "hx": -2936.0,
    "hy": -2632.0,
    "hz": 17.0
   }
  },
  {
   "type": "Feature",
   "geometry": {
    "type": "Point",
    "coordinates": [
     -0.0005133852977037601,
     -0.0004613622541881551
    ]
   },
   "properties": {
    "classname": "info_player_teamspawn",
    "team": "3",
    "targetname": "spawn_blueA",
    "hx": -3000.0,
    "hy": -2696.0,
    "hz": 17.0
   }
  },
  {
   "type": "Feature",
   "geometry": {
    "type": "Point",
    "coordinates": [
     -0.0005024330780194131,
     -0.0004613622541881551
    ]
   },
   "properties": {
    "classname": "info_player_teamspawn",
    "team": "3",
    "targetname": "spawn_blueA",
    "hx": -2936.0,
    "hy": -2696.0,
    "hz": 17.0
   }
  },
  {
   "type": "Feature",
   "geometry": {
    "type": "Point",
    "coordinates": [
     -0.0005133852977045596,
     -0.0004723144738721469
    ]
   },
   "properties": {
    "classname": "info_player_teamspawn",
    "team": "3",
    "targetname": "spawn_blueA",
    "hx": -3000.0,
    "hy": -2760.0,
    "hz": 17.0
   }
  },
  {
   "type": "Feature",
   "geometry": {
    "type": "Point",
    "coordinates": [
     -0.0005024330780201956,
     -0.0004723144738721469
    ]
   },
   "properties": {
    "classname": "info_player_teamspawn",
    "team": "3",
    "targetname": "spawn_blueA",
    "hx": -2936.0,
    "hy": -2760.0,
    "hz": 17.0
   }
  },
  {
   "type": "Feature",
   "geometry": {
    "type": "Point",
    "coordinates": [
     -0.0005243375173914884,
     -0.0005051711329241223
    ]
   },
   "properties": {
    "classname": "info_player_teamspawn",
    "team": "3",
    "targetname": "spawn_blueA",
    "hx": -3064.0,
    "hy": -2952.0,
    "hz": 17.0
   }
  },
  {
   "type": "Feature",
   "geometry": {
    "type": "Point",
    "coordinates": [
     -0.0005133852977070709,
     -0.0005051711329241223
    ]
   },
   "properties": {
    "classname": "info_player_teamspawn",
    "team": "3",
    "targetname": "spawn_blueA",
    "hx": -3000.0,
    "hy": -2952.0,
    "hz": 17.0
   }
  },
  {
   "type": "Feature",
   "geometry": {
    "type": "Point",
    "coordinates": [
     -0.0005133852977079456,
     -0.0005161233526081142
    ]
   },
   "properties": {
    "classname": "info_player_teamspawn",
    "team": "3",
    "targetname": "spawn_blueA",
    "hx": -3000.0,
    "hy": -3016.0,
    "hz": 17.0
   }
  },
  {
   "type": "Feature",
   "geometry": {
    "type": "Point",
    "coordinates": [
     -0.0005243375173923818,
     -0.0005161233526081142
    ]
   },
   "properties": {
    "classname": "info_player_teamspawn",
    "team": "3",
    "targetname": "spawn_blueA",
    "hx": -3064.0,
    "hy": -3016.0,
    "hz": 17.0
   }
  },
  {
   "type": "Feature",
   "geometry": {
    "type": "Point",
    "coordinates": [
     -0.0005243375173932942,
     -0.000527075572292106
    ]
   },
   "properties": {
    "classname": "info_player_teamspawn",
    "team": "3",
    "targetname": "spawn_blueA",
    "hx": -3064.0,
    "hy": -3080.0,
    "hz": 17.0
   }
  },
  {
   "type": "Feature",
   "geometry": {
    "type": "Point",
    "coordinates": [
     -0.0005243375173942257,
     -0.0005380277919760977
    ]
   },
   "properties": {
    "classname": "info_player_teamspawn",
    "team": "3",
    "targetname": "spawn_blueA",
    "hx": -3064.0,
    "hy": -3144.0,
    "hz": 17.0
   }
  },
  {
   "type": "Feature",
   "geometry": {
    "type": "Point",
    "coordinates": [
     -0.000513385297709751,
     -0.0005380277919760977
    ]
   },
   "properties": {
    "classname": "info_player_teamspawn",
    "team": "3",
    "targetname": "spawn_blueA",
    "hx": -3000.0,
    "hy": -3144.0,
    "hz": 17.0
   }
  },
  {
   "type": "Feature",
   "geometry": {
    "type": "Point",
    "coordinates": [
     -0.0005133852977088389,
     -0.000527075572292106
    ]
   },
   "properties": {
    "classname": "info_player_teamspawn",
    "team": "3",
    "targetname": "spawn_blueA",
    "hx": -3000.0,
    "hy": -3080.0,
    "hz": 17.0
   }
  },
  {
   "type": "Feature",
   "geometry": {
    "type": "Point",
    "coordinates": [
     -0.00043124365008266315,
     -0.0006229074945270342
    ]
   },
   "properties": {
    "classname": "info_player_teamspawn",
    "team": "3",
    "targetname": "spawn_blueA2",
    "hx": -2520.0,
    "hy": -3640.0,
    "hz": -48.0
   }
  },
  {
   "type": "Feature",
   "geometry": {
    "type": "Point",
    "coordinates": [
     -0.00043124365008356726,
     -0.0006338597142110261
    ]
   },
   "properties": {
    "classname": "info_player_teamspawn",
    "team": "3",
    "targetname": "spawn_blueA2",
    "hx": -2520.0,
    "hy": -3704.0,
    "hz": -48.0
   }
  },
  {
   "type": "Feature",
   "geometry": {
    "type": "Point",
    "coordinates": [
     -0.0004312436500844871,
     -0.0006448119338950179
    ]
   },
   "properties": {
    "classname": "info_player_teamspawn",
    "team": "3",
    "targetname": "spawn_blueA2",
    "hx": -2520.0,
    "hy": -3768.0,
    "hz": -48.0
   }
  },
  {
   "type": "Feature",
   "geometry": {
    "type": "Point",
    "coordinates": [
     -0.0004312436500854227,
     -0.0006557641535790097
    ]
   },
   "properties": {
    "classname": "info_player_teamspawn",
    "team": "3",
    "targetname": "spawn_blueA2",
    "hx": -2520.0,
    "hy": -3832.0,
    "hz": -48.0
   }
  },
  {
   "type": "Feature",
   "geometry": {
    "type": "Point",
    "coordinates": [
     -0.00042029143040071354,
     -0.0006557641535790097
    ]
   },
   "properties": {
    "classname": "info_player_teamspawn",
    "team": "3",
    "targetname": "spawn_blueA2",
    "hx": -2456.0,
    "hy": -3832.0,
    "hz": -48.0
   }
  },
  {
   "type": "Feature",
   "geometry": {
    "type": "Point",
    "coordinates": [
     -0.0004202914303998017,
     -0.0006448119338950179
    ]
   },
   "properties": {
    "classname": "info_player_teamspawn",
    "team": "3",
    "targetname": "spawn_blueA2",
    "hx": -2456.0,
    "hy": -3768.0,
    "hz": -48.0
   }
  },
  {
   "type": "Feature",
   "geometry": {
    "type": "Point",
    "coordinates": [
     -0.0004202914303989052,
     -0.0006338597142110261
    ]
   },
   "properties": {
    "classname": "info_player_teamspawn",
    "team": "3",
    "targetname": "spawn_blueA2",
    "hx": -2456.0,
    "hy": -3704.0,
    "hz": -48.0
   }
  },
  {
   "type": "Feature",
   "geometry": {
    "type": "Point",
    "coordinates": [
     -0.00042029143039802407,
     -0.0006229074945270342
    ]
   },
   "properties": {
    "classname": "info_player_teamspawn",
    "team": "3",
    "targetname": "spawn_blueA2",
    "hx": -2456.0,
    "hy": -3640.0,
    "hz": -48.0
   }
  },
  {
   "type": "Feature",
   "geometry": {
    "type": "Point",
    "coordinates": [
     -0.0004093392107142432,
     -0.0006338597142110261
    ]
   },
   "properties": {
    "classname": "info_player_teamspawn",
    "team": "3",
    "targetname": "spawn_blueA2",
    "hx": -2392.0,
    "hy": -3704.0,
    "hz": -48.0
   }
  },
  {
   "type": "Feature",
   "geometry": {
    "type": "Point",
    "coordinates": [
     -0.0004093392107151163,
     -0.0006448119338950179
    ]
   },
   "properties": {
    "classname": "info_player_teamspawn",
    "team": "3",
    "targetname": "spawn_blueA2",
    "hx": -2392.0,
    "hy": -3768.0,
    "hz": -48.0
   }
  },
  {
   "type": "Feature",
   "geometry": {
    "type": "Point",
    "coordinates": [
     -0.0004312436500673175,
     -0.00039291088116320626
    ]
   },
   "properties": {
    "classname": "info_player_teamspawn",
    "team": "3",
    "targetname": "spawn_blueA2",
    "hx": -2520.0,
    "hy": -2296.0,
    "hz": 144.0
   }
  },
  {
   "type": "Feature",
   "geometry": {
    "type": "Point",
    "coordinates": [
     -0.0004298746226073577,
     -0.0004038631008471981
    ]
   },
   "properties": {
    "classname": "info_player_teamspawn",
    "team": "3",
    "targetname": "spawn_blueA2",
    "hx": -2512.0,
    "hy": -2360.0,
    "hz": 144.0
   }
  },
  {
   "type": "Feature",
   "geometry": {
    "type": "Point",
    "coordinates": [
     -0.0004312436500684796,
     -0.0004148153205311899
    ]
   },
   "properties": {
    "classname": "info_player_teamspawn",
    "team": "3",
    "targetname": "spawn_blueA2",
    "hx": -2520.0,
    "hy": -2424.0,
    "hz": 144.0
   }
  },
  {
   "type": "Feature",
   "geometry": {
    "type": "Point",
    "coordinates": [
     -0.00042029143038420076,
     -0.0004148153205311899
    ]
   },
   "properties": {
    "classname": "info_player_teamspawn",
    "team": "3",
    "targetname": "spawn_blueA2",
    "hx": -2456.0,
    "hy": -2424.0,
    "hz": 144.0
   }
  },
  {
   "type": "Feature",
   "geometry": {
    "type": "Point",
    "coordinates": [
     -0.0004202914303836268,
     -0.0004038631008471981
    ]
   },
   "properties": {
    "classname": "info_player_teamspawn",
    "team": "3",
    "targetname": "spawn_blueA2",
    "hx": -2456.0,
    "hy": -2360.0,
    "hz": 144.0
   }
  },
  {
   "type": "Feature",
   "geometry": {
    "type": "Point",
    "coordinates": [
     -0.0004202914303830682,
     -0.00039291088116320626
    ]
   },
   "properties": {
    "classname": "info_player_teamspawn",
    "team": "3",
    "targetname": "spawn_blueA2",
    "hx": -2456.0,
    "hy": -2296.0,
    "hz": 144.0
   }
  },
  {
   "type": "Feature",
   "geometry": {
    "type": "Point",
    "coordinates": [
     9.446289477806137e-05,
     -0.0005024330780031244
    ]
   },
   "properties": {
    "classname": "team_control_point",
    "team": "",
    "targetname": "cap_1",
    "hx": 552.0,
    "hy": -2936.0,
    "hz": 136.0
   }
  },
  {
   "type": "Feature",
   "geometry": {
    "type": "Point",
    "coordinates": [
     0.00018208065224644294,
     -5.339207095946008e-05
    ]
   },
   "properties": {
    "classname": "team_control_point",
    "team": "",
    "targetname": "cap_2",
    "hx": 1064.0,
    "hy": -312.0,
    "hz": 264.0
   }
  },
  {
   "type": "Feature",
   "geometry": {
    "type": "Point",
    "coordinates": [
     -0.0002560081351139962,
     -0.0001327956636684007
    ]
   },
   "properties": {
    "classname": "team_control_point",
    "team": "",
    "targetname": "cap_3",
    "hx": -1496.0,
    "hy": -776.0,
    "hz": 516.0
   }
  },
  {
   "type": "Feature",
   "geometry": {
    "type": "Point",
    "coordinates": [
     6.845137302592054e-06,
     -0.00030529312369127174
    ]
   },
   "properties": {
    "classname": "team_control_point",
    "team": "",
    "targetname": "cap_4",
    "hx": 40.0,
    "hy": -1784.0,
    "hz": 476.0
   }
  },
  {
   "type": "Feature",
   "geometry": {
    "type": "Point",
    "coordinates": [
     -5.3392070959580815e-05,
     -0.00012184344398440891
    ]
   },
   "properties": {
    "classname": "info_player_teamspawn",
    "team": "2",
    "targetname": "spawn_red_3",
    "hx": -312.0,
    "hy": -712.0,
    "hz": 593.0
   }
  },
  {
   "type": "Feature",
   "geometry": {
    "type": "Point",
    "coordinates": [
     -4.243985127556424e-05,
     -0.00012184344398440891
    ]
   },
   "properties": {
    "classname": "info_player_teamspawn",
    "team": "2",
    "targetname": "spawn_red_3",
    "hx": -248.0,
    "hy": -712.0,
    "hz": 593.0
   }
  },
  {
   "type": "Feature",
   "geometry": {
    "type": "Point",
    "coordinates": [
     -4.2439851275582264e-05,
     -0.0001327956636684007
    ]
   },
   "properties": {
    "classname": "info_player_teamspawn",
    "team": "2",
    "targetname": "spawn_red_3",
    "hx": -248.0,
    "hy": -776.0,
    "hz": 593.0
   }
  },
  {
   "type": "Feature",
   "geometry": {
    "type": "Point",
    "coordinates": [
     -5.339207095960349e-05,
     -0.0001327956636684007
    ]
   },
   "properties": {
    "classname": "info_player_teamspawn",
    "team": "2",
    "targetname": "spawn_red_3",
    "hx": -312.0,
    "hy": -776.0,
    "hz": 593.0
   }
  },
  {
   "type": "Feature",
   "geometry": {
    "type": "Point",
    "coordinates": [
     -6.434429064362472e-05,
     -0.0001327956636684007
    ]
   },
   "properties": {
    "classname": "info_player_teamspawn",
    "team": "2",
    "targetname": "spawn_red_3",
    "hx": -376.0,
    "hy": -776.0,
    "hz": 593.0
   }
  },
  {
   "type": "Feature",
   "geometry": {
    "type": "Point",
    "coordinates": [
     -6.434429064365441e-05,
     -0.00014374788335239254
    ]
   },
   "properties": {
    "classname": "info_player_teamspawn",
    "team": "2",
    "targetname": "spawn_red_3",
    "hx": -376.0,
    "hy": -840.0,
    "hz": 593.0
   }
  },
  {
   "type": "Feature",
   "geometry": {
    "type": "Point",
    "coordinates": [
     -5.339207095962812e-05,
     -0.00014374788335239254
    ]
   },
   "properties": {
    "classname": "info_player_teamspawn",
    "team": "2",
    "targetname": "spawn_red_3",
    "hx": -312.0,
    "hy": -840.0,
    "hz": 593.0
   }
  },
  {
   "type": "Feature",
   "geometry": {
    "type": "Point",
    "coordinates": [
     -4.243985127560184e-05,
     -0.00014374788335239254
    ]
   },
   "properties": {
    "classname": "info_player_teamspawn",
    "team": "2",
    "targetname": "spawn_red_3",
    "hx": -248.0,
    "hy": -840.0,
    "hz": 593.0
   }
  },
  {
   "type": "Feature",
   "geometry": {
    "type": "Point",
    "coordinates": [
     -3.148763159154766e-05,
     -0.00012184344398440891
    ]
   },
   "properties": {
    "classname": "info_player_teamspawn",
    "team": "2",
    "targetname": "spawn_red_3",
    "hx": -184.0,
    "hy": -712.0,
    "hz": 593.0
   }
  },
  {
   "type": "Feature",
   "geometry": {
    "type": "Point",
    "coordinates": [
     -3.148763159156103e-05,
     -0.0001327956636684007
    ]
   },
   "properties": {
    "classname": "info_player_teamspawn",
    "team": "2",
    "targetname": "spawn_red_3",
    "hx": -184.0,
    "hy": -776.0,
    "hz": 593.0
   }
  },
  {
   "type": "Feature",
   "geometry": {
    "type": "Point",
    "coordinates": [
     -3.148763159157556e-05,
     -0.00014374788335239254
    ]
   },
   "properties": {
    "classname": "info_player_teamspawn",
    "team": "2",
    "targetname": "spawn_red_3",
    "hx": -184.0,
    "hy": -840.0,
    "hz": 593.0
   }
  },
  {
   "type": "Feature",
   "geometry": {
    "type": "Point",
    "coordinates": [
     9.172483985516086e-05,
     -0.00035184005734823696
    ]
   },
   "properties": {
    "classname": "info_player_teamspawn",
    "team": "3",
    "targetname": "spawn_blueB",
    "hx": 536.0,
    "hy": -2056.0,
    "hz": 0.0
   }
  },
  {
   "type": "Feature",
   "geometry": {
    "type": "Point",
    "coordinates": [
     9.172483985505486e-05,
     -0.00034088783766424516
    ]
   },
   "properties": {
    "classname": "info_player_teamspawn",
    "team": "3",
    "targetname": "spawn_blueB",
    "hx": 536.0,
    "hy": -1992.0,
    "hz": 0.0
   }
  },
  {
   "type": "Feature",
   "geometry": {
    "type": "Point",
    "coordinates": [
     9.172483985495222e-05,
     -0.00032993561798025335
    ]
   },
   "properties": {
    "classname": "info_player_teamspawn",
    "team": "3",
    "targetname": "spawn_blueB",
    "hx": 536.0,
    "hy": -1928.0,
    "hz": 0.0
   }
  },
  {
   "type": "Feature",
   "geometry": {
    "type": "Point",
    "coordinates": [
     9.172483985485293e-05,
     -0.00031898339829626154
    ]
   },
   "properties": {
    "classname": "info_player_teamspawn",
    "team": "3",
    "targetname": "spawn_blueB",
    "hx": 536.0,
    "hy": -1864.0,
    "hz": 0.0
   }
  },
  {
   "type": "Feature",
   "geometry": {
    "type": "Point",
    "coordinates": [
     0.0001026770595389603,
     -0.0003135072884542656
    ]
   },
   "properties": {
    "classname": "info_player_teamspawn",
    "team": "3",
    "targetname": "spawn_blueB",
    "hx": 600.0,
    "hy": -1832.0,
    "hz": 0.0
   }
  },
  {
   "type": "Feature",
   "geometry": {
    "type": "Point",
    "coordinates": [
     0.00010267705953929936,
     -0.00034636394750624103
    ]
   },
   "properties": {
    "classname": "info_player_teamspawn",
    "team": "3",
    "targetname": "spawn_blueB",
    "hx": 600.0,
    "hy": -2024.0,
    "hz": 0.0
   }
  },
  {
   "type": "Feature",
   "geometry": {
    "type": "Point",
    "coordinates": [
     0.00010267705953918259,
     -0.0003354117278222492
    ]
   },
   "properties": {
    "classname": "info_player_teamspawn",
    "team": "3",
    "targetname": "spawn_blueB",
    "hx": 600.0,
    "hy": -1960.0,
    "hz": 0.0
   }
  },
  {
   "type": "Feature",
   "geometry": {
    "type": "Point",
    "coordinates": [
     0.00010267705953906958,
     -0.0003244595081382574
    ]
   },
   "properties": {
    "classname": "info_player_teamspawn",
    "team": "3",
    "targetname": "spawn_blueB",
    "hx": 600.0,
    "hy": -1896.0,
    "hz": 0.0
   }
  },
  {
   "type": "Feature",
   "geometry": {
    "type": "Point",
    "coordinates": [
     0.00011362927922342617,
     -0.00034088783766424516
    ]
   },
   "properties": {
    "classname": "info_player_teamspawn",
    "team": "3",
    "targetname": "spawn_blueB",
    "hx": 664.0,
    "hy": -1992.0,
    "hz": 0.0
   }
  },
  {
   "type": "Feature",
   "geometry": {
    "type": "Point",
    "coordinates": [
     0.00011362927922329902,
     -0.00032993561798025335
    ]
   },
   "properties": {
    "classname": "info_player_teamspawn",
    "team": "3",
    "targetname": "spawn_blueB",
    "hx": 664.0,
    "hy": -1928.0,
    "hz": 0.0
   }
  },
  {
   "type": "Feature",
   "geometry": {
    "type": "Point",
    "coordinates": [
     0.00011362927922317601,
     -0.00031898339829626154
    ]
   },
   "properties": {
    "classname": "info_player_teamspawn",
    "team": "3",
    "targetname": "spawn_blueB",
    "hx": 664.0,
    "hy": -1864.0,
    "hz": 0.0
   }
  },
  {
   "type": "Feature",
   "geometry": {
    "type": "Point",
    "coordinates": [
     0.00039017282624967983,
     -0.0003545781122692349
    ]
   },
   "properties": {
    "classname": "item_healthkit_medium",
    "team": "",
    "targetname": "",
    "hx": 2280.0,
    "hy": -2072.0,
    "hz": 33.2361
   }
  },
  {
   "type": "Feature",
   "geometry": {
    "type": "Point",
    "coordinates": [
     0.0003901728262487852,
     -0.0003326736729012513
    ]
   },
   "properties": {
    "classname": "item_ammopack_medium",
    "team": "",
    "targetname": "",
    "hx": 2280.0,
    "hy": -1944.0,
    "hz": 33.2562
   }
  },
  {
   "type": "Feature",
   "geometry": {
    "type": "Point",
    "coordinates": [
     -2.601152175038496e-05,
     -0.0004777905837141428
    ]
   },
   "properties": {
    "classname": "item_ammopack_medium",
    "team": "",
    "targetname": "",
    "hx": -152.0,
    "hy": -2792.0,
    "hz": 321.256
   }
  },
  {
   "type": "Feature",
   "geometry": {
    "type": "Point",
    "coordinates": [
     9.446289478001193e-05,
     -0.0006229074945270342
    ]
   },
   "properties": {
    "classname": "item_ammopack_medium",
    "team": "",
    "targetname": "",
    "hx": 552.0,
    "hy": -3640.0,
    "hz": 289.256
   }
  },
  {
   "type": "Feature",
   "geometry": {
    "type": "Point",
    "coordinates": [
     9.446289477907354e-05,
     -0.0005681463961070753
    ]
   },
   "properties": {
    "classname": "item_healthkit_medium",
    "team": "",
    "targetname": "",
    "hx": 552.0,
    "hy": -3320.0,
    "hz": 137.236
   }
  },
  {
   "type": "Feature",
   "geometry": {
    "type": "Point",
    "coordinates": [
     -5.886818080379401e-05,
     -0.0005106472427661182
    ]
   },
   "properties": {
    "classname": "item_healthkit_small",
    "team": "",
    "targetname": "",
    "hx": -344.0,
    "hy": -2984.0,
    "hz": 321.235
   }
  },
  {
   "type": "Feature",
   "geometry": {
    "type": "Point",
    "coordinates": [
     0.00021767536622242732,
     -0.00030529312369127174
    ]
   },
   "properties": {
    "classname": "item_healthkit_small",
    "team": "",
    "targetname": "",
    "hx": 1272.0,
    "hy": -1784.0,
    "hz": 65.2352
   }
  },
  {
   "type": "Feature",
   "geometry": {
    "type": "Point",
    "coordinates": [
     0.00017112843256360705,
     -0.00021767536621933726
    ]
   },
   "properties": {
    "classname": "item_healthkit_small",
    "team": "",
    "targetname": "",
    "hx": 1000.0,
    "hy": -1272.0,
    "hz": 433.235
   }
  },
  {
   "type": "Feature",
   "geometry": {
    "type": "Point",
    "coordinates": [
     0.00017112843256373447,
     -0.00022862758590332907
    ]
   },
   "properties": {
    "classname": "item_ammopack_medium",
    "team": "",
    "targetname": "",
    "hx": 1000.0,
    "hy": -1336.0,
    "hz": 433.261
   }
  },
  {
   "type": "Feature",
   "geometry": {
    "type": "Point",
    "coordinates": [
     -0.00031624534337695794,
     -0.00018755676208835978
    ]
   },
   "properties": {
    "classname": "item_ammopack_medium",
    "team": "",
    "targetname": "",
    "hx": -1848.0,
    "hy": -1096.0,
    "hz": 385.256
   }
  },
  {
   "type": "Feature",
   "geometry": {
    "type": "Point",
    "coordinates": [
     -0.0002724364646394681,
     -6.43442906434519e-05
    ]
   },
   "properties": {
    "classname": "item_healthkit_medium",
    "team": "",
    "targetname": "",
    "hx": -1592.0,
    "hy": -376.0,
    "hz": 153.236
   }
  },
  {
   "type": "Feature",
   "geometry": {
    "type": "Point",
    "coordinates": [
     -0.00011089122430113885,
     -0.00020672314653534543
    ]
   },
   "properties": {
    "classname": "item_healthkit_small",
    "team": "",
    "targetname": "",
    "hx": -648.0,
    "hy": -1208.0,
    "hz": 577.235
   }
  },
  {
   "type": "Feature",
   "geometry": {
    "type": "Point",
    "coordinates": [
     -0.00011362927922193822,
     -0.00017386648748337003
    ]
   },
   "properties": {
    "classname": "item_ammopack_medium",
    "team": "",
    "targetname": "",
    "hx": -664.0,
    "hy": -1016.0,
    "hz": 577.261
   }
  },
  {
   "type": "Feature",
   "geometry": {
    "type": "Point",
    "coordinates": [
     -1.2321247144924119e-05,
     -0.0004805286386351408
    ]
   },
   "properties": {
    "classname": "item_ammopack_medium",
    "team": "",
    "targetname": "",
    "hx": -72.0,
    "hy": -2808.0,
    "hz": 545.256
   }
  },
  {
   "type": "Feature",
   "geometry": {
    "type": "Point",
    "coordinates": [
     0.00022041342114036296,
     2.8749576670478505e-05
    ]
   },
   "properties": {
    "classname": "item_ammopack_medium",
    "team": "",
    "targetname": "",
    "hx": 1288.0,
    "hy": 168.0,
    "hz": 417.256
   }
  },
  {
   "type": "Feature",
   "geometry": {
    "type": "Point",
    "coordinates": [
     0.00024505591542934766,
     2.8749576670478505e-05
    ]
   },
   "properties": {
    "classname": "item_healthkit_medium",
    "team": "",
    "targetname": "",
    "hx": 1432.0,
    "hy": 168.0,
    "hz": 417.236
   }
  },
  {
   "type": "Feature",
   "geometry": {
    "type": "Point",
    "coordinates": [
     -6.43442906435974e-05,
     -0.00012184344398440891
    ]
   },
   "properties": {
    "classname": "info_player_teamspawn",
    "team": "2",
    "targetname": "spawn_red_3",
    "hx": -376.0,
    "hy": -712.0,
    "hz": 593.0
   }
  },
  {
   "type": "Feature",
   "geometry": {
    "type": "Point",
    "coordinates": [
     -0.00015743815795923432,
     -0.00027791257448129224
    ]
   },
   "properties": {
    "classname": "item_ammopack_medium",
    "team": "",
    "targetname": "",
    "hx": -920.0,
    "hy": -1624.0,
    "hz": 336.256
   }
  },
  {
   "type": "Feature",
   "geometry": {
    "type": "Point",
    "coordinates": [
     -0.00013279566366996288,
     -0.00027791257448129224
    ]
   },
   "properties": {
    "classname": "item_healthkit_full",
    "team": "",
    "targetname": "",
    "hx": -776.0,
    "hy": -1624.0,
    "hz": 336.269
   }
  },
  {
   "type": "Feature",
   "geometry": {
    "type": "Point",
    "coordinates": [
     -2.0535411907549277e-05,
     -0.00014374788335239254
    ]
   },
   "properties": {
    "classname": "info_player_teamspawn",
    "team": "2",
    "targetname": "spawn_red_3",
    "hx": -120.0,
    "hy": -840.0,
    "hz": 593.0
   }
  },
  {
   "type": "Feature",
   "geometry": {
    "type": "Point",
    "coordinates": [
     -2.0535411907539804e-05,
     -0.0001327956636684007
    ]
   },
   "properties": {
    "classname": "info_player_teamspawn",
    "team": "2",
    "targetname": "spawn_red_3",
    "hx": -120.0,
    "hy": -776.0,
    "hz": 593.0
   }
  },
  {
   "type": "Feature",
   "geometry": {
    "type": "Point",
    "coordinates": [
     -2.0535411907531083e-05,
     -0.00012184344398440891
    ]
   },
   "properties": {
    "classname": "info_player_teamspawn",
    "team": "2",
    "targetname": "spawn_red_3",
    "hx": -120.0,
    "hy": -712.0,
    "hz": 593.0
   }
  },
  {
   "type": "Feature",
   "geometry": {
    "type": "Point",
    "coordinates": [
     -0.00011636733414558474,
     -0.0004230294852941837
    ]
   },
   "properties": {
    "classname": "item_ammopack_medium",
    "team": "",
    "targetname": "",
    "hx": -680.0,
    "hy": -2472.0,
    "hz": 721.256
   }
  },
  {
   "type": "Feature",
   "geometry": {
    "type": "Point",
    "coordinates": [
     -0.00011636733414534318,
     -0.00040660115576819606
    ]
   },
   "properties": {
    "classname": "item_healthkit_medium",
    "team": "",
    "targetname": "",
    "hx": -680.0,
    "hy": -2376.0,
    "hz": 721.236
   }
  },
  {
   "type": "Feature",
   "geometry": {
    "type": "Point",
    "coordinates": [
     0.00011362927922254933,
     -0.0002560081351133086
    ]
   },
   "properties": {
    "classname": "item_ammopack_medium",
    "team": "",
    "targetname": "",
    "hx": 664.0,
    "hy": -1496.0,
    "hz": 721.261
   }
  },
  {
   "type": "Feature",
   "geometry": {
    "type": "Point",
    "coordinates": [
     0.0,
     -0.00014237885589189354
    ]
   },
   "properties": {
    "classname": "item_ammopack_medium",
    "team": "",
    "targetname": "",
    "hx": 0.0,
    "hy": -832.0,
    "hz": 391.942
   }
  },
  {
   "type": "Feature",
   "geometry": {
    "type": "Point",
    "coordinates": [
     1.5059302065535238e-05,
     -0.00014237885589189354
    ]
   },
   "properties": {
    "classname": "item_healthkit_small",
    "team": "",
    "targetname": "",
    "hx": 88.0,
    "hy": -832.0,
    "hz": 392.0
   }
  },
  {
   "type": "Feature",
   "geometry": {
    "type": "Point",
    "coordinates": [
     0.00021767536622215643,
     -0.00029160284908628204
    ]
   },
   "properties": {
    "classname": "item_ammopack_medium",
    "team": "",
    "targetname": "",
    "hx": 1272.0,
    "hy": -1704.0,
    "hz": 64.2562
   }
  },
  {
   "type": "Feature",
   "geometry": {
    "type": "Point",
    "coordinates": [
     0.00010541511445864896,
     -0.00011910538906341096
    ]
   },
   "properties": {
    "classname": "item_ammopack_small",
    "team": "",
    "targetname": "",
    "hx": 616.0,
    "hy": -696.0,
    "hz": 515.261
   }
  },
  {
   "type": "Feature",
   "geometry": {
    "type": "Point",
    "coordinates": [
     0.00013673161762665426,
     -0.0006689410428863125
    ]
   },
   "properties": {
    "classname": "item_ammopack_full",
    "team": "",
    "targetname": "",
    "hx": 799.0,
    "hy": -3909.0,
    "hz": 13.0
   }
  },
  {
   "type": "Feature",
   "geometry": {
    "type": "Point",
    "coordinates": [
     2.327346682848553e-05,
     2.8749576670478505e-05
    ]
   },
   "properties": {
    "classname": "info_player_teamspawn",
    "team": "3",
    "targetname": "spawn_blueC",
    "hx": 136.0,
    "hy": 168.0,
    "hz": 592.0
   }
  },
  {
   "type": "Feature",
   "geometry": {
    "type": "Point",
    "coordinates": [
     2.3273466828483905e-05,
     1.916638444698567e-05
    ]
   },
   "properties": {
    "classname": "info_player_teamspawn",
    "team": "3",
    "targetname": "spawn_blueC",
    "hx": 136.0,
    "hy": 112.0,
    "hz": 592.0
   }
  },
  {
   "type": "Feature",
   "geometry": {
    "type": "Point",
    "coordinates": [
     2.3273466828482926e-05,
     9.583192223492835e-06
    ]
   },
   "properties": {
    "classname": "info_player_teamspawn",
    "team": "3",
    "targetname": "spawn_blueC",
    "hx": 136.0,
    "hy": 56.0,
    "hz": 592.0
   }
  },
  {
   "type": "Feature",
   "geometry": {
    "type": "Point",
    "coordinates": [
     1.2321247144490961e-05,
     9.583192223492835e-06
    ]
   },
   "properties": {
    "classname": "info_player_teamspawn",
    "team": "3",
    "targetname": "spawn_blueC",
    "hx": 72.0,
    "hy": 56.0,
    "hz": 592.0
   }
  },
  {
   "type": "Feature",
   "geometry": {
    "type": "Point",
    "coordinates": [
     1.232124714449234e-05,
     2.8749576670478505e-05
    ]
   },
   "properties": {
    "classname": "info_player_teamspawn",
    "team": "3",
    "targetname": "spawn_blueC",
    "hx": 72.0,
    "hy": 168.0,
    "hz": 592.0
   }
  },
  {
   "type": "Feature",
   "geometry": {
    "type": "Point",
    "coordinates": [
     1.2321247144491478e-05,
     1.916638444698567e-05
    ]
   },
   "properties": {
    "classname": "info_player_teamspawn",
    "team": "3",
    "targetname": "spawn_blueC",
    "hx": 72.0,
    "hy": 112.0,
    "hz": 592.0
   }
  },
  {
   "type": "Feature",
   "geometry": {
    "type": "Point",
    "coordinates": [
     1.3690274604989956e-06,
     9.583192223492835e-06
    ]
   },
   "properties": {
    "classname": "info_player_teamspawn",
    "team": "3",
    "targetname": "spawn_blueC",
    "hx": 8.0,
    "hy": 56.0,
    "hz": 592.0
   }
  },
  {
   "type": "Feature",
   "geometry": {
    "type": "Point",
    "coordinates": [
     1.369027460499149e-06,
     2.8749576670478505e-05
    ]
   },
   "properties": {
    "classname": "info_player_teamspawn",
    "team": "3",
    "targetname": "spawn_blueC",
    "hx": 8.0,
    "hy": 168.0,
    "hz": 592.0
   }
  },
  {
   "type": "Feature",
   "geometry": {
    "type": "Point",
    "coordinates": [
     1.3690274604990532e-06,
     1.916638444698567e-05
    ]
   },
   "properties": {
    "classname": "info_player_teamspawn",
    "team": "3",
    "targetname": "spawn_blueC",
    "hx": 8.0,
    "hy": 112.0,
    "hz": 592.0
   }
  },
  {
   "type": "Feature",
   "geometry": {
    "type": "Point",
    "coordinates": [
     -9.583192223492968e-06,
     9.583192223492835e-06
    ]
   },
   "properties": {
    "classname": "info_player_teamspawn",
    "team": "3",
    "targetname": "spawn_blueC",
    "hx": -56.0,
    "hy": 56.0,
    "hz": 592.0
   }
  },
  {
   "type": "Feature",
   "geometry": {
    "type": "Point",
    "coordinates": [
     -9.58319222349404e-06,
     2.8749576670478505e-05
    ]
   },
   "properties": {
    "classname": "info_player_teamspawn",
    "team": "3",
    "targetname": "spawn_blueC",
    "hx": -56.0,
    "hy": 168.0,
    "hz": 592.0
   }
  },
  {
   "type": "Feature",
   "geometry": {
    "type": "Point",
    "coordinates": [
     -9.583192223493372e-06,
     1.916638444698567e-05
    ]
   },
   "properties": {
    "classname": "info_player_teamspawn",
    "team": "3",
    "targetname": "spawn_blueC",
    "hx": -56.0,
    "hy": 112.0,
    "hz": 592.0
   }
  },
  {
   "type": "Feature",
   "geometry": {
    "type": "Point",
    "coordinates": [
     -9.583192223492835e-06,
     0.0
    ]
   },
   "properties": {
    "classname": "info_player_teamspawn",
    "team": "3",
    "targetname": "spawn_blueC",
    "hx": -56.0,
    "hy": 0.0,
    "hz": 592.0
   }
  },
  {
   "type": "Feature",
   "geometry": {
    "type": "Point",
    "coordinates": [
     1.3690274604989765e-06,
     0.0
    ]
   },
   "properties": {
    "classname": "info_player_teamspawn",
    "team": "3",
    "targetname": "spawn_blueC",
    "hx": 8.0,
    "hy": 0.0,
    "hz": 592.0
   }
  },
  {
   "type": "Feature",
   "geometry": {
    "type": "Point",
    "coordinates": [
     2.0535411907487234e-05,
     2.8749576670478505e-05
    ]
   },
   "properties": {
    "classname": "info_player_teamspawn",
    "team": "2",
    "targetname": "spawn_red_2",
    "hx": 120.0,
    "hy": 168.0,
    "hz": 592.0
   }
  },
  {
   "type": "Feature",
   "geometry": {
    "type": "Point",
    "coordinates": [
     2.0535411907485797e-05,
     1.916638444698567e-05
    ]
   },
   "properties": {
    "classname": "info_player_teamspawn",
    "team": "2",
    "targetname": "spawn_red_2",
    "hx": 120.0,
    "hy": 112.0,
    "hz": 592.0
   }
  },
  {
   "type": "Feature",
   "geometry": {
    "type": "Point",
    "coordinates": [
     2.0535411907484933e-05,
     9.583192223492835e-06
    ]
   },
   "properties": {
    "classname": "info_player_teamspawn",
    "team": "2",
    "targetname": "spawn_red_2",
    "hx": 120.0,
    "hy": 56.0,
    "hz": 592.0
   }
  },
  {
   "type": "Feature",
   "geometry": {
    "type": "Point",
    "coordinates": [
     9.583192223492968e-06,
     9.583192223492835e-06
    ]
   },
   "properties": {
    "classname": "info_player_teamspawn",
    "team": "2",
    "targetname": "spawn_red_2",
    "hx": 56.0,
    "hy": 56.0,
    "hz": 592.0
   }
  },
  {
   "type": "Feature",
   "geometry": {
    "type": "Point",
    "coordinates": [
     9.583192223493372e-06,
     1.916638444698567e-05
    ]
   },
   "properties": {
    "classname": "info_player_teamspawn",
    "team": "2",
    "targetname": "spawn_red_2",
    "hx": 56.0,
    "hy": 112.0,
    "hz": 592.0
   }
  },
  {
   "type": "Feature",
   "geometry": {
    "type": "Point",
    "coordinates": [
     9.58319222349404e-06,
     2.8749576670478505e-05
    ]
   },
   "properties": {
    "classname": "info_player_teamspawn",
    "team": "2",
    "targetname": "spawn_red_2",
    "hx": 56.0,
    "hy": 168.0,
    "hz": 592.0
   }
  },
  {
   "type": "Feature",
   "geometry": {
    "type": "Point",
    "coordinates": [
     -1.3690274604989956e-06,
     9.583192223492835e-06
    ]
   },
   "properties": {
    "classname": "info_player_teamspawn",
    "team": "2",
    "targetname": "spawn_red_2",
    "hx": -8.0,
    "hy": 56.0,
    "hz": 592.0
   }
  },
  {
   "type": "Feature",
   "geometry": {
    "type": "Point",
    "coordinates": [
     -1.3690274604990532e-06,
     1.916638444698567e-05
    ]
   },
   "properties": {
    "classname": "info_player_teamspawn",
    "team": "2",
    "targetname": "spawn_red_2",
    "hx": -8.0,
    "hy": 112.0,
    "hz": 592.0
   }
  },
  {
   "type": "Feature",
   "geometry": {
    "type": "Point",
    "coordinates": [
     -1.369027460499149e-06,
     2.8749576670478505e-05
    ]
   },
   "properties": {
    "classname": "info_player_teamspawn",
    "team": "2",
    "targetname": "spawn_red_2",
    "hx": -8.0,
    "hy": 168.0,
    "hz": 592.0
   }
  },
  {
   "type": "Feature",
   "geometry": {
    "type": "Point",
    "coordinates": [
     -1.2321247144490961e-05,
     9.583192223492835e-06
    ]
   },
   "properties": {
    "classname": "info_player_teamspawn",
    "team": "2",
    "targetname": "spawn_red_2",
    "hx": -72.0,
    "hy": 56.0,
    "hz": 592.0
   }
  },
  {
   "type": "Feature",
   "geometry": {
    "type": "Point",
    "coordinates": [
     -1.2321247144491478e-05,
     1.916638444698567e-05
    ]
   },
   "properties": {
    "classname": "info_player_teamspawn",
    "team": "2",
    "targetname": "spawn_red_2",
    "hx": -72.0,
    "hy": 112.0,
    "hz": 592.0
   }
  },
  {
   "type": "Feature",
   "geometry": {
    "type": "Point",
    "coordinates": [
     -1.232124714449234e-05,
     2.8749576670478505e-05
    ]
   },
   "properties": {
    "classname": "info_player_teamspawn",
    "team": "2",
    "targetname": "spawn_red_2",
    "hx": -72.0,
    "hy": 168.0,
    "hz": 592.0
   }
  },
  {
   "type": "Feature",
   "geometry": {
    "type": "Point",
    "coordinates": [
     2.053541190748465e-05,
     0.0
    ]
   },
   "properties": {
    "classname": "info_player_teamspawn",
    "team": "2",
    "targetname": "spawn_red_2",
    "hx": 120.0,
    "hy": 0.0,
    "hz": 592.0
   }
  },
  {
   "type": "Feature",
   "geometry": {
    "type": "Point",
    "coordinates": [
     -1.3690274604989765e-06,
     0.0
    ]
   },
   "properties": {
    "classname": "info_player_teamspawn",
    "team": "2",
    "targetname": "spawn_red_2",
    "hx": -8.0,
    "hy": 0.0,
    "hz": 592.0
   }
  },
  {
   "type": "Feature",
   "geometry": {
    "type": "Point",
    "coordinates": [
     -1.232124714449079e-05,
     0.0
    ]
   },
   "properties": {
    "classname": "info_player_teamspawn",
    "team": "2",
    "targetname": "spawn_red_2",
    "hx": -72.0,
    "hy": 0.0,
    "hz": 592.0
   }
  },
  {
   "type": "Feature",
   "geometry": {
    "type": "Point",
    "coordinates": [
     9.583192223492835e-06,
     0.0
    ]
   },
   "properties": {
    "classname": "info_player_teamspawn",
    "team": "2",
    "targetname": "spawn_red_2",
    "hx": 56.0,
    "hy": 0.0,
    "hz": 592.0
   }
  },
  {
   "type": "Feature",
   "geometry": {
    "type": "Point",
    "coordinates": [
     1.232124714449079e-05,
     0.0
    ]
   },
   "properties": {
    "classname": "info_player_teamspawn",
    "team": "3",
    "targetname": "spawn_blueC",
    "hx": 72.0,
    "hy": 0.0,
    "hz": 592.0
   }
  },
  {
   "type": "Feature",
   "geometry": {
    "type": "Point",
    "coordinates": [
     -2.8749576671108217e-05,
     -0.0003792206065582165
    ]
   },
   "properties": {
    "classname": "item_healthkit_medium",
    "team": "",
    "targetname": "",
    "hx": -168.0,
    "hy": -2216.0,
    "hz": 480.236
   }
  },
  {
   "type": "Feature",
   "geometry": {
    "type": "Point",
    "coordinates": [
     -0.00016291426780254623,
     -0.0003573161671902329
    ]
   },
   "properties": {
    "classname": "item_ammopack_medium",
    "team": "",
    "targetname": "",
    "hx": -952.0,
    "hy": -2088.0,
    "hz": 572.703
   }
  },
  {
   "type": "Feature",
   "geometry": {
    "type": "Point",
    "coordinates": [
     3.1487631592414225e-05,
     -0.0004421958697411694
    ]
   },
   "properties": {
    "classname": "item_healthkit_medium",
    "team": "",
    "targetname": "",
    "hx": 184.0,
    "hy": -2584.0,
    "hz": 721.236
   }
  },
  {
   "type": "Feature",
   "geometry": {
    "type": "Point",
    "coordinates": [
     0.00010541511445991762,
     -0.00030529312369127174
    ]
   },
   "properties": {
    "classname": "item_ammopack_medium",
    "team": "",
    "targetname": "",
    "hx": 616.0,
    "hy": -1784.0,
    "hz": 721.256
   }
  },
  {
   "type": "Feature",
   "geometry": {
    "type": "Point",
    "coordinates": [
     2.32734668284826e-05,
     0.0
    ]
   },
   "properties": {
    "classname": "info_player_teamspawn",
    "team": "3",
    "targetname": "spawn_blueC",
    "hx": 136.0,
    "hy": 0.0,
    "hz": 592.0
   }
  },
  {
   "type": "Feature",
   "geometry": {
    "type": "Point",
    "coordinates": [
     0.00011362927922355748,
     -0.00035184005734823696
    ]
   },
   "properties": {
    "classname": "info_player_teamspawn",
    "team": "3",
    "targetname": "spawn_blueB",
    "hx": 664.0,
    "hy": -2056.0,
    "hz": 0.0
   }
  }
 ]
}
