{
 "type": "FeatureCollection",
 "note": "pseudo-WGS84 via crs.local_to_wgs84 ((0,0)m maps to (0,0)deg); viewing only, not survey",
 "features": [
  {
   "type": "Feature",
   "geometry": {
    "type": "Point",
    "coordinates": [
     -2.9848734593056322e-05,
     0.0002247771961706757
    ]
   },
   "properties": {
    "classname": "info_player_teamspawn",
    "team": "2",
    "targetname": "red_spawn_2",
    "hx": -174.423,
    "hy": 1313.5,
    "hz": 16.0096
   }
  },
  {
   "type": "Feature",
   "geometry": {
    "type": "Point",
    "coordinates": [
     -2.984873459303984e-05,
     0.00021656303140768184
    ]
   },
   "properties": {
    "classname": "info_player_teamspawn",
    "team": "2",
    "targetname": "red_spawn_2",
    "hx": -174.423,
    "hy": 1265.5,
    "hz": 16.0096
   }
  },
  {
   "type": "Feature",
   "geometry": {
    "type": "Point",
    "coordinates": [
     -2.505713848125919e-05,
     0.00021656303140768184
    ]
   },
   "properties": {
    "classname": "info_player_teamspawn",
    "team": "2",
    "targetname": "red_spawn_2",
    "hx": -146.423,
    "hy": 1265.5,
    "hz": 16.0096
   }
  },
  {
   "type": "Feature",
   "geometry": {
    "type": "Point",
    "coordinates": [
     -2.505713848127303e-05,
     0.0002247771961706757
    ]
   },
   "properties": {
    "classname": "info_player_teamspawn",
    "team": "2",
    "targetname": "red_spawn_2",
    "hx": -146.423,
    "hy": 1313.5,
    "hz": 16.0096
   }
  },
  {
   "type": "Feature",
   "geometry": {
    "type": "Point",
    "coordinates": [
     -2.5057138481287375e-05,
     0.00023299136093366955
    ]
   },
   "properties": {
    "classname": "info_player_teamspawn",
    "team": "2",
    "targetname": "red_spawn_2",
    "hx": -146.423,
    "hy": 1361.5,
    "hz": 16.0096
   }
  },
  {
   "type": "Feature",
   "geometry": {
    "type": "Point",
    "coordinates": [
     -2.9848734593073412e-05,
     0.00023299136093366955
    ]
   },
   "properties": {
    "classname": "info_player_teamspawn",
    "team": "2",
    "targetname": "red_spawn_2",
    "hx": -174.423,
    "hy": 1361.5,
    "hz": 16.0096
   }
  },
  {
   "type": "Feature",
   "geometry": {
    "type": "Point",
    "coordinates": [
     -2.9848734593091125e-05,
     0.00024120552569666342
    ]
   },
   "properties": {
    "classname": "info_player_teamspawn",
    "team": "2",
    "targetname": "red_spawn_2",
    "hx": -174.423,
    "hy": 1409.5,
    "hz": 16.0096
   }
  },
  {
   "type": "Feature",
   "geometry": {
    "type": "Point",
    "coordinates": [
     -2.5057138481302242e-05,
     0.00024120552569666342
    ]
   },
   "properties": {
    "classname": "info_player_teamspawn",
    "team": "2",
    "targetname": "red_spawn_2",
    "hx": -146.423,
    "hy": 1409.5,
    "hz": 16.0096
   }
  },
  {
   "type": "Feature",
   "geometry": {
    "type": "Point",
    "coordinates": [
     -2.0265542369513366e-05,
     0.00024120552569666342
    ]
   },
   "properties": {
    "classname": "info_player_teamspawn",
    "team": "2",
    "targetname": "red_spawn_2",
    "hx": -118.423,
    "hy": 1409.5,
    "hz": 16.0096
   }
  },
  {
   "type": "Feature",
   "geometry": {
    "type": "Point",
    "coordinates": [
     -1.547574310626641e-05,
     0.00024120552569666342
    ]
   },
   "properties": {
    "classname": "info_player_teamspawn",
    "team": "2",
    "targetname": "red_spawn_2",
    "hx": -90.4335,
    "hy": 1409.5,
    "hz": 16.0046
   }
  },
  {
   "type": "Feature",
   "geometry": {
    "type": "Point",
    "coordinates": [
     -1.5475743106257226e-05,
     0.00023299136093366955
    ]
   },
   "properties": {
    "classname": "info_player_teamspawn",
    "team": "2",
    "targetname": "red_spawn_2",
    "hx": -90.4335,
    "hy": 1361.5,
    "hz": 16.0046
   }
  },
  {
   "type": "Feature",
   "geometry": {
    "type": "Point",
    "coordinates": [
     -2.026554236950134e-05,
     0.00023299136093366955
    ]
   },
   "properties": {
    "classname": "info_player_teamspawn",
    "team": "2",
    "targetname": "red_spawn_2",
    "hx": -118.423,
    "hy": 1361.5,
    "hz": 16.0096
   }
  },
  {
   "type": "Feature",
   "geometry": {
    "type": "Point",
    "coordinates": [
     -2.026554236948974e-05,
     0.0002247771961706757
    ]
   },
   "properties": {
    "classname": "info_player_teamspawn",
    "team": "2",
    "targetname": "red_spawn_2",
    "hx": -118.423,
    "hy": 1313.5,
    "hz": 16.0096
   }
  },
  {
   "type": "Feature",
   "geometry": {
    "type": "Point",
    "coordinates": [
     -1.5475743106248366e-05,
     0.0002247771961706757
    ]
   },
   "properties": {
    "classname": "info_player_teamspawn",
    "team": "2",
    "targetname": "red_spawn_2",
    "hx": -90.4335,
    "hy": 1313.5,
    "hz": 16.0046
   }
  },
  {
   "type": "Feature",
   "geometry": {
    "type": "Point",
    "coordinates": [
     -1.5475743106239818e-05,
     0.00021656303140768184
    ]
   },
   "properties": {
    "classname": "info_player_teamspawn",
    "team": "2",
    "targetname": "red_spawn_2",
    "hx": -90.4335,
    "hy": 1265.5,
    "hz": 16.0046
   }
  },
  {
   "type": "Feature",
   "geometry": {
    "type": "Point",
    "coordinates": [
     -2.0265542369478546e-05,
     0.00021656303140768184
    ]
   },
   "properties": {
    "classname": "info_player_teamspawn",
    "team": "2",
    "targetname": "red_spawn_2",
    "hx": -118.423,
    "hy": 1265.5,
    "hz": 16.0096
   }
  },
  {
   "type": "Feature",
   "geometry": {
    "type": "Point",
    "coordinates": [
     -0.0005114002078923607,
     0.000543024742206919
    ]
   },
   "properties": {
    "classname": "info_player_teamspawn",
    "team": "2",
    "targetname": "red_spawn_4",
    "hx": -2988.4,
    "hy": 3173.2,
    "hz": -1007.99
   }
  },
  {
   "type": "Feature",
   "geometry": {
    "type": "Point",
    "coordinates": [
     -0.0005196143726557235,
     0.000543024742206919
    ]
   },
   "properties": {
    "classname": "info_player_teamspawn",
    "team": "2",
    "targetname": "red_spawn_4",
    "hx": -3036.4,
    "hy": 3173.2,
    "hz": -1007.99
   }
  },
  {
   "type": "Feature",
   "geometry": {
    "type": "Point",
    "coordinates": [
     -0.000519614372655119,
     0.0005359451589518136
    ]
   },
   "properties": {
    "classname": "info_player_teamspawn",
    "team": "2",
    "targetname": "red_spawn_4",
    "hx": -3036.4,
    "hy": 3131.83,
    "hz": -1007.99
   }
  },
  {
   "type": "Feature",
   "geometry": {
    "type": "Point",
    "coordinates": [
     -0.0005114002078917657,
     0.0005359451589518136
    ]
   },
   "properties": {
    "classname": "info_player_teamspawn",
    "team": "2",
    "targetname": "red_spawn_4",
    "hx": -2988.4,
    "hy": 3131.83,
    "hz": -1007.99
   }
  },
  {
   "type": "Feature",
   "geometry": {
    "type": "Point",
    "coordinates": [
     -0.0004949718783644911,
     0.0005288655756967084
    ]
   },
   "properties": {
    "classname": "info_player_teamspawn",
    "team": "2",
    "targetname": "red_spawn_4",
    "hx": -2892.4,
    "hy": 3090.46,
    "hz": -1007.99
   }
  },
  {
   "type": "Feature",
   "geometry": {
    "type": "Point",
    "coordinates": [
     -0.000511400207891272,
     0.0005299984459202713
    ]
   },
   "properties": {
    "classname": "info_player_teamspawn",
    "team": "2",
    "targetname": "red_spawn_4",
    "hx": -2988.4,
    "hy": 3097.08,
    "hz": -1007.99
   }
  },
  {
   "type": "Feature",
   "geometry": {
    "type": "Point",
    "coordinates": [
     -0.0005031860431278349,
     0.0005288655756967084
    ]
   },
   "properties": {
    "classname": "info_player_teamspawn",
    "team": "2",
    "targetname": "red_spawn_4",
    "hx": -2940.4,
    "hy": 3090.46,
    "hz": -1007.99
   }
  },
  {
   "type": "Feature",
   "geometry": {
    "type": "Point",
    "coordinates": [
     -0.0004867577136012362,
     0.0005299984459202713
    ]
   },
   "properties": {
    "classname": "info_player_teamspawn",
    "team": "2",
    "targetname": "red_spawn_4",
    "hx": -2844.4,
    "hy": 3097.08,
    "hz": -1007.99
   }
  },
  {
   "type": "Feature",
   "geometry": {
    "type": "Point",
    "coordinates": [
     -0.000503186043128374,
     0.0005354745557622671
    ]
   },
   "properties": {
    "classname": "info_player_teamspawn",
    "team": "2",
    "targetname": "red_spawn_4",
    "hx": -2940.4,
    "hy": 3129.08,
    "hz": -1007.99
   }
  },
  {
   "type": "Feature",
   "geometry": {
    "type": "Point",
    "coordinates": [
     -0.000503186043128959,
     0.0005425558503016981
    ]
   },
   "properties": {
    "classname": "info_player_teamspawn",
    "team": "2",
    "targetname": "red_spawn_4",
    "hx": -2940.4,
    "hy": 3170.46,
    "hz": -1007.99
   }
  },
  {
   "type": "Feature",
   "geometry": {
    "type": "Point",
    "coordinates": [
     -0.00048675771360170614,
     0.0005359451589518136
    ]
   },
   "properties": {
    "classname": "info_player_teamspawn",
    "team": "2",
    "targetname": "red_spawn_4",
    "hx": -2844.4,
    "hy": 3131.83,
    "hz": -1007.99
   }
  },
  {
   "type": "Feature",
   "geometry": {
    "type": "Point",
    "coordinates": [
     -0.0004867577136022725,
     0.000543024742206919
    ]
   },
   "properties": {
    "classname": "info_player_teamspawn",
    "team": "2",
    "targetname": "red_spawn_4",
    "hx": -2844.4,
    "hy": 3173.2,
    "hz": -1007.99
   }
  },
  {
   "type": "Feature",
   "geometry": {
    "type": "Point",
    "coordinates": [
     -0.0004785435488389097,
     0.000543024742206919
    ]
   },
   "properties": {
    "classname": "info_player_teamspawn",
    "team": "2",
    "targetname": "red_spawn_4",
    "hx": -2796.4,
    "hy": 3173.2,
    "hz": -1007.99
   }
  },
  {
   "type": "Feature",
   "geometry": {
    "type": "Point",
    "coordinates": [
     -0.00047854354883835297,
     0.0005359451589518136
    ]
   },
   "properties": {
    "classname": "info_player_teamspawn",
    "team": "2",
    "targetname": "red_spawn_4",
    "hx": -2796.4,
    "hy": 3131.83,
    "hz": -1007.99
   }
  },
  {
   "type": "Feature",
   "geometry": {
    "type": "Point",
    "coordinates": [
     -0.0004949718783655969,
     0.0005425558503016981
    ]
   },
   "properties": {
    "classname": "info_player_teamspawn",
    "team": "2",
    "targetname": "red_spawn_4",
    "hx": -2892.4,
    "hy": 3170.46,
    "hz": -1007.99
   }
  },
  {
   "type": "Feature",
   "geometry": {
    "type": "Point",
    "coordinates": [
     -0.0004949718783650214,
     0.0005354745557622671
    ]
   },
   "properties": {
    "classname": "info_player_teamspawn",
    "team": "2",
    "targetname": "red_spawn_4",
    "hx": -2892.4,
    "hy": 3129.08,
    "hz": -1007.99
   }
  },
  {
   "type": "Feature",
   "geometry": {
    "type": "Point",
    "coordinates": [
     6.297526318528274e-05,
     0.0004928498857796316
    ]
   },
   "properties": {
    "classname": "info_player_teamspawn",
    "team": "3",
    "targetname": "blu_spawn_3",
    "hx": 368.0,
    "hy": 2880.0,
    "hz": -752.0
   }
  },
  {
   "type": "Feature",
   "geometry": {
    "type": "Point",
    "coordinates": [
     7.11894279485805e-05,
     0.0004928498857796316
    ]
   },
   "properties": {
    "classname": "info_player_teamspawn",
    "team": "3",
    "targetname": "blu_spawn_3",
    "hx": 416.0,
    "hy": 2880.0,
    "hz": -752.0
   }
  },
  {
   "type": "Feature",
   "geometry": {
    "type": "Point",
    "coordinates": [
     7.940290819814796e-05,
     0.0004928498857796316
    ]
   },
   "properties": {
    "classname": "info_player_teamspawn",
    "team": "3",
    "targetname": "blu_spawn_3",
    "hx": 463.996,
    "hy": 2880.0,
    "hz": -752.0
   }
  },
  {
   "type": "Feature",
   "geometry": {
    "type": "Point",
    "coordinates": [
     8.761707296144572e-05,
     0.0004928498857796316
    ]
   },
   "properties": {
    "classname": "info_player_teamspawn",
    "team": "3",
    "targetname": "blu_spawn_3",
    "hx": 511.996,
    "hy": 2880.0,
    "hz": -752.0
   }
  },
  {
   "type": "Feature",
   "geometry": {
    "type": "Point",
    "coordinates": [
     8.761707296151815e-05,
     0.0004983259956216274
    ]
   },
   "properties": {
    "classname": "info_player_teamspawn",
    "team": "3",
    "targetname": "blu_spawn_3",
    "hx": 511.996,
    "hy": 2912.0,
    "hz": -752.0
   }
  },
  {
   "type": "Feature",
   "geometry": {
    "type": "Point",
    "coordinates": [
     7.94029081982136e-05,
     0.0004983259956216274
    ]
   },
   "properties": {
    "classname": "info_player_teamspawn",
    "team": "3",
    "targetname": "blu_spawn_3",
    "hx": 463.996,
    "hy": 2912.0,
    "hz": -752.0
   }
  },
  {
   "type": "Feature",
   "geometry": {
    "type": "Point",
    "coordinates": [
     7.118942794863935e-05,
     0.0004983259956216274
    ]
   },
   "properties": {
    "classname": "info_player_teamspawn",
    "team": "3",
    "targetname": "blu_spawn_3",
    "hx": 416.0,
    "hy": 2912.0,
    "hz": -752.0
   }
  },
  {
   "type": "Feature",
   "geometry": {
    "type": "Point",
    "coordinates": [
     6.297526318533481e-05,
     0.0004983259956216274
    ]
   },
   "properties": {
    "classname": "info_player_teamspawn",
    "team": "3",
    "targetname": "blu_spawn_3",
    "hx": 368.0,
    "hy": 2912.0,
    "hz": -752.0
   }
  },
  {
   "type": "Feature",
   "geometry": {
    "type": "Point",
    "coordinates": [
     6.297526318538745e-05,
     0.0005038021054636234
    ]
   },
   "properties": {
    "classname": "info_player_teamspawn",
    "team": "3",
    "targetname": "blu_spawn_3",
    "hx": 368.0,
    "hy": 2944.0,
    "hz": -752.0
   }
  },
  {
   "type": "Feature",
   "geometry": {
    "type": "Point",
    "coordinates": [
     7.118942794869886e-05,
     0.0005038021054636234
    ]
   },
   "properties": {
    "classname": "info_player_teamspawn",
    "team": "3",
    "targetname": "blu_spawn_3",
    "hx": 416.0,
    "hy": 2944.0,
    "hz": -752.0
   }
  },
  {
   "type": "Feature",
   "geometry": {
    "type": "Point",
    "coordinates": [
     7.940290819827998e-05,
     0.0005038021054636234
    ]
   },
   "properties": {
    "classname": "info_player_teamspawn",
    "team": "3",
    "targetname": "blu_spawn_3",
    "hx": 463.996,
    "hy": 2944.0,
    "hz": -752.0
   }
  },
  {
   "type": "Feature",
   "geometry": {
    "type": "Point",
    "coordinates": [
     8.76170729615914e-05,
     0.0005038021054636234
    ]
   },
   "properties": {
    "classname": "info_player_teamspawn",
    "team": "3",
    "targetname": "blu_spawn_3",
    "hx": 511.996,
    "hy": 2944.0,
    "hz": -752.0
   }
  },
  {
   "type": "Feature",
   "geometry": {
    "type": "Point",
    "coordinates": [
     8.761673070480028e-05,
     0.0005092782153056193
    ]
   },
   "properties": {
    "classname": "info_player_teamspawn",
    "team": "3",
    "targetname": "blu_spawn_3",
    "hx": 511.994,
    "hy": 2976.0,
    "hz": -752.0
   }
  },
  {
   "type": "Feature",
   "geometry": {
    "type": "Point",
    "coordinates": [
     7.940290819834706e-05,
     0.0005092782153056193
    ]
   },
   "properties": {
    "classname": "info_player_teamspawn",
    "team": "3",
    "targetname": "blu_spawn_3",
    "hx": 463.996,
    "hy": 2976.0,
    "hz": -752.0
   }
  },
  {
   "type": "Feature",
   "geometry": {
    "type": "Point",
    "coordinates": [
     7.1189427948759e-05,
     0.0005092782153056193
    ]
   },
   "properties": {
    "classname": "info_player_teamspawn",
    "team": "3",
    "targetname": "blu_spawn_3",
    "hx": 416.0,
    "hy": 2976.0,
    "hz": -752.0
   }
  },
  {
   "type": "Feature",
   "geometry": {
    "type": "Point",
    "coordinates": [
     6.297526318544066e-05,
     0.0005092782153056193
    ]
   },
   "properties": {
    "classname": "info_player_teamspawn",
    "team": "3",
    "targetname": "blu_spawn_3",
    "hx": 368.0,
    "hy": 2976.0,
    "hz": -752.0
   }
  },
  {
   "type": "Feature",
   "geometry": {
    "type": "Point",
    "coordinates": [
     -0.0003324683187985259,
     0.0005682182700487515
    ]
   },
   "properties": {
    "classname": "info_player_teamspawn",
    "team": "2",
    "targetname": "red_spawn_3",
    "hx": -1942.8,
    "hy": 3320.42,
    "hz": -879.995
   }
  },
  {
   "type": "Feature",
   "geometry": {
    "type": "Point",
    "coordinates": [
     -0.00033246831879900194,
     0.0005764307235274197
    ]
   },
   "properties": {
    "classname": "info_player_teamspawn",
    "team": "2",
    "targetname": "red_spawn_3",
    "hx": -1942.8,
    "hy": 3368.41,
    "hz": -879.995
   }
  },
  {
   "type": "Feature",
   "geometry": {
    "type": "Point",
    "coordinates": [
     -0.00033954961333879146,
     0.0005764324348117453
    ]
   },
   "properties": {
    "classname": "info_player_teamspawn",
    "team": "2",
    "targetname": "red_spawn_3",
    "hx": -1984.18,
    "hy": 3368.42,
    "hz": -879.995
   }
  },
  {
   "type": "Feature",
   "geometry": {
    "type": "Point",
    "coordinates": [
     -0.00033954790205397936,
     0.0005682165587644258
    ]
   },
   "properties": {
    "classname": "info_player_teamspawn",
    "team": "2",
    "targetname": "red_spawn_3",
    "hx": -1984.17,
    "hy": 3320.41,
    "hz": -879.995
   }
  },
  {
   "type": "Feature",
   "geometry": {
    "type": "Point",
    "coordinates": [
     -0.0003466291965937586,
     0.0005682182700487515
    ]
   },
   "properties": {
    "classname": "info_player_teamspawn",
    "team": "2",
    "targetname": "red_spawn_3",
    "hx": -2025.55,
    "hy": 3320.42,
    "hz": -879.995
   }
  },
  {
   "type": "Feature",
   "geometry": {
    "type": "Point",
    "coordinates": [
     -0.0003537087798497188,
     0.0005764341460960709
    ]
   },
   "properties": {
    "classname": "info_player_teamspawn",
    "team": "2",
    "targetname": "red_spawn_3",
    "hx": -2066.92,
    "hy": 3368.43,
    "hz": -879.995
   }
  },
  {
   "type": "Feature",
   "geometry": {
    "type": "Point",
    "coordinates": [
     -0.00034662748530992936,
     0.0005764324348117453
    ]
   },
   "properties": {
    "classname": "info_player_teamspawn",
    "team": "2",
    "targetname": "red_spawn_3",
    "hx": -2025.54,
    "hy": 3368.42,
    "hz": -879.995
   }
  },
  {
   "type": "Feature",
   "geometry": {
    "type": "Point",
    "coordinates": [
     -0.00035370706856488633,
     0.0005682182700487515
    ]
   },
   "properties": {
    "classname": "info_player_teamspawn",
    "team": "2",
    "targetname": "red_spawn_3",
    "hx": -2066.91,
    "hy": 3320.42,
    "hz": -879.995
   }
  },
  {
   "type": "Feature",
   "geometry": {
    "type": "Point",
    "coordinates": [
     -0.000353708779848713,
     0.0005600058165700832
    ]
   },
   "properties": {
    "classname": "info_player_teamspawn",
    "team": "2",
    "targetname": "red_spawn_3",
    "hx": -2066.92,
    "hy": 3272.43,
    "hz": -879.995
   }
  },
  {
   "type": "Feature",
   "geometry": {
    "type": "Point",
    "coordinates": [
     -0.0003466274853089436,
     0.0005600041052857576
    ]
   },
   "properties": {
    "classname": "info_player_teamspawn",
    "team": "2",
    "targetname": "red_spawn_3",
    "hx": -2025.54,
    "hy": 3272.42,
    "hz": -879.995
   }
  },
  {
   "type": "Feature",
   "geometry": {
    "type": "Point",
    "coordinates": [
     -0.0003395496133378259,
     0.0005600041052857576
    ]
   },
   "properties": {
    "classname": "info_player_teamspawn",
    "team": "2",
    "targetname": "red_spawn_3",
    "hx": -1984.18,
    "hy": 3272.42,
    "hz": -879.995
   }
  },
  {
   "type": "Feature",
   "geometry": {
    "type": "Point",
    "coordinates": [
     -0.0003324683187980566,
     0.0005600023940014319
    ]
   },
   "properties": {
    "classname": "info_player_teamspawn",
    "team": "2",
    "targetname": "red_spawn_3",
    "hx": -1942.8,
    "hy": 3272.41,
    "hz": -879.995
   }
  },
  {
   "type": "Feature",
   "geometry": {
    "type": "Point",
    "coordinates": [
     -0.0003324683187975942,
     0.0005517899405227637
    ]
   },
   "properties": {
    "classname": "info_player_teamspawn",
    "team": "2",
    "targetname": "red_spawn_3",
    "hx": -1942.8,
    "hy": 3224.42,
    "hz": -879.995
   }
  },
  {
   "type": "Feature",
   "geometry": {
    "type": "Point",
    "coordinates": [
     -0.0003395479020530279,
     0.0005517899405227637
    ]
   },
   "properties": {
    "classname": "info_player_teamspawn",
    "team": "2",
    "targetname": "red_spawn_3",
    "hx": -1984.17,
    "hy": 3224.42,
    "hz": -879.995
   }
  },
  {
   "type": "Feature",
   "geometry": {
    "type": "Point",
    "coordinates": [
     -0.00034662919659278734,
     0.0005517916518070894
    ]
   },
   "properties": {
    "classname": "info_player_teamspawn",
    "team": "2",
    "targetname": "red_spawn_3",
    "hx": -2025.55,
    "hy": 3224.43,
    "hz": -879.995
   }
  },
  {
   "type": "Feature",
   "geometry": {
    "type": "Point",
    "coordinates": [
     -0.0003537070685638951,
     0.0005517899405227637
    ]
   },
   "properties": {
    "classname": "info_player_teamspawn",
    "team": "2",
    "targetname": "red_spawn_3",
    "hx": -2066.91,
    "hy": 3224.42,
    "hz": -879.995
   }
  },
  {
   "type": "Feature",
   "geometry": {
    "type": "Point",
    "coordinates": [
     -9.993883348835699e-05,
     -0.0001546975361098959
    ]
   },
   "properties": {
    "classname": "info_player_teamspawn",
    "team": "3",
    "targetname": "blu_spawn_2",
    "hx": -583.999,
    "hy": -903.985,
    "hz": 64.0092
   }
  },
  {
   "type": "Feature",
   "geometry": {
    "type": "Point",
    "coordinates": [
     -9.993883348830724e-05,
     -0.00014374651432493205
    ]
   },
   "properties": {
    "classname": "info_player_teamspawn",
    "team": "3",
    "targetname": "blu_spawn_2",
    "hx": -583.999,
    "hy": -839.992,
    "hz": 64.0092
   }
  },
  {
   "type": "Feature",
   "geometry": {
    "type": "Point",
    "coordinates": [
     -9.993883348826115e-05,
     -0.00013279429464094022
    ]
   },
   "properties": {
    "classname": "info_player_teamspawn",
    "team": "3",
    "targetname": "blu_spawn_2",
    "hx": -583.999,
    "hy": -775.992,
    "hz": 64.0046
   }
  },
  {
   "type": "Feature",
   "geometry": {
    "type": "Point",
    "coordinates": [
     -9.99388334882187e-05,
     -0.00012184207495694841
    ]
   },
   "properties": {
    "classname": "info_player_teamspawn",
    "team": "3",
    "targetname": "blu_spawn_2",
    "hx": -583.999,
    "hy": -711.992,
    "hz": 64.0046
   }
  },
  {
   "type": "Feature",
   "geometry": {
    "type": "Point",
    "coordinates": [
     -0.00010815385389339395,
     -0.0001218407059294879
    ]
   },
   "properties": {
    "classname": "info_player_teamspawn",
    "team": "3",
    "targetname": "blu_spawn_2",
    "hx": -632.004,
    "hy": -711.984,
    "hz": 64.0092
   }
  },
  {
   "type": "Feature",
   "geometry": {
    "type": "Point",
    "coordinates": [
     -0.00010815385389343988,
     -0.00013279429464094022
    ]
   },
   "properties": {
    "classname": "info_player_teamspawn",
    "team": "3",
    "targetname": "blu_spawn_2",
    "hx": -632.004,
    "hy": -775.992,
    "hz": 64.0092
   }
  },
  {
   "type": "Feature",
   "geometry": {
    "type": "Point",
    "coordinates": [
     -0.00010815385389348976,
     -0.00014374531642590412
    ]
   },
   "properties": {
    "classname": "info_player_teamspawn",
    "team": "3",
    "targetname": "blu_spawn_2",
    "hx": -632.004,
    "hy": -839.985,
    "hz": 64.0092
   }
  },
  {
   "type": "Feature",
   "geometry": {
    "type": "Point",
    "coordinates": [
     -0.00010815385389354361,
     -0.00015469873400892383
    ]
   },
   "properties": {
    "classname": "info_player_teamspawn",
    "team": "3",
    "targetname": "blu_spawn_2",
    "hx": -632.004,
    "hy": -903.992,
    "hz": 64.0092
   }
  },
  {
   "type": "Feature",
   "geometry": {
    "type": "Point",
    "coordinates": [
     -0.00011636767639970227,
     -0.00015469873400892383
    ]
   },
   "properties": {
    "classname": "info_player_teamspawn",
    "team": "3",
    "targetname": "blu_spawn_2",
    "hx": -680.002,
    "hy": -903.992,
    "hz": 64.0092
   }
  },
  {
   "type": "Feature",
   "geometry": {
    "type": "Point",
    "coordinates": [
     -0.0001245816700342935,
     -0.00015469873400892383
    ]
   },
   "properties": {
    "classname": "info_player_teamspawn",
    "team": "3",
    "targetname": "blu_spawn_2",
    "hx": -728.001,
    "hy": -903.992,
    "hz": 64.0092
   }
  },
  {
   "type": "Feature",
   "geometry": {
    "type": "Point",
    "coordinates": [
     -0.00012458167003423149,
     -0.00014374531642590412
    ]
   },
   "properties": {
    "classname": "info_player_teamspawn",
    "team": "3",
    "targetname": "blu_spawn_2",
    "hx": -728.001,
    "hy": -839.985,
    "hz": 64.0092
   }
  },
  {
   "type": "Feature",
   "geometry": {
    "type": "Point",
    "coordinates": [
     -0.00011636767639964435,
     -0.00014374531642590412
    ]
   },
   "properties": {
    "classname": "info_player_teamspawn",
    "team": "3",
    "targetname": "blu_spawn_2",
    "hx": -680.002,
    "hy": -839.985,
    "hz": 64.0092
   }
  },
  {
   "type": "Feature",
   "geometry": {
    "type": "Point",
    "coordinates": [
     -0.00011636767639959067,
     -0.00013279429464094022
    ]
   },
   "properties": {
    "classname": "info_player_teamspawn",
    "team": "3",
    "targetname": "blu_spawn_2",
    "hx": -680.002,
    "hy": -775.992,
    "hz": 64.0092
   }
  },
  {
   "type": "Feature",
   "geometry": {
    "type": "Point",
    "coordinates": [
     -0.00012458167003417402,
     -0.00013279429464094022
    ]
   },
   "properties": {
    "classname": "info_player_teamspawn",
    "team": "3",
    "targetname": "blu_spawn_2",
    "hx": -728.001,
    "hy": -775.992,
    "hz": 64.0092
   }
  },
  {
   "type": "Feature",
   "geometry": {
    "type": "Point",
    "coordinates": [
     -0.00012458167003412111,
     -0.0001218407059294879
    ]
   },
   "properties": {
    "classname": "info_player_teamspawn",
    "team": "3",
    "targetname": "blu_spawn_2",
    "hx": -728.001,
    "hy": -711.984,
    "hz": 64.0092
   }
  },
  {
   "type": "Feature",
   "geometry": {
    "type": "Point",
    "coordinates": [
     -0.00011636767639954124,
     -0.0001218407059294879
    ]
   },
   "properties": {
    "classname": "info_player_teamspawn",
    "team": "3",
    "targetname": "blu_spawn_2",
    "hx": -680.002,
    "hy": -711.984,
    "hz": 64.0092
   }
  },
  {
   "type": "Feature",
   "geometry": {
    "type": "Point",
    "coordinates": [
     -0.0005599322313464217,
     0.00016565369174783667
    ]
   },
   "properties": {
    "classname": "info_player_teamspawn",
    "team": "3",
    "targetname": "blu_spawn_1a",
    "hx": -3272.0,
    "hy": 968.008,
    "hz": 784.005
   }
  },
  {
   "type": "Feature",
   "geometry": {
    "type": "Point",
    "coordinates": [
     -0.0005558251489650242,
     0.0001697611163861987
    ]
   },
   "properties": {
    "classname": "info_player_teamspawn",
    "team": "3",
    "targetname": "blu_spawn_1a",
    "hx": -3248.0,
    "hy": 992.01,
    "hz": 784.005
   }
  },
  {
   "type": "Feature",
   "geometry": {
    "type": "Point",
    "coordinates": [
     -0.0005503490391228508,
     0.00016428466428733768
    ]
   },
   "properties": {
    "classname": "info_player_teamspawn",
    "team": "3",
    "targetname": "blu_spawn_1a",
    "hx": -3216.0,
    "hy": 960.008,
    "hz": 784.005
   }
  },
  {
   "type": "Feature",
   "geometry": {
    "type": "Point",
    "coordinates": [
     -0.0005448729292806857,
     0.00015880855444534177
    ]
   },
   "properties": {
    "classname": "info_player_teamspawn",
    "team": "3",
    "targetname": "blu_spawn_1a",
    "hx": -3184.0,
    "hy": 928.008,
    "hz": 784.005
   }
  },
  {
   "type": "Feature",
   "geometry": {
    "type": "Point",
    "coordinates": [
     -0.0005393968194385282,
     0.00015333244460334587
    ]
   },
   "properties": {
    "classname": "info_player_teamspawn",
    "team": "3",
    "targetname": "blu_spawn_1a",
    "hx": -3152.0,
    "hy": 896.008,
    "hz": 784.005
   }
  },
  {
   "type": "Feature",
   "geometry": {
    "type": "Point",
    "coordinates": [
     -0.000543503901819937,
     0.00014922536222184893
    ]
   },
   "properties": {
    "classname": "info_player_teamspawn",
    "team": "3",
    "targetname": "blu_spawn_1a",
    "hx": -3176.0,
    "hy": 872.008,
    "hz": 784.005
   }
  },
  {
   "type": "Feature",
   "geometry": {
    "type": "Point",
    "coordinates": [
     -0.0005489800116620906,
     0.00015470147206384484
    ]
   },
   "properties": {
    "classname": "info_player_teamspawn",
    "team": "3",
    "targetname": "blu_spawn_1a",
    "hx": -3208.0,
    "hy": 904.008,
    "hz": 784.005
   }
  },
  {
   "type": "Feature",
   "geometry": {
    "type": "Point",
    "coordinates": [
     -0.0005544561215042521,
     0.00016017758190584074
    ]
   },
   "properties": {
    "classname": "info_player_teamspawn",
    "team": "3",
    "targetname": "blu_spawn_1a",
    "hx": -3240.0,
    "hy": 936.008,
    "hz": 784.005
   }
  },
  {
   "type": "Feature",
   "geometry": {
    "type": "Point",
    "coordinates": [
     -0.0005640393137278203,
     0.00016154660936633974
    ]
   },
   "properties": {
    "classname": "info_player_teamspawn",
    "team": "3",
    "targetname": "blu_spawn_1a",
    "hx": -3296.0,
    "hy": 944.008,
    "hz": 784.005
   }
  },
  {
   "type": "Feature",
   "geometry": {
    "type": "Point",
    "coordinates": [
     -0.0005585632038856547,
     0.00015607049952434383
    ]
   },
   "properties": {
    "classname": "info_player_teamspawn",
    "team": "3",
    "targetname": "blu_spawn_1a",
    "hx": -3264.0,
    "hy": 912.008,
    "hz": 784.005
   }
  },
  {
   "type": "Feature",
   "geometry": {
    "type": "Point",
    "coordinates": [
     -0.000553087094043497,
     0.0001505943896823479
    ]
   },
   "properties": {
    "classname": "info_player_teamspawn",
    "team": "3",
    "targetname": "blu_spawn_1a",
    "hx": -3232.0,
    "hy": 880.008,
    "hz": 784.005
   }
  },
  {
   "type": "Feature",
   "geometry": {
    "type": "Point",
    "coordinates": [
     -0.0005476109842013471,
     0.000145118279840352
    ]
   },
   "properties": {
    "classname": "info_player_teamspawn",
    "team": "3",
    "targetname": "blu_spawn_1a",
    "hx": -3200.0,
    "hy": 848.008,
    "hz": 784.005
   }
  },
  {
   "type": "Feature",
   "geometry": {
    "type": "Point",
    "coordinates": [
     -0.0005517180665827584,
     0.0001410111974588551
    ]
   },
   "properties": {
    "classname": "info_player_teamspawn",
    "team": "3",
    "targetname": "blu_spawn_1a",
    "hx": -3224.0,
    "hy": 824.008,
    "hz": 784.005
   }
  },
  {
   "type": "Feature",
   "geometry": {
    "type": "Point",
    "coordinates": [
     -0.0005571941764249045,
     0.00014648730730085097
    ]
   },
   "properties": {
    "classname": "info_player_teamspawn",
    "team": "3",
    "targetname": "blu_spawn_1a",
    "hx": -3256.0,
    "hy": 856.008,
    "hz": 784.005
   }
  },
  {
   "type": "Feature",
   "geometry": {
    "type": "Point",
    "coordinates": [
     -0.0005626702862670585,
     0.0001519634171428469
    ]
   },
   "properties": {
    "classname": "info_player_teamspawn",
    "team": "3",
    "targetname": "blu_spawn_1a",
    "hx": -3288.0,
    "hy": 888.008,
    "hz": 784.005
   }
  },
  {
   "type": "Feature",
   "geometry": {
    "type": "Point",
    "coordinates": [
     -0.0005681463961092202,
     0.0001574395269848428
    ]
   },
   "properties": {
    "classname": "info_player_teamspawn",
    "team": "3",
    "targetname": "blu_spawn_1a",
    "hx": -3320.0,
    "hy": 920.008,
    "hz": 784.005
   }
  },
  {
   "type": "Feature",
   "geometry": {
    "type": "Point",
    "coordinates": [
     7.3788697715881e-06,
     0.0008301098006735544
    ]
   },
   "properties": {
    "classname": "item_healthkit_medium",
    "team": "0",
    "targetname": "",
    "hx": 43.1189,
    "hy": 4850.8,
    "hz": -1116.0
   }
  },
  {
   "type": "Feature",
   "geometry": {
    "type": "Point",
    "coordinates": [
     -2.057939191684207e-06,
     0.0008356680521631802
    ]
   },
   "properties": {
    "classname": "item_ammopack_medium",
    "team": "0",
    "targetname": "",
    "hx": -12.0257,
    "hy": 4883.28,
    "hz": -1116.0
   }
  },
  {
   "type": "Feature",
   "geometry": {
    "type": "Point",
    "coordinates": [
     0.00023410369574532663,
     -6.845137302494882e-06
    ]
   },
   "properties": {
    "classname": "item_ammopack_medium",
    "team": "0",
    "targetname": "",
    "hx": 1368.0,
    "hy": -40.0,
    "hz": -184.0
   }
  },
  {
   "type": "Feature",
   "geometry": {
    "type": "Point",
    "coordinates": [
     -0.0005659970230788449,
     0.00099153525110964
    ]
   },
   "properties": {
    "classname": "item_healthkit_full",
    "team": "0",
    "targetname": "",
    "hx": -3307.44,
    "hy": 5794.1,
    "hz": -1719.99
   }
  },
  {
   "type": "Feature",
   "geometry": {
    "type": "Point",
    "coordinates": [
     -8.487970255163679e-05,
     0.000232734668284826
    ]
   },
   "properties": {
    "classname": "info_player_teamspawn",
    "team": "2",
    "targetname": "red_spawn_1",
    "hx": -496.0,
    "hy": 1360.0,
    "hz": 80.0096
   }
  },
  {
   "type": "Feature",
   "geometry": {
    "type": "Point",
    "coordinates": [
     2.7380549210036003e-05,
     0.000116367334142413
    ]
   },
   "properties": {
    "classname": "item_healthkit_small",
    "team": "0",
    "targetname": "",
    "hx": 160.0,
    "hy": 680.0,
    "hz": 136.0
   }
  },
  {
   "type": "Feature",
   "geometry": {
    "type": "Point",
    "coordinates": [
     -0.000650717576107018,
     0.00020762499337494917
    ]
   },
   "properties": {
    "classname": "info_player_teamspawn",
    "team": "3",
    "targetname": "blu_spawn_1",
    "hx": -3802.51,
    "hy": 1213.27,
    "hz": 848.005
   }
  },
  {
   "type": "Feature",
   "geometry": {
    "type": "Point",
    "coordinates": [
     -0.0006471204564540605,
     0.00019573327859618992
    ]
   },
   "properties": {
    "classname": "info_player_teamspawn",
    "team": "3",
    "targetname": "blu_spawn_1",
    "hx": -3781.49,
    "hy": 1143.78,
    "hz": 848.005
   }
  },
  {
   "type": "Feature",
   "geometry": {
    "type": "Point",
    "coordinates": [
     -0.0005544561215585911,
     0.0008179939076481384
    ]
   },
   "properties": {
    "classname": "item_healthkit_small",
    "team": "0",
    "targetname": "",
    "hx": -3240.0,
    "hy": 4780.0,
    "hz": -1272.0
   }
  },
  {
   "type": "Feature",
   "geometry": {
    "type": "Point",
    "coordinates": [
     0.00023410369574533305,
     -1.5059302065488742e-05
    ]
   },
   "properties": {
    "classname": "item_healthkit_small",
    "team": "0",
    "targetname": "",
    "hx": 1368.0,
    "hy": -88.0,
    "hz": -184.0
   }
  },
  {
   "type": "Feature",
   "geometry": {
    "type": "Point",
    "coordinates": [
     -0.00039736022041915496,
     0.00039256862429808153
    ]
   },
   "properties": {
    "classname": "item_healthkit_small",
    "team": "0",
    "targetname": "",
    "hx": -2322.0,
    "hy": 2294.0,
    "hz": 968.0
   }
  },
  {
   "type": "Feature",
   "geometry": {
    "type": "Point",
    "coordinates": [
     -1.7797356987077458e-05,
     0.000466838364030151
    ]
   },
   "properties": {
    "classname": "item_healthkit_small",
    "team": "0",
    "targetname": "",
    "hx": -104.0,
    "hy": 2728.0,
    "hz": -760.0
   }
  },
  {
   "type": "Feature",
   "geometry": {
    "type": "Point",
    "coordinates": [
     -0.0002765435470564956,
     0.0009206709671855617
    ]
   },
   "properties": {
    "classname": "item_ammopack_full",
    "team": "0",
    "targetname": "",
    "hx": -1616.0,
    "hy": 5380.0,
    "hz": -1272.0
   }
  },
  {
   "type": "Feature",
   "geometry": {
    "type": "Point",
    "coordinates": [
     -0.0004038631008862488,
     0.0007967739820104044
    ]
   },
   "properties": {
    "classname": "item_healthkit_small",
    "team": "0",
    "targetname": "",
    "hx": -2360.0,
    "hy": 4656.0,
    "hz": -1208.0
   }
  },
  {
   "type": "Feature",
   "geometry": {
    "type": "Point",
    "coordinates": [
     -0.0004113927519154026,
     0.0007522805895441876
    ]
   },
   "properties": {
    "classname": "item_healthkit_small",
    "team": "0",
    "targetname": "",
    "hx": -2404.0,
    "hy": 4396.0,
    "hz": -1264.0
   }
  },
  {
   "type": "Feature",
   "geometry": {
    "type": "Point",
    "coordinates": [
     -0.0006457120694547425,
     0.00021263050002739853
    ]
   },
   "properties": {
    "classname": "info_player_teamspawn",
    "team": "3",
    "targetname": "blu_spawn_1",
    "hx": -3773.26,
    "hy": 1242.52,
    "hz": 848.005
   }
  },
  {
   "type": "Feature",
   "geometry": {
    "type": "Point",
    "coordinates": [
     -0.0006443824015325725,
     0.00018298249908596759
    ]
   },
   "properties": {
    "classname": "info_player_teamspawn",
    "team": "3",
    "targetname": "blu_spawn_1",
    "hx": -3765.49,
    "hy": 1069.27,
    "hz": 848.005
   }
  },
  {
   "type": "Feature",
   "geometry": {
    "type": "Point",
    "coordinates": [
     -0.0002862311275883213,
     6.283904495063328e-05
    ]
   },
   "properties": {
    "classname": "item_healthkit_small",
    "team": "0",
    "targetname": "",
    "hx": -1672.61,
    "hy": 367.204,
    "hz": 520.261
   }
  },
  {
   "type": "Feature",
   "geometry": {
    "type": "Point",
    "coordinates": [
     0.00010404608700617111,
     0.0007214774716829606
    ]
   },
   "properties": {
    "classname": "item_healthkit_small",
    "team": "0",
    "targetname": "",
    "hx": 608.0,
    "hy": 4216.0,
    "hz": -696.0
   }
  },
  {
   "type": "Feature",
   "geometry": {
    "type": "Point",
    "coordinates": [
     -6.0237208262451914e-05,
     0.000232734668284826
    ]
   },
   "properties": {
    "classname": "info_player_teamspawn",
    "team": "2",
    "targetname": "red_spawn_1",
    "hx": -352.0,
    "hy": 1360.0,
    "hz": 80.0096
   }
  },
  {
   "type": "Feature",
   "geometry": {
    "type": "Point",
    "coordinates": [
     -0.0006393768948802784,
     0.00018798800573841695
    ]
   },
   "properties": {
    "classname": "info_player_teamspawn",
    "team": "3",
    "targetname": "blu_spawn_1",
    "hx": -3736.24,
    "hy": 1098.52,
    "hz": 848.005
   }
  },
  {
   "type": "Feature",
   "geometry": {
    "type": "Point",
    "coordinates": [
     -0.00032377499440976805,
     -0.00018892578954885877
    ]
   },
   "properties": {
    "classname": "item_ammopack_small",
    "team": "0",
    "targetname": "",
    "hx": -1892.0,
    "hy": -1104.0,
    "hz": 266.0
   }
  },
  {
   "type": "Feature",
   "geometry": {
    "type": "Point",
    "coordinates": [
     -0.0006274851801013273,
     0.0001843908860859559
    ]
   },
   "properties": {
    "classname": "info_player_teamspawn",
    "team": "3",
    "targetname": "blu_spawn_1",
    "hx": -3666.75,
    "hy": 1077.5,
    "hz": 848.005
   }
  },
  {
   "type": "Feature",
   "geometry": {
    "type": "Point",
    "coordinates": [
     -0.00019850898177506938,
     0.0002998170138492758
    ]
   },
   "properties": {
    "classname": "item_healthkit_medium",
    "team": "0",
    "targetname": "",
    "hx": -1160.0,
    "hy": 1752.0,
    "hz": 840.0
   }
  },
  {
   "type": "Feature",
   "geometry": {
    "type": "Point",
    "coordinates": [
     -0.0006316316220221895,
     0.00018024444416496962
    ]
   },
   "properties": {
    "classname": "info_player_teamspawn",
    "team": "3",
    "targetname": "blu_spawn_1",
    "hx": -3690.98,
    "hy": 1053.27,
    "hz": 848.005
   }
  },
  {
   "type": "Feature",
   "geometry": {
    "type": "Point",
    "coordinates": [
     -2.190443936872357e-05,
     0.00047094544641164795
    ]
   },
   "properties": {
    "classname": "item_healthkit_medium",
    "team": "0",
    "targetname": "",
    "hx": -128.0,
    "hy": 2752.0,
    "hz": -1016.0
   }
  },
  {
   "type": "Feature",
   "geometry": {
    "type": "Point",
    "coordinates": [
     -0.0003135072885042044,
     0.0010226635129927356
    ]
   },
   "properties": {
    "classname": "item_healthkit_small",
    "team": "0",
    "targetname": "",
    "hx": -1832.0,
    "hy": 5976.0,
    "hz": -1528.0
   }
  },
  {
   "type": "Feature",
   "geometry": {
    "type": "Point",
    "coordinates": [
     -7.666553778860146e-05,
     0.00023752626439657243
    ]
   },
   "properties": {
    "classname": "info_player_teamspawn",
    "team": "2",
    "targetname": "red_spawn_1",
    "hx": -448.0,
    "hy": 1388.0,
    "hz": 80.0096
   }
  },
  {
   "type": "Feature",
   "geometry": {
    "type": "Point",
    "coordinates": [
     -6.02373793908444e-05,
     0.0002231531873456588
    ]
   },
   "properties": {
    "classname": "info_player_teamspawn",
    "team": "2",
    "targetname": "red_spawn_1",
    "hx": -352.001,
    "hy": 1304.01,
    "hz": 80.0046
   }
  },
  {
   "type": "Feature",
   "geometry": {
    "type": "Point",
    "coordinates": [
     -0.0006421149498006545,
     0.00016979876464136244
    ]
   },
   "properties": {
    "classname": "info_player_teamspawn",
    "team": "3",
    "targetname": "blu_spawn_1",
    "hx": -3752.24,
    "hy": 992.23,
    "hz": 848.005
   }
  },
  {
   "type": "Feature",
   "geometry": {
    "type": "Point",
    "coordinates": [
     -6.845137302549053e-05,
     0.0002279430721730796
    ]
   },
   "properties": {
    "classname": "info_player_teamspawn",
    "team": "2",
    "targetname": "red_spawn_1",
    "hx": -400.0,
    "hy": 1332.0,
    "hz": 80.0096
   }
  },
  {
   "type": "Feature",
   "geometry": {
    "type": "Point",
    "coordinates": [
     -0.0005024330780038172,
     -9.514740850467887e-05
    ]
   },
   "properties": {
    "classname": "item_healthkit_medium",
    "team": "0",
    "targetname": "",
    "hx": -2936.0,
    "hy": -556.0,
    "hz": 132.0
   }
  },
  {
   "type": "Feature",
   "geometry": {
    "type": "Point",
    "coordinates": [
     0.00020946120146133742,
     0.00039564893608420425
    ]
   },
   "properties": {
    "classname": "item_ammopack_medium",
    "team": "0",
    "targetname": "",
    "hx": 1224.0,
    "hy": 2312.0,
    "hz": -568.0
   }
  },
  {
   "type": "Feature",
   "geometry": {
    "type": "Point",
    "coordinates": [
     0.00020261606415851362,
     0.00038880379878170935
    ]
   },
   "properties": {
    "classname": "item_healthkit_medium",
    "team": "0",
    "targetname": "",
    "hx": 1184.0,
    "hy": 2272.0,
    "hz": -568.0
   }
  },
  {
   "type": "Feature",
   "geometry": {
    "type": "Point",
    "coordinates": [
     -7.666570891695673e-05,
     0.0002231531873456588
    ]
   },
   "properties": {
    "classname": "info_player_teamspawn",
    "team": "2",
    "targetname": "red_spawn_1",
    "hx": -448.001,
    "hy": 1304.01,
    "hz": 80.0046
   }
  },
  {
   "type": "Feature",
   "geometry": {
    "type": "Point",
    "coordinates": [
     -0.000654865729312187,
     0.00020347684016963727
    ]
   },
   "properties": {
    "classname": "info_player_teamspawn",
    "team": "3",
    "targetname": "blu_spawn_1",
    "hx": -3826.75,
    "hy": 1189.03,
    "hz": 848.005
   }
  },
  {
   "type": "Feature",
   "geometry": {
    "type": "Point",
    "coordinates": [
     -0.0004087385498939567,
     0.00022158565090338745
    ]
   },
   "properties": {
    "classname": "item_ammopack_medium",
    "team": "0",
    "targetname": "",
    "hx": -2388.49,
    "hy": 1294.85,
    "hz": 633.912
   }
  },
  {
   "type": "Feature",
   "geometry": {
    "type": "Point",
    "coordinates": [
     -0.00019166384447236233,
     0.00029297187654678096
    ]
   },
   "properties": {
    "classname": "item_ammopack_medium",
    "team": "0",
    "targetname": "",
    "hx": -1120.0,
    "hy": 1712.0,
    "hz": 840.0
   }
  },
  {
   "type": "Feature",
   "geometry": {
    "type": "Point",
    "coordinates": [
     -0.00044613866886875645,
     0.0007800821146982706
    ]
   },
   "properties": {
    "classname": "item_healthkit_small",
    "team": "0",
    "targetname": "",
    "hx": -2607.04,
    "hy": 4558.46,
    "hz": -1584.0
   }
  },
  {
   "type": "Feature",
   "geometry": {
    "type": "Point",
    "coordinates": [
     2.7380549210044253e-05,
     0.00012458149890540686
    ]
   },
   "properties": {
    "classname": "item_ammopack_small",
    "team": "0",
    "targetname": "",
    "hx": 160.0,
    "hy": 728.0,
    "hz": 136.261
   }
  },
  {
   "type": "Feature",
   "geometry": {
    "type": "Point",
    "coordinates": [
     -8.487987368001288e-05,
     0.0002231531873456588
    ]
   },
   "properties": {
    "classname": "info_player_teamspawn",
    "team": "2",
    "targetname": "red_spawn_1",
    "hx": -496.001,
    "hy": 1304.01,
    "hz": 80.0046
   }
  },
  {
   "type": "Feature",
   "geometry": {
    "type": "Point",
    "coordinates": [
     -0.0006598712359644657,
     0.00019847133351718786
    ]
   },
   "properties": {
    "classname": "info_player_teamspawn",
    "team": "3",
    "targetname": "blu_spawn_1",
    "hx": -3856.0,
    "hy": 1159.78,
    "hz": 848.005
   }
  },
  {
   "type": "Feature",
   "geometry": {
    "type": "Point",
    "coordinates": [
     -0.0004818976661534033,
     0.0008871297944033368
    ]
   },
   "properties": {
    "classname": "team_control_point",
    "team": "",
    "targetname": "cp_final",
    "hx": -2816.0,
    "hy": 5184.0,
    "hz": -256.0
   }
  },
  {
   "type": "Feature",
   "geometry": {
    "type": "Point",
    "coordinates": [
     -8.487970255166592e-05,
     0.00023752626439657243
    ]
   },
   "properties": {
    "classname": "info_player_teamspawn",
    "team": "2",
    "targetname": "red_spawn_1",
    "hx": -496.0,
    "hy": 1388.0,
    "hz": 80.0096
   }
  },
  {
   "type": "Feature",
   "geometry": {
    "type": "Point",
    "coordinates": [
     -0.000179342597336317,
     0.0006331752004807765
    ]
   },
   "properties": {
    "classname": "item_ammopack_medium",
    "team": "0",
    "targetname": "",
    "hx": -1048.0,
    "hy": 3700.0,
    "hz": -824.0
   }
  },
  {
   "type": "Feature",
   "geometry": {
    "type": "Point",
    "coordinates": [
     9.309386731413155e-05,
     0.00011910538906341096
    ]
   },
   "properties": {
    "classname": "item_ammopack_medium",
    "team": "0",
    "targetname": "",
    "hx": 544.0,
    "hy": 696.0,
    "hz": 10.0
   }
  },
  {
   "type": "Feature",
   "geometry": {
    "type": "Point",
    "coordinates": [
     -0.0005544561215574621,
     0.0008097797428851446
    ]
   },
   "properties": {
    "classname": "item_ammopack_medium",
    "team": "0",
    "targetname": "",
    "hx": -3240.0,
    "hy": 4732.0,
    "hz": -1272.0
   }
  },
  {
   "type": "Feature",
   "geometry": {
    "type": "Point",
    "coordinates": [
     0.00027380549210179623,
     -0.00021904439367983623
    ]
   },
   "properties": {
    "classname": "item_healthkit_medium",
    "team": "0",
    "targetname": "",
    "hx": 1600.0,
    "hy": -1280.0,
    "hz": -312.0
   }
  },
  {
   "type": "Feature",
   "geometry": {
    "type": "Point",
    "coordinates": [
     -0.00041359859737890545,
     0.00022657917856555747
    ]
   },
   "properties": {
    "classname": "item_healthkit_medium",
    "team": "0",
    "targetname": "",
    "hx": -2416.89,
    "hy": 1324.03,
    "hz": 633.912
   }
  },
  {
   "type": "Feature",
   "geometry": {
    "type": "Point",
    "coordinates": [
     -0.00023821077812711812,
     9.035581239293245e-05
    ]
   },
   "properties": {
    "classname": "item_healthkit_medium",
    "team": "0",
    "targetname": "",
    "hx": -1392.0,
    "hy": 528.0,
    "hz": 200.0
   }
  },
  {
   "type": "Feature",
   "geometry": {
    "type": "Point",
    "coordinates": [
     -2.6011521750343974e-05,
     0.000466838364030151
    ]
   },
   "properties": {
    "classname": "item_ammopack_medium",
    "team": "0",
    "targetname": "",
    "hx": -152.0,
    "hy": 2728.0,
    "hz": -504.0
   }
  },
  {
   "type": "Feature",
   "geometry": {
    "type": "Point",
    "coordinates": [
     -0.0004818976661534033,
     0.0008871297944033368
    ]
   },
   "properties": {
    "classname": "team_control_point",
    "team": "",
    "targetname": "cp_four",
    "hx": -2816.0,
    "hy": 5184.0,
    "hz": -1536.0
   }
  },
  {
   "type": "Feature",
   "geometry": {
    "type": "Point",
    "coordinates": [
     -6.845137302551354e-05,
     0.000232734668284826
    ]
   },
   "properties": {
    "classname": "info_player_teamspawn",
    "team": "2",
    "targetname": "red_spawn_1",
    "hx": -400.0,
    "hy": 1360.0,
    "hz": 80.0096
   }
  },
  {
   "type": "Feature",
   "geometry": {
    "type": "Point",
    "coordinates": [
     -8.487970255160825e-05,
     0.0002279430721730796
    ]
   },
   "properties": {
    "classname": "info_player_teamspawn",
    "team": "2",
    "targetname": "red_spawn_1",
    "hx": -496.0,
    "hy": 1332.0,
    "hz": 80.0096
   }
  },
  {
   "type": "Feature",
   "geometry": {
    "type": "Point",
    "coordinates": [
     -0.000637966796596602,
     0.0002048869384539512
    ]
   },
   "properties": {
    "classname": "info_player_teamspawn",
    "team": "3",
    "targetname": "blu_spawn_1",
    "hx": -3728.0,
    "hy": 1197.27,
    "hz": 848.005
   }
  },
  {
   "type": "Feature",
   "geometry": {
    "type": "Point",
    "coordinates": [
     -6.845154415390055e-05,
     0.0002231531873456588
    ]
   },
   "properties": {
    "classname": "info_player_teamspawn",
    "team": "2",
    "targetname": "red_spawn_1",
    "hx": -400.001,
    "hy": 1304.01,
    "hz": 80.0046
   }
  },
  {
   "type": "Feature",
   "geometry": {
    "type": "Point",
    "coordinates": [
     0.00011499830668214566,
     -0.00011499830668191402
    ]
   },
   "properties": {
    "classname": "item_ammopack_full",
    "team": "0",
    "targetname": "",
    "hx": 672.0,
    "hy": -672.0,
    "hz": -214.0
   }
  },
  {
   "type": "Feature",
   "geometry": {
    "type": "Point",
    "coordinates": [
     0.0002080921740047871,
     0.0005311826546736028
    ]
   },
   "properties": {
    "classname": "item_healthkit_small",
    "team": "0",
    "targetname": "",
    "hx": 1216.0,
    "hy": 3104.0,
    "hz": -504.0
   }
  },
  {
   "type": "Feature",
   "geometry": {
    "type": "Point",
    "coordinates": [
     -0.00029014996869398106,
     5.8954087274602304e-05
    ]
   },
   "properties": {
    "classname": "item_ammopack_small",
    "team": "0",
    "targetname": "",
    "hx": -1695.51,
    "hy": 344.502,
    "hz": 520.261
   }
  },
  {
   "type": "Feature",
   "geometry": {
    "type": "Point",
    "coordinates": [
     -0.0004403305698676612,
     0.0007858902136994374
    ]
   },
   "properties": {
    "classname": "item_ammopack_small",
    "team": "0",
    "targetname": "",
    "hx": -2573.1,
    "hy": 4592.4,
    "hz": -1584.0
   }
  },
  {
   "type": "Feature",
   "geometry": {
    "type": "Point",
    "coordinates": [
     -0.0003052931237399021,
     0.0010226635129927356
    ]
   },
   "properties": {
    "classname": "item_ammopack_small",
    "team": "0",
    "targetname": "",
    "hx": -1784.0,
    "hy": 5976.0,
    "hz": -1528.0
   }
  },
  {
   "type": "Feature",
   "geometry": {
    "type": "Point",
    "coordinates": [
     -0.0006302232350228063,
     0.00019714166559617823
    ]
   },
   "properties": {
    "classname": "info_player_teamspawn",
    "team": "3",
    "targetname": "blu_spawn_1",
    "hx": -3682.75,
    "hy": 1152.01,
    "hz": 848.005
   }
  },
  {
   "type": "Feature",
   "geometry": {
    "type": "Point",
    "coordinates": [
     -0.00040797018326855063,
     0.0008008810643919013
    ]
   },
   "properties": {
    "classname": "item_ammopack_small",
    "team": "0",
    "targetname": "",
    "hx": -2384.0,
    "hy": 4680.0,
    "hz": -1208.0
   }
  },
  {
   "type": "Feature",
   "geometry": {
    "type": "Point",
    "coordinates": [
     -5.202304349896134e-05,
     5.476109841995906e-06
    ]
   },
   "properties": {
    "classname": "item_ammopack_medium",
    "team": "0",
    "targetname": "",
    "hx": -304.0,
    "hy": 32.0,
    "hz": 138.0
   }
  },
  {
   "type": "Feature",
   "geometry": {
    "type": "Point",
    "coordinates": [
     -6.845137302553703e-05,
     0.00023752626439657243
    ]
   },
   "properties": {
    "classname": "info_player_teamspawn",
    "team": "2",
    "targetname": "red_spawn_1",
    "hx": -400.0,
    "hy": 1388.0,
    "hz": 80.0096
   }
  },
  {
   "type": "Feature",
   "geometry": {
    "type": "Point",
    "coordinates": [
     0.00020535411908679645,
     0.0006181158984152878
    ]
   },
   "properties": {
    "classname": "item_ammopack_full",
    "team": "0",
    "targetname": "",
    "hx": 1200.0,
    "hy": 3612.0,
    "hz": -824.0
   }
  },
  {
   "type": "Feature",
   "geometry": {
    "type": "Point",
    "coordinates": [
     -0.00027654354705735013,
     0.0009316231868695535
    ]
   },
   "properties": {
    "classname": "item_healthkit_medium",
    "team": "0",
    "targetname": "",
    "hx": -1616.0,
    "hy": 5444.0,
    "hz": -1272.0
   }
  },
  {
   "type": "Feature",
   "geometry": {
    "type": "Point",
    "coordinates": [
     -0.0002519010527321249,
     9.035581239293245e-05
    ]
   },
   "properties": {
    "classname": "item_ammopack_full",
    "team": "0",
    "targetname": "",
    "hx": -1472.0,
    "hy": 528.0,
    "hz": 200.0
   }
  },
  {
   "type": "Feature",
   "geometry": {
    "type": "Point",
    "coordinates": [
     -6.023720826247259e-05,
     0.00023752626439657243
    ]
   },
   "properties": {
    "classname": "info_player_teamspawn",
    "team": "2",
    "targetname": "red_spawn_1",
    "hx": -352.0,
    "hy": 1388.0,
    "hz": 80.0096
   }
  },
  {
   "type": "Feature",
   "geometry": {
    "type": "Point",
    "coordinates": [
     -0.0006366388399588166,
     0.00017523722622819461
    ]
   },
   "properties": {
    "classname": "info_player_teamspawn",
    "team": "3",
    "targetname": "blu_spawn_1",
    "hx": -3720.24,
    "hy": 1024.01,
    "hz": 848.005
   }
  },
  {
   "type": "Feature",
   "geometry": {
    "type": "Point",
    "coordinates": [
     0.00011636733414259003,
     -9.993900461642529e-05
    ]
   },
   "properties": {
    "classname": "item_healthkit_small",
    "team": "0",
    "targetname": "",
    "hx": 680.0,
    "hy": -584.0,
    "hz": 8.0
   }
  },
  {
   "type": "Feature",
   "geometry": {
    "type": "Point",
    "coordinates": [
     -0.0003128227747257167,
     -0.00018892578954885877
    ]
   },
   "properties": {
    "classname": "item_healthkit_medium",
    "team": "0",
    "targetname": "",
    "hx": -1828.0,
    "hy": -1104.0,
    "hz": 266.0
   }
  },
  {
   "type": "Feature",
   "geometry": {
    "type": "Point",
    "coordinates": [
     -0.0006429740145332106,
     0.0001998797205171762
    ]
   },
   "properties": {
    "classname": "info_player_teamspawn",
    "team": "3",
    "targetname": "blu_spawn_1",
    "hx": -3757.26,
    "hy": 1168.01,
    "hz": 848.005
   }
  },
  {
   "type": "Feature",
   "geometry": {
    "type": "Point",
    "coordinates": [
     -3.42256865136105e-05,
     0.000466838364030151
    ]
   },
   "properties": {
    "classname": "item_healthkit_small",
    "team": "0",
    "targetname": "",
    "hx": -200.0,
    "hy": 2728.0,
    "hz": -504.0
   }
  },
  {
   "type": "Feature",
   "geometry": {
    "type": "Point",
    "coordinates": [
     -0.00019029481700962774,
     -9.651643596517785e-05
    ]
   },
   "properties": {
    "classname": "item_ammopack_medium",
    "team": "0",
    "targetname": "",
    "hx": -1112.0,
    "hy": -564.0,
    "hz": 330.0
   }
  },
  {
   "type": "Feature",
   "geometry": {
    "type": "Point",
    "coordinates": [
     -0.0006521276743906725,
     0.00019072606065941489
    ]
   },
   "properties": {
    "classname": "info_player_teamspawn",
    "team": "3",
    "targetname": "blu_spawn_1",
    "hx": -3810.75,
    "hy": 1114.52,
    "hz": 848.005
   }
  },
  {
   "type": "Feature",
   "geometry": {
    "type": "Point",
    "coordinates": [
     -6.023720826243166e-05,
     0.0002279430721730796
    ]
   },
   "properties": {
    "classname": "info_player_teamspawn",
    "team": "2",
    "targetname": "red_spawn_1",
    "hx": -352.0,
    "hy": 1332.0,
    "hz": 80.0096
   }
  },
  {
   "type": "Feature",
   "geometry": {
    "type": "Point",
    "coordinates": [
     -0.0005647238275063825,
     0.0007666553778794268
    ]
   },
   "properties": {
    "classname": "item_healthkit_medium",
    "team": "0",
    "targetname": "",
    "hx": -3300.0,
    "hy": 4480.0,
    "hz": -1464.0
   }
  },
  {
   "type": "Feature",
   "geometry": {
    "type": "Point",
    "coordinates": [
     3.285665905351389e-05,
     0.0005544561215020855
    ]
   },
   "properties": {
    "classname": "item_ammopack_full",
    "team": "0",
    "targetname": "",
    "hx": 192.0,
    "hy": 3240.0,
    "hz": -984.0
   }
  },
  {
   "type": "Feature",
   "geometry": {
    "type": "Point",
    "coordinates": [
     -2.6011521750343974e-05,
     0.000466838364030151
    ]
   },
   "properties": {
    "classname": "item_ammopack_medium",
    "team": "0",
    "targetname": "",
    "hx": -152.0,
    "hy": 2728.0,
    "hz": -760.0
   }
  },
  {
   "type": "Feature",
   "geometry": {
    "type": "Point",
    "coordinates": [
     -0.0006576037842324939,
     0.00018528759907258274
    ]
   },
   "properties": {
    "classname": "info_player_teamspawn",
    "team": "3",
    "targetname": "blu_spawn_1",
    "hx": -3842.75,
    "hy": 1082.74,
    "hz": 848.005
   }
  },
  {
   "type": "Feature",
   "geometry": {
    "type": "Point",
    "coordinates": [
     -0.00019029481700958374,
     -8.830227120218398e-05
    ]
   },
   "properties": {
    "classname": "item_healthkit_small",
    "team": "0",
    "targetname": "",
    "hx": -1112.0,
    "hy": -516.0,
    "hz": 330.0
   }
  },
  {
   "type": "Feature",
   "geometry": {
    "type": "Point",
    "coordinates": [
     -2.1904439369436323e-05,
     0.0006598712359605067
    ]
   },
   "properties": {
    "classname": "team_control_point",
    "team": "",
    "targetname": "cp_three",
    "hx": -128.0,
    "hy": 3856.0,
    "hz": -1016.0
   }
  },
  {
   "type": "Feature",
   "geometry": {
    "type": "Point",
    "coordinates": [
     0.00011499830668210363,
     -0.00010404608699792221
    ]
   },
   "properties": {
    "classname": "item_healthkit_medium",
    "team": "0",
    "targetname": "",
    "hx": 672.0,
    "hy": -608.0,
    "hz": -214.0
   }
  },
  {
   "type": "Feature",
   "geometry": {
    "type": "Point",
    "coordinates": [
     -0.00017934259733650722,
     0.0006386513103227725
    ]
   },
   "properties": {
    "classname": "item_healthkit_small",
    "team": "0",
    "targetname": "",
    "hx": -1048.0,
    "hy": 3732.0,
    "hz": -824.0
   }
  },
  {
   "type": "Feature",
   "geometry": {
    "type": "Point",
    "coordinates": [
     -7.666553778854938e-05,
     0.0002279430721730796
    ]
   },
   "properties": {
    "classname": "info_player_teamspawn",
    "team": "2",
    "targetname": "red_spawn_1",
    "hx": -448.0,
    "hy": 1332.0,
    "hz": 80.0096
   }
  },
  {
   "type": "Feature",
   "geometry": {
    "type": "Point",
    "coordinates": [
     -0.0006498585113744023,
     0.0001775440374991354
    ]
   },
   "properties": {
    "classname": "info_player_teamspawn",
    "team": "3",
    "targetname": "blu_spawn_1",
    "hx": -3797.49,
    "hy": 1037.49,
    "hz": 848.005
   }
  },
  {
   "type": "Feature",
   "geometry": {
    "type": "Point",
    "coordinates": [
     -7.666553778857516e-05,
     0.000232734668284826
    ]
   },
   "properties": {
    "classname": "info_player_teamspawn",
    "team": "2",
    "targetname": "red_spawn_1",
    "hx": -448.0,
    "hy": 1360.0,
    "hz": 80.0096
   }
  },
  {
   "type": "Feature",
   "geometry": {
    "type": "Point",
    "coordinates": [
     0.00020535411908637676,
     0.0006071636787312961
    ]
   },
   "properties": {
    "classname": "item_healthkit_medium",
    "team": "0",
    "targetname": "",
    "hx": 1200.0,
    "hy": 3548.0,
    "hz": -824.0
   }
  },
  {
   "type": "Feature",
   "geometry": {
    "type": "Point",
    "coordinates": [
     0.0001807116247858781,
     2.1904439367983625e-05
    ]
   },
   "properties": {
    "classname": "team_control_point",
    "team": "",
    "targetname": "cp_two",
    "hx": 1056.0,
    "hy": 128.0,
    "hz": -312.0
   }
  },
  {
   "type": "Feature",
   "geometry": {
    "type": "Point",
    "coordinates": [
     -0.000175235514943869,
     0.0
    ]
   },
   "properties": {
    "classname": "team_control_point",
    "team": "",
    "targetname": "cp_one",
    "hx": -1024.0,
    "hy": 0.0,
    "hz": 264.0
   }
  },
  {
   "type": "Feature",
   "geometry": {
    "type": "Point",
    "coordinates": [
     0.0001163673341425666,
     -9.30938673139304e-05
    ]
   },
   "properties": {
    "classname": "item_ammopack_small",
    "team": "0",
    "targetname": "",
    "hx": 680.0,
    "hy": -544.0,
    "hz": 8.0
   }
  },
  {
   "type": "Feature",
   "geometry": {
    "type": "Point",
    "coordinates": [
     -0.0006653473458062786,
     0.0001930328719303557
    ]
   },
   "properties": {
    "classname": "info_player_teamspawn",
    "team": "3",
    "targetname": "blu_spawn_1",
    "hx": -3888.0,
    "hy": 1128.0,
    "hz": 848.005
   }
  },
  {
   "type": "Feature",
   "geometry": {
    "type": "Point",
    "coordinates": [
     0.0001122602517698162,
     0.0007214774716829606
    ]
   },
   "properties": {
    "classname": "item_ammopack_small",
    "team": "0",
    "targetname": "",
    "hx": 656.0,
    "hy": 4216.0,
    "hz": -696.0
   }
  },
  {
   "type": "Feature",
   "geometry": {
    "type": "Point",
    "coordinates": [
     -0.00043501874328208715,
     0.00019747194347102364
    ]
   },
   "properties": {
    "classname": "item_healthkit_medium",
    "team": "0",
    "targetname": "",
    "hx": -2542.06,
    "hy": 1153.94,
    "hz": 650.0
   }
  },
  {
   "type": "Feature",
   "geometry": {
    "type": "Point",
    "coordinates": [
     -0.0006224779621647037,
     0.0001893981040227309
    ]
   },
   "properties": {
    "classname": "info_player_teamspawn",
    "team": "3",
    "targetname": "blu_spawn_1",
    "hx": -3637.49,
    "hy": 1106.76,
    "hz": 848.005
   }
  },
  {
   "type": "Feature",
   "geometry": {
    "type": "Point",
    "coordinates": [
     -0.0004059166420724272,
     0.0007468044797021917
    ]
   },
   "properties": {
    "classname": "item_ammopack_full",
    "team": "0",
    "targetname": "",
    "hx": -2372.0,
    "hy": 4364.0,
    "hz": -1264.0
   }
  },
  {
   "type": "Feature",
   "geometry": {
    "type": "Point",
    "coordinates": [
     -0.0005756760471913548,
     0.0007666553778794268
    ]
   },
   "properties": {
    "classname": "item_ammopack_full",
    "team": "0",
    "targetname": "",
    "hx": -3364.0,
    "hy": 4480.0,
    "hz": -1464.0
   }
  },
  {
   "type": "Feature",
   "geometry": {
    "type": "Point",
    "coordinates": [
     -0.0004014673028005521,
     0.0003884615419165846
    ]
   },
   "properties": {
    "classname": "item_ammopack_small",
    "team": "0",
    "targetname": "",
    "hx": -2346.0,
    "hy": 2270.0,
    "hz": 968.0
   }
  },
  {
   "type": "Feature",
   "geometry": {
    "type": "Point",
    "coordinates": [
     -0.0006352287416750968,
     0.00019213615894372887
    ]
   },
   "properties": {
    "classname": "info_player_teamspawn",
    "team": "3",
    "targetname": "blu_spawn_1",
    "hx": -3712.0,
    "hy": 1122.76,
    "hz": 848.005
   }
  },
  {
   "type": "Feature",
   "geometry": {
    "type": "Point",
    "coordinates": [
     0.0003624500201686885,
     0.00016941714823674834
    ]
   },
   "properties": {
    "classname": "item_healthkit_full",
    "team": "0",
    "targetname": "",
    "hx": 2118.0,
    "hy": 990.0,
    "hz": -568.0
   }
  },
  {
   "type": "Feature",
   "geometry": {
    "type": "Point",
    "coordinates": [
     0.00021630633876813395,
     0.0005311826546736028
    ]
   },
   "properties": {
    "classname": "item_ammopack_medium",
    "team": "0",
    "targetname": "",
    "hx": 1264.0,
    "hy": 3104.0,
    "hz": -504.0
   }
  },
  {
   "type": "Feature",
   "geometry": {
    "type": "Point",
    "coordinates": [
     -5.202304349896134e-05,
     -5.476109841995906e-06
    ]
   },
   "properties": {
    "classname": "item_healthkit_medium",
    "team": "0",
    "targetname": "",
    "hx": -304.0,
    "hy": -32.0,
    "hz": 138.0
   }
  },
  {
   "type": "Feature",
   "geometry": {
    "type": "Point",
    "coordinates": [
     -0.0004272734704244713,
     0.0002052172163287966
    ]
   },
   "properties": {
    "classname": "item_ammopack_medium",
    "team": "0",
    "targetname": "",
    "hx": -2496.8,
    "hy": 1199.2,
    "hz": 650.0
   }
  }
 ]
}
