{
 "type": "FeatureCollection",
 "note": "pseudo-WGS84 via crs.local_to_wgs84 ((0,0)m maps to (0,0)deg); viewing only, not survey",
 "features": [
  {
   "type": "Feature",
   "geometry": {
    "type": "Point",
    "coordinates": [
     -9.583192223593683e-05,
     -0.0002628532724158035
    ]
   },
   "properties": {
    "classname": "item_healthkit_small",
    "team": "",
    "targetname": "",
    "hx": -560.0,
    "hy": -1536.0,
    "hz": -255.765
   }
  },
  {
   "type": "Feature",
   "geometry": {
    "type": "Point",
    "coordinates": [
     2.6011521749482454e-05,
     2.1904439367983625e-05
    ]
   },
   "properties": {
    "classname": "item_ammopack_medium",
    "team": "",
    "targetname": "",
    "hx": 152.0,
    "hy": 128.0,
    "hz": 24.2613
   }
  },
  {
   "type": "Feature",
   "geometry": {
    "type": "Point",
    "coordinates": [
     0.00013827177351469506,
     0.0004517790619646622
    ]
   },
   "properties": {
    "classname": "item_ammopack_medium",
    "team": "",
    "targetname": "",
    "hx": 808.0,
    "hy": 2640.0,
    "hz": 304.256
   }
  },
  {
   "type": "Feature",
   "geometry": {
    "type": "Point",
    "coordinates": [
     0.0001274906822629305,
     0.0004517790619646622
    ]
   },
   "properties": {
    "classname": "item_healthkit_medium",
    "team": "",
    "targetname": "",
    "hx": 745.0,
    "hy": 2640.0,
    "hz": 304.236
   }
  },
  {
   "type": "Feature",
   "geometry": {
    "type": "Point",
    "coordinates": [
     8.693324374257146e-05,
     -0.00025874619003430656
    ]
   },
   "properties": {
    "classname": "item_ammopack_medium",
    "team": "",
    "targetname": "",
    "hx": 508.0,
    "hy": -1512.0,
    "hz": -143.739
   }
  },
  {
   "type": "Feature",
   "geometry": {
    "type": "Point",
    "coordinates": [
     4.51779061974274e-05,
     0.0003737444967162206
    ]
   },
   "properties": {
    "classname": "item_ammopack_full",
    "team": "",
    "targetname": "",
    "hx": 264.0,
    "hy": 2184.0,
    "hz": 261.711
   }
  },
  {
   "type": "Feature",
   "geometry": {
    "type": "Point",
    "coordinates": [
     0.00011294476549544918,
     0.000499010509351877
    ]
   },
   "properties": {
    "classname": "item_ammopack_medium",
    "team": "",
    "targetname": "",
    "hx": 660.0,
    "hy": 2916.0,
    "hz": 488.256
   }
  },
  {
   "type": "Feature",
   "geometry": {
    "type": "Point",
    "coordinates": [
     0.000613384197264201,
     0.0003148763159147646
    ]
   },
   "properties": {
    "classname": "item_ammopack_medium",
    "team": "",
    "targetname": "",
    "hx": 3584.35,
    "hy": 1840.0,
    "hz": 145.256
   }
  },
  {
   "type": "Feature",
   "geometry": {
    "type": "Point",
    "coordinates": [
     -0.00018687224836297557,
     -0.00041344629307069086
    ]
   },
   "properties": {
    "classname": "item_ammopack_full",
    "team": "",
    "targetname": "",
    "hx": -1092.0,
    "hy": -2416.0,
    "hz": -335.744
   }
  },
  {
   "type": "Feature",
   "geometry": {
    "type": "Point",
    "coordinates": [
     -0.00014064703616460726,
     -0.0006915539539651042
    ]
   },
   "properties": {
    "classname": "info_player_teamspawn",
    "team": "3",
    "targetname": "respawn_blue2",
    "hx": -821.88,
    "hy": -4041.14,
    "hz": -464.0
   }
  },
  {
   "type": "Feature",
   "geometry": {
    "type": "Point",
    "coordinates": [
     -0.00014064703616484646,
     -0.000699581588736605
    ]
   },
   "properties": {
    "classname": "info_player_teamspawn",
    "team": "3",
    "targetname": "respawn_blue2",
    "hx": -821.88,
    "hy": -4088.05,
    "hz": -464.0
   }
  },
  {
   "type": "Feature",
   "geometry": {
    "type": "Point",
    "coordinates": [
     -0.00014064703616508849,
     -0.000707609223508106
    ]
   },
   "properties": {
    "classname": "info_player_teamspawn",
    "team": "3",
    "targetname": "respawn_blue2",
    "hx": -821.88,
    "hy": -4134.96,
    "hz": -464.0
   }
  },
  {
   "type": "Feature",
   "geometry": {
    "type": "Point",
    "coordinates": [
     -0.00012695676155905465,
     -0.000707609223508106
    ]
   },
   "properties": {
    "classname": "info_player_teamspawn",
    "team": "3",
    "targetname": "respawn_blue2",
    "hx": -741.88,
    "hy": -4134.96,
    "hz": -464.0
   }
  },
  {
   "type": "Feature",
   "geometry": {
    "type": "Point",
    "coordinates": [
     -0.00011326648695302083,
     -0.000707609223508106
    ]
   },
   "properties": {
    "classname": "info_player_teamspawn",
    "team": "3",
    "targetname": "respawn_blue2",
    "hx": -661.88,
    "hy": -4134.96,
    "hz": -464.0
   }
  },
  {
   "type": "Feature",
   "geometry": {
    "type": "Point",
    "coordinates": [
     -0.00011326648695282593,
     -0.000699581588736605
    ]
   },
   "properties": {
    "classname": "info_player_teamspawn",
    "team": "3",
    "targetname": "respawn_blue2",
    "hx": -661.88,
    "hy": -4088.05,
    "hz": -464.0
   }
  },
  {
   "type": "Feature",
   "geometry": {
    "type": "Point",
    "coordinates": [
     -0.00012695676155883618,
     -0.000699581588736605
    ]
   },
   "properties": {
    "classname": "info_player_teamspawn",
    "team": "3",
    "targetname": "respawn_blue2",
    "hx": -741.88,
    "hy": -4088.05,
    "hz": -464.0
   }
  },
  {
   "type": "Feature",
   "geometry": {
    "type": "Point",
    "coordinates": [
     -0.00012695676155862027,
     -0.0006915539539651042
    ]
   },
   "properties": {
    "classname": "info_player_teamspawn",
    "team": "3",
    "targetname": "respawn_blue2",
    "hx": -741.88,
    "hy": -4041.14,
    "hz": -464.0
   }
  },
  {
   "type": "Feature",
   "geometry": {
    "type": "Point",
    "coordinates": [
     -0.00014064703616437077,
     -0.0006835263191936035
    ]
   },
   "properties": {
    "classname": "info_player_teamspawn",
    "team": "3",
    "targetname": "respawn_blue2",
    "hx": -821.88,
    "hy": -3994.23,
    "hz": -464.0
   }
  },
  {
   "type": "Feature",
   "geometry": {
    "type": "Point",
    "coordinates": [
     -0.0001269567615584068,
     -0.0006835263191936035
    ]
   },
   "properties": {
    "classname": "info_player_teamspawn",
    "team": "3",
    "targetname": "respawn_blue2",
    "hx": -741.88,
    "hy": -3994.23,
    "hz": -464.0
   }
  },
  {
   "type": "Feature",
   "geometry": {
    "type": "Point",
    "coordinates": [
     -0.0001132664869526333,
     -0.0006915539539651042
    ]
   },
   "properties": {
    "classname": "info_player_teamspawn",
    "team": "3",
    "targetname": "respawn_blue2",
    "hx": -661.88,
    "hy": -4041.14,
    "hz": -464.0
   }
  },
  {
   "type": "Feature",
   "geometry": {
    "type": "Point",
    "coordinates": [
     -0.00011326648695244286,
     -0.0006835263191936035
    ]
   },
   "properties": {
    "classname": "info_player_teamspawn",
    "team": "3",
    "targetname": "respawn_blue2",
    "hx": -661.88,
    "hy": -3994.23,
    "hz": -464.0
   }
  },
  {
   "type": "Feature",
   "geometry": {
    "type": "Point",
    "coordinates": [
     -9.957621234647888e-05,
     -0.0006835263191936035
    ]
   },
   "properties": {
    "classname": "info_player_teamspawn",
    "team": "3",
    "targetname": "respawn_blue2",
    "hx": -581.88,
    "hy": -3994.23,
    "hz": -464.0
   }
  },
  {
   "type": "Feature",
   "geometry": {
    "type": "Point",
    "coordinates": [
     -9.95762123466463e-05,
     -0.0006915539539651042
    ]
   },
   "properties": {
    "classname": "info_player_teamspawn",
    "team": "3",
    "targetname": "respawn_blue2",
    "hx": -581.88,
    "hy": -4041.14,
    "hz": -464.0
   }
  },
  {
   "type": "Feature",
   "geometry": {
    "type": "Point",
    "coordinates": [
     -9.9576212346987e-05,
     -0.000707609223508106
    ]
   },
   "properties": {
    "classname": "info_player_teamspawn",
    "team": "3",
    "targetname": "respawn_blue2",
    "hx": -581.88,
    "hy": -4134.96,
    "hz": -464.0
   }
  },
  {
   "type": "Feature",
   "geometry": {
    "type": "Point",
    "coordinates": [
     -9.957621234681566e-05,
     -0.000699581588736605
    ]
   },
   "properties": {
    "classname": "info_player_teamspawn",
    "team": "3",
    "targetname": "respawn_blue2",
    "hx": -581.88,
    "hy": -4088.05,
    "hz": -464.0
   }
  },
  {
   "type": "Feature",
   "geometry": {
    "type": "Point",
    "coordinates": [
     0.00010597299314883057,
     -0.00012595052636590586
    ]
   },
   "properties": {
    "classname": "info_player_teamspawn",
    "team": "3",
    "targetname": "respawn_blue3",
    "hx": 619.26,
    "hy": -736.0,
    "hz": -88.0
   }
  },
  {
   "type": "Feature",
   "geometry": {
    "type": "Point",
    "coordinates": [
     -9.03558123929473e-05,
     -3.285665905197544e-05
    ]
   },
   "properties": {
    "classname": "item_ammopack_medium",
    "team": "",
    "targetname": "",
    "hx": -528.0,
    "hy": -192.0,
    "hz": -240.0
   }
  },
  {
   "type": "Feature",
   "geometry": {
    "type": "Point",
    "coordinates": [
     -0.0006189202020692661,
     -0.00047125690015891147
    ]
   },
   "properties": {
    "classname": "info_player_teamspawn",
    "team": "3",
    "targetname": "respawn_blue1",
    "hx": -3616.7,
    "hy": -2753.82,
    "hz": -672.0
   }
  },
  {
   "type": "Feature",
   "geometry": {
    "type": "Point",
    "coordinates": [
     -0.0006118063931277699,
     -0.0004753639825404084
    ]
   },
   "properties": {
    "classname": "info_player_teamspawn",
    "team": "3",
    "targetname": "respawn_blue1",
    "hx": -3575.13,
    "hy": -2777.82,
    "hz": -672.0
   }
  },
  {
   "type": "Feature",
   "geometry": {
    "type": "Point",
    "coordinates": [
     -0.0006046925841862686,
     -0.00047947106492190534
    ]
   },
   "properties": {
    "classname": "info_player_teamspawn",
    "team": "3",
    "targetname": "respawn_blue1",
    "hx": -3533.56,
    "hy": -2801.82,
    "hz": -672.0
   }
  },
  {
   "type": "Feature",
   "geometry": {
    "type": "Point",
    "coordinates": [
     -0.0005975787752447616,
     -0.00048357814730340225
    ]
   },
   "properties": {
    "classname": "info_player_teamspawn",
    "team": "3",
    "targetname": "respawn_blue1",
    "hx": -3491.99,
    "hy": -2825.82,
    "hz": -672.0
   }
  },
  {
   "type": "Feature",
   "geometry": {
    "type": "Point",
    "coordinates": [
     -0.0006063302832847613,
     -0.00046588004480780173
    ]
   },
   "properties": {
    "classname": "info_player_teamspawn",
    "team": "3",
    "targetname": "respawn_blue1",
    "hx": -3543.13,
    "hy": -2722.4,
    "hz": -672.0
   }
  },
  {
   "type": "Feature",
   "geometry": {
    "type": "Point",
    "coordinates": [
     -0.0006134440922262582,
     -0.0004617729624263048
    ]
   },
   "properties": {
    "classname": "info_player_teamspawn",
    "team": "3",
    "targetname": "respawn_blue1",
    "hx": -3584.7,
    "hy": -2698.4,
    "hz": -672.0
   }
  },
  {
   "type": "Feature",
   "geometry": {
    "type": "Point",
    "coordinates": [
     -0.0005992164743432591,
     -0.00046998712718929864
    ]
   },
   "properties": {
    "classname": "info_player_teamspawn",
    "team": "3",
    "targetname": "respawn_blue1",
    "hx": -3501.56,
    "hy": -2746.4,
    "hz": -672.0
   }
  },
  {
   "type": "Feature",
   "geometry": {
    "type": "Point",
    "coordinates": [
     -0.0005921026654017516,
     -0.0004740942095707956
    ]
   },
   "properties": {
    "classname": "info_player_teamspawn",
    "team": "3",
    "targetname": "respawn_blue1",
    "hx": -3459.99,
    "hy": -2770.4,
    "hz": -672.0
   }
  },
  {
   "type": "Feature",
   "geometry": {
    "type": "Point",
    "coordinates": [
     -0.0005937403645002807,
     -0.0004605014781723663
    ]
   },
   "properties": {
    "classname": "info_player_teamspawn",
    "team": "3",
    "targetname": "respawn_blue1",
    "hx": -3469.56,
    "hy": -2690.97,
    "hz": -672.0
   }
  },
  {
   "type": "Feature",
   "geometry": {
    "type": "Point",
    "coordinates": [
     -0.0006008541734417838,
     -0.00045639439579086937
    ]
   },
   "properties": {
    "classname": "info_player_teamspawn",
    "team": "3",
    "targetname": "respawn_blue1",
    "hx": -3511.13,
    "hy": -2666.97,
    "hz": -672.0
   }
  },
  {
   "type": "Feature",
   "geometry": {
    "type": "Point",
    "coordinates": [
     -0.000602491872540336,
     -0.00044280337567676587
    ]
   },
   "properties": {
    "classname": "info_player_teamspawn",
    "team": "3",
    "targetname": "respawn_blue1",
    "hx": -3520.7,
    "hy": -2587.55,
    "hz": -672.0
   }
  },
  {
   "type": "Feature",
   "geometry": {
    "type": "Point",
    "coordinates": [
     -0.0006079679823832815,
     -0.0004522873134093725
    ]
   },
   "properties": {
    "classname": "info_player_teamspawn",
    "team": "3",
    "targetname": "respawn_blue1",
    "hx": -3552.7,
    "hy": -2642.97,
    "hz": -672.0
   }
  },
  {
   "type": "Feature",
   "geometry": {
    "type": "Point",
    "coordinates": [
     -0.0005953780635988372,
     -0.00044691045805826283
    ]
   },
   "properties": {
    "classname": "info_player_teamspawn",
    "team": "3",
    "targetname": "respawn_blue1",
    "hx": -3479.13,
    "hy": -2611.55,
    "hz": -672.0
   }
  },
  {
   "type": "Feature",
   "geometry": {
    "type": "Point",
    "coordinates": [
     -0.0005882642546573333,
     -0.00045101754043975974
    ]
   },
   "properties": {
    "classname": "info_player_teamspawn",
    "team": "3",
    "targetname": "respawn_blue1",
    "hx": -3437.56,
    "hy": -2635.55,
    "hz": -672.0
   }
  },
  {
   "type": "Feature",
   "geometry": {
    "type": "Point",
    "coordinates": [
     -0.0005811504457158245,
     -0.0004551246228212567
    ]
   },
   "properties": {
    "classname": "info_player_teamspawn",
    "team": "3",
    "targetname": "respawn_blue1",
    "hx": -3395.99,
    "hy": -2659.55,
    "hz": -672.0
   }
  },
  {
   "type": "Feature",
   "geometry": {
    "type": "Point",
    "coordinates": [
     -0.0005866265555587725,
     -0.00046460856055386324
    ]
   },
   "properties": {
    "classname": "info_player_teamspawn",
    "team": "3",
    "targetname": "respawn_blue1",
    "hx": -3427.99,
    "hy": -2714.97,
    "hz": -672.0
   }
  },
  {
   "type": "Feature",
   "geometry": {
    "type": "Point",
    "coordinates": [
     0.00017797356986536488,
     0.00013553371858939867
    ]
   },
   "properties": {
    "classname": "info_player_teamspawn",
    "team": "2",
    "targetname": "respawn_red1",
    "hx": 1040.0,
    "hy": 792.0,
    "hz": 137.424
   }
  },
  {
   "type": "Feature",
   "geometry": {
    "type": "Point",
    "coordinates": [
     0.00019626035416919738,
     0.00015470010303638432
    ]
   },
   "properties": {
    "classname": "info_player_teamspawn",
    "team": "2",
    "targetname": "respawn_red1",
    "hx": 1146.86,
    "hy": 904.0,
    "hz": 137.424
   }
  },
  {
   "type": "Feature",
   "geometry": {
    "type": "Point",
    "coordinates": [
     0.0001962603541692754,
     0.0001629142677993782
    ]
   },
   "properties": {
    "classname": "info_player_teamspawn",
    "team": "2",
    "targetname": "respawn_red1",
    "hx": 1146.86,
    "hy": 952.0,
    "hz": 137.424
   }
  },
  {
   "type": "Feature",
   "geometry": {
    "type": "Point",
    "coordinates": [
     0.0001962603541693574,
     0.00017112843256237206
    ]
   },
   "properties": {
    "classname": "info_player_teamspawn",
    "team": "2",
    "targetname": "respawn_red1",
    "hx": 1146.86,
    "hy": 1000.0,
    "hz": 137.424
   }
  },
  {
   "type": "Feature",
   "geometry": {
    "type": "Point",
    "coordinates": [
     0.0001872641324693607,
     0.00015470010303638432
    ]
   },
   "properties": {
    "classname": "info_player_teamspawn",
    "team": "2",
    "targetname": "respawn_red1",
    "hx": 1094.29,
    "hy": 904.0,
    "hz": 137.424
   }
  },
  {
   "type": "Feature",
   "geometry": {
    "type": "Point",
    "coordinates": [
     0.00018726413246929018,
     0.00014648593827339048
    ]
   },
   "properties": {
    "classname": "info_player_teamspawn",
    "team": "2",
    "targetname": "respawn_red1",
    "hx": 1094.29,
    "hy": 856.0,
    "hz": 137.424
   }
  },
  {
   "type": "Feature",
   "geometry": {
    "type": "Point",
    "coordinates": [
     0.00018726413246943514,
     0.0001629142677993782
    ]
   },
   "properties": {
    "classname": "info_player_teamspawn",
    "team": "2",
    "targetname": "respawn_red1",
    "hx": 1094.29,
    "hy": 952.0,
    "hz": 137.424
   }
  },
  {
   "type": "Feature",
   "geometry": {
    "type": "Point",
    "coordinates": [
     0.0001872641324695134,
     0.00017112843256237206
    ]
   },
   "properties": {
    "classname": "info_player_teamspawn",
    "team": "2",
    "targetname": "respawn_red1",
    "hx": 1094.29,
    "hy": 1000.0,
    "hz": 137.424
   }
  },
  {
   "type": "Feature",
   "geometry": {
    "type": "Point",
    "coordinates": [
     0.00017826619948526924,
     0.0001629142677993782
    ]
   },
   "properties": {
    "classname": "info_player_teamspawn",
    "team": "2",
    "targetname": "respawn_red1",
    "hx": 1041.71,
    "hy": 952.0,
    "hz": 137.424
   }
  },
  {
   "type": "Feature",
   "geometry": {
    "type": "Point",
    "coordinates": [
     0.00017826619948519838,
     0.00015470010303638432
    ]
   },
   "properties": {
    "classname": "info_player_teamspawn",
    "team": "2",
    "targetname": "respawn_red1",
    "hx": 1041.71,
    "hy": 904.0,
    "hz": 137.424
   }
  },
  {
   "type": "Feature",
   "geometry": {
    "type": "Point",
    "coordinates": [
     0.00016927049117059563,
     0.00014648593827339048
    ]
   },
   "properties": {
    "classname": "info_player_teamspawn",
    "team": "2",
    "targetname": "respawn_red1",
    "hx": 989.143,
    "hy": 856.0,
    "hz": 137.424
   }
  },
  {
   "type": "Feature",
   "geometry": {
    "type": "Point",
    "coordinates": [
     0.00017826619948513124,
     0.00014648593827339048
    ]
   },
   "properties": {
    "classname": "info_player_teamspawn",
    "team": "2",
    "targetname": "respawn_red1",
    "hx": 1041.71,
    "hy": 856.0,
    "hz": 137.424
   }
  },
  {
   "type": "Feature",
   "geometry": {
    "type": "Point",
    "coordinates": [
     0.0001692704911706594,
     0.00015470010303638432
    ]
   },
   "properties": {
    "classname": "info_player_teamspawn",
    "team": "2",
    "targetname": "respawn_red1",
    "hx": 989.143,
    "hy": 904.0,
    "hz": 137.424
   }
  },
  {
   "type": "Feature",
   "geometry": {
    "type": "Point",
    "coordinates": [
     0.00016927049117072666,
     0.0001629142677993782
    ]
   },
   "properties": {
    "classname": "info_player_teamspawn",
    "team": "2",
    "targetname": "respawn_red1",
    "hx": 989.143,
    "hy": 952.0,
    "hz": 137.424
   }
  },
  {
   "type": "Feature",
   "geometry": {
    "type": "Point",
    "coordinates": [
     0.0001692704911707974,
     0.00017112843256237206
    ]
   },
   "properties": {
    "classname": "info_player_teamspawn",
    "team": "2",
    "targetname": "respawn_red1",
    "hx": 989.143,
    "hy": 1000.0,
    "hz": 137.424
   }
  },
  {
   "type": "Feature",
   "geometry": {
    "type": "Point",
    "coordinates": [
     0.00017826619948534375,
     0.00017112843256237206
    ]
   },
   "properties": {
    "classname": "info_player_teamspawn",
    "team": "2",
    "targetname": "respawn_red1",
    "hx": 1041.71,
    "hy": 1000.0,
    "hz": 137.424
   }
  },
  {
   "type": "Feature",
   "geometry": {
    "type": "Point",
    "coordinates": [
     0.0004380887873762421,
     0.0004983259956216274
    ]
   },
   "properties": {
    "classname": "info_player_teamspawn",
    "team": "2",
    "targetname": "respawn_red2",
    "hx": 2560.0,
    "hy": 2912.0,
    "hz": 472.0
   }
  },
  {
   "type": "Feature",
   "geometry": {
    "type": "Point",
    "coordinates": [
     0.00043808878737679294,
     0.0005065401603846214
    ]
   },
   "properties": {
    "classname": "info_player_teamspawn",
    "team": "2",
    "targetname": "respawn_red2",
    "hx": 2560.0,
    "hy": 2960.0,
    "hz": 472.0
   }
  },
  {
   "type": "Feature",
   "geometry": {
    "type": "Point",
    "coordinates": [
     0.00043808878737735266,
     0.0005147543251476152
    ]
   },
   "properties": {
    "classname": "info_player_teamspawn",
    "team": "2",
    "targetname": "respawn_red2",
    "hx": 2560.0,
    "hy": 3008.0,
    "hz": 472.0
   }
  },
  {
   "type": "Feature",
   "geometry": {
    "type": "Point",
    "coordinates": [
     0.0004380887873779214,
     0.0005229684899106091
    ]
   },
   "properties": {
    "classname": "info_player_teamspawn",
    "team": "2",
    "targetname": "respawn_red2",
    "hx": 2560.0,
    "hy": 3056.0,
    "hz": 472.0
   }
  },
  {
   "type": "Feature",
   "geometry": {
    "type": "Point",
    "coordinates": [
     0.0004271365676923731,
     0.0005065401603846214
    ]
   },
   "properties": {
    "classname": "info_player_teamspawn",
    "team": "2",
    "targetname": "respawn_red2",
    "hx": 2496.0,
    "hy": 2960.0,
    "hz": 472.0
   }
  },
  {
   "type": "Feature",
   "geometry": {
    "type": "Point",
    "coordinates": [
     0.0004271365676918361,
     0.0004983259956216274
    ]
   },
   "properties": {
    "classname": "info_player_teamspawn",
    "team": "2",
    "targetname": "respawn_red2",
    "hx": 2496.0,
    "hy": 2912.0,
    "hz": 472.0
   }
  },
  {
   "type": "Feature",
   "geometry": {
    "type": "Point",
    "coordinates": [
     0.0004271365676929188,
     0.0005147543251476152
    ]
   },
   "properties": {
    "classname": "info_player_teamspawn",
    "team": "2",
    "targetname": "respawn_red2",
    "hx": 2496.0,
    "hy": 3008.0,
    "hz": 472.0
   }
  },
  {
   "type": "Feature",
   "geometry": {
    "type": "Point",
    "coordinates": [
     0.00042713656769347334,
     0.0005229684899106091
    ]
   },
   "properties": {
    "classname": "info_player_teamspawn",
    "team": "2",
    "targetname": "respawn_red2",
    "hx": 2496.0,
    "hy": 3056.0,
    "hz": 472.0
   }
  },
  {
   "type": "Feature",
   "geometry": {
    "type": "Point",
    "coordinates": [
     0.00041618434800848504,
     0.0005147543251476152
    ]
   },
   "properties": {
    "classname": "info_player_teamspawn",
    "team": "2",
    "targetname": "respawn_red2",
    "hx": 2432.0,
    "hy": 3008.0,
    "hz": 472.0
   }
  },
  {
   "type": "Feature",
   "geometry": {
    "type": "Point",
    "coordinates": [
     0.0004161843480079533,
     0.0005065401603846214
    ]
   },
   "properties": {
    "classname": "info_player_teamspawn",
    "team": "2",
    "targetname": "respawn_red2",
    "hx": 2432.0,
    "hy": 2960.0,
    "hz": 472.0
   }
  },
  {
   "type": "Feature",
   "geometry": {
    "type": "Point",
    "coordinates": [
     0.000405232128323024,
     0.0004983259956216274
    ]
   },
   "properties": {
    "classname": "info_player_teamspawn",
    "team": "2",
    "targetname": "respawn_red2",
    "hx": 2368.0,
    "hy": 2912.0,
    "hz": 472.0
   }
  },
  {
   "type": "Feature",
   "geometry": {
    "type": "Point",
    "coordinates": [
     0.00041618434800743,
     0.0004983259956216274
    ]
   },
   "properties": {
    "classname": "info_player_teamspawn",
    "team": "2",
    "targetname": "respawn_red2",
    "hx": 2432.0,
    "hy": 2912.0,
    "hz": 472.0
   }
  },
  {
   "type": "Feature",
   "geometry": {
    "type": "Point",
    "coordinates": [
     0.0004052321283235335,
     0.0005065401603846214
    ]
   },
   "properties": {
    "classname": "info_player_teamspawn",
    "team": "2",
    "targetname": "respawn_red2",
    "hx": 2368.0,
    "hy": 2960.0,
    "hz": 472.0
   }
  },
  {
   "type": "Feature",
   "geometry": {
    "type": "Point",
    "coordinates": [
     0.00040523212832405125,
     0.0005147543251476152
    ]
   },
   "properties": {
    "classname": "info_player_teamspawn",
    "team": "2",
    "targetname": "respawn_red2",
    "hx": 2368.0,
    "hy": 3008.0,
    "hz": 472.0
   }
  },
  {
   "type": "Feature",
   "geometry": {
    "type": "Point",
    "coordinates": [
     0.0004052321283245773,
     0.0005229684899106091
    ]
   },
   "properties": {
    "classname": "info_player_teamspawn",
    "team": "2",
    "targetname": "respawn_red2",
    "hx": 2368.0,
    "hy": 3056.0,
    "hz": 472.0
   }
  },
  {
   "type": "Feature",
   "geometry": {
    "type": "Point",
    "coordinates": [
     0.0004161843480090253,
     0.0005229684899106091
    ]
   },
   "properties": {
    "classname": "info_player_teamspawn",
    "team": "2",
    "targetname": "respawn_red2",
    "hx": 2432.0,
    "hy": 3056.0,
    "hz": 472.0
   }
  },
  {
   "type": "Feature",
   "geometry": {
    "type": "Point",
    "coordinates": [
     0.0006324906867518625,
     -0.00011773636160291199
    ]
   },
   "properties": {
    "classname": "info_player_teamspawn",
    "team": "2",
    "targetname": "respawn_red3",
    "hx": 3696.0,
    "hy": -688.0,
    "hz": 536.0
   }
  },
  {
   "type": "Feature",
   "geometry": {
    "type": "Point",
    "coordinates": [
     0.0006324906867516826,
     -0.00010952219683991812
    ]
   },
   "properties": {
    "classname": "info_player_teamspawn",
    "team": "2",
    "targetname": "respawn_red3",
    "hx": 3696.0,
    "hy": -640.0,
    "hz": 536.0
   }
  },
  {
   "type": "Feature",
   "geometry": {
    "type": "Point",
    "coordinates": [
     0.0006324906867515158,
     -0.00010130803207692427
    ]
   },
   "properties": {
    "classname": "info_player_teamspawn",
    "team": "2",
    "targetname": "respawn_red3",
    "hx": 3696.0,
    "hy": -592.0,
    "hz": 536.0
   }
  },
  {
   "type": "Feature",
   "geometry": {
    "type": "Point",
    "coordinates": [
     0.0006324906867513619,
     -9.30938673139304e-05
    ]
   },
   "properties": {
    "classname": "info_player_teamspawn",
    "team": "2",
    "targetname": "respawn_red3",
    "hx": 3696.0,
    "hy": -544.0,
    "hz": 536.0
   }
  },
  {
   "type": "Feature",
   "geometry": {
    "type": "Point",
    "coordinates": [
     0.0006215384670676708,
     -0.00010952219683991812
    ]
   },
   "properties": {
    "classname": "info_player_teamspawn",
    "team": "2",
    "targetname": "respawn_red3",
    "hx": 3632.0,
    "hy": -640.0,
    "hz": 536.0
   }
  },
  {
   "type": "Feature",
   "geometry": {
    "type": "Point",
    "coordinates": [
     0.0006215384670678475,
     -0.00011773636160291199
    ]
   },
   "properties": {
    "classname": "info_player_teamspawn",
    "team": "2",
    "targetname": "respawn_red3",
    "hx": 3632.0,
    "hy": -688.0,
    "hz": 536.0
   }
  },
  {
   "type": "Feature",
   "geometry": {
    "type": "Point",
    "coordinates": [
     0.0006215384670675069,
     -0.00010130803207692427
    ]
   },
   "properties": {
    "classname": "info_player_teamspawn",
    "team": "2",
    "targetname": "respawn_red3",
    "hx": 3632.0,
    "hy": -592.0,
    "hz": 536.0
   }
  },
  {
   "type": "Feature",
   "geometry": {
    "type": "Point",
    "coordinates": [
     0.0006215384670673556,
     -9.30938673139304e-05
    ]
   },
   "properties": {
    "classname": "info_player_teamspawn",
    "team": "2",
    "targetname": "respawn_red3",
    "hx": 3632.0,
    "hy": -544.0,
    "hz": 536.0
   }
  },
  {
   "type": "Feature",
   "geometry": {
    "type": "Point",
    "coordinates": [
     0.0005832056981738533,
     -0.00012047441652390994
    ]
   },
   "properties": {
    "classname": "info_player_teamspawn",
    "team": "2",
    "targetname": "respawn_red3",
    "hx": 3408.0,
    "hy": -704.0,
    "hz": 192.0
   }
  },
  {
   "type": "Feature",
   "geometry": {
    "type": "Point",
    "coordinates": [
     0.0005832056981736835,
     -0.00011226025176091607
    ]
   },
   "properties": {
    "classname": "info_player_teamspawn",
    "team": "2",
    "targetname": "respawn_red3",
    "hx": 3408.0,
    "hy": -656.0,
    "hz": 192.0
   }
  },
  {
   "type": "Feature",
   "geometry": {
    "type": "Point",
    "coordinates": [
     0.0005832056981733798,
     -9.583192223492836e-05
    ]
   },
   "properties": {
    "classname": "info_player_teamspawn",
    "team": "2",
    "targetname": "respawn_red3",
    "hx": 3408.0,
    "hy": -560.0,
    "hz": 192.0
   }
  },
  {
   "type": "Feature",
   "geometry": {
    "type": "Point",
    "coordinates": [
     0.0005832056981735257,
     -0.00010404608699792221
    ]
   },
   "properties": {
    "classname": "info_player_teamspawn",
    "team": "2",
    "targetname": "respawn_red3",
    "hx": 3408.0,
    "hy": -608.0,
    "hz": 192.0
   }
  },
  {
   "type": "Feature",
   "geometry": {
    "type": "Point",
    "coordinates": [
     0.0005722534784895157,
     -0.00010404608699792221
    ]
   },
   "properties": {
    "classname": "info_player_teamspawn",
    "team": "2",
    "targetname": "respawn_red3",
    "hx": 3344.0,
    "hy": -608.0,
    "hz": 192.0
   }
  },
  {
   "type": "Feature",
   "geometry": {
    "type": "Point",
    "coordinates": [
     0.0005722534784893726,
     -9.583192223492836e-05
    ]
   },
   "properties": {
    "classname": "info_player_teamspawn",
    "team": "2",
    "targetname": "respawn_red3",
    "hx": 3344.0,
    "hy": -560.0,
    "hz": 192.0
   }
  },
  {
   "type": "Feature",
   "geometry": {
    "type": "Point",
    "coordinates": [
     0.0005722534784896706,
     -0.00011226025176091607
    ]
   },
   "properties": {
    "classname": "info_player_teamspawn",
    "team": "2",
    "targetname": "respawn_red3",
    "hx": 3344.0,
    "hy": -656.0,
    "hz": 192.0
   }
  },
  {
   "type": "Feature",
   "geometry": {
    "type": "Point",
    "coordinates": [
     0.0005722534784898373,
     -0.00012047441652390994
    ]
   },
   "properties": {
    "classname": "info_player_teamspawn",
    "team": "2",
    "targetname": "respawn_red3",
    "hx": 3344.0,
    "hy": -704.0,
    "hz": 192.0
   }
  },
  {
   "type": "Feature",
   "geometry": {
    "type": "Point",
    "coordinates": [
     -1.6056056734441543e-05,
     0.0005155586287806582
    ]
   },
   "properties": {
    "classname": "info_player_teamspawn",
    "team": "3",
    "targetname": "respawn_blue4",
    "hx": -93.8246,
    "hy": 3012.7,
    "hz": 316.0
   }
  },
  {
   "type": "Feature",
   "geometry": {
    "type": "Point",
    "coordinates": [
     -2.01632075674554e-05,
     0.0005084448198390406
    ]
   },
   "properties": {
    "classname": "info_player_teamspawn",
    "team": "3",
    "targetname": "respawn_blue4",
    "hx": -117.825,
    "hy": 2971.13,
    "hz": 316.0
   }
  },
  {
   "type": "Feature",
   "geometry": {
    "type": "Point",
    "coordinates": [
     -2.427011882065492e-05,
     0.0005013310108974227
    ]
   },
   "properties": {
    "classname": "info_player_teamspawn",
    "team": "3",
    "targetname": "respawn_blue4",
    "hx": -141.824,
    "hy": 2929.56,
    "hz": 316.0
   }
  },
  {
   "type": "Feature",
   "geometry": {
    "type": "Point",
    "coordinates": [
     -2.837720120227846e-05,
     0.0004942172019558049
    ]
   },
   "properties": {
    "classname": "info_player_teamspawn",
    "team": "3",
    "targetname": "respawn_blue4",
    "hx": -165.824,
    "hy": 2887.99,
    "hz": 316.0
   }
  },
  {
   "type": "Feature",
   "geometry": {
    "type": "Point",
    "coordinates": [
     -1.0678225951027638e-05,
     0.0005029687099970447
    ]
   },
   "properties": {
    "classname": "info_player_teamspawn",
    "team": "3",
    "targetname": "respawn_blue4",
    "hx": -62.3989,
    "hy": 2939.13,
    "hz": 316.0
   }
  },
  {
   "type": "Feature",
   "geometry": {
    "type": "Point",
    "coordinates": [
     -6.571126456536415e-06,
     0.0005100825189386624
    ]
   },
   "properties": {
    "classname": "info_player_teamspawn",
    "team": "3",
    "targetname": "respawn_blue4",
    "hx": -38.3988,
    "hy": 2980.7,
    "hz": 316.0
   }
  },
  {
   "type": "Feature",
   "geometry": {
    "type": "Point",
    "coordinates": [
     -1.4785291219823557e-05,
     0.0004958549010554268
    ]
   },
   "properties": {
    "classname": "info_player_teamspawn",
    "team": "3",
    "targetname": "respawn_blue4",
    "hx": -86.3988,
    "hy": 2897.56,
    "hz": 316.0
   }
  },
  {
   "type": "Feature",
   "geometry": {
    "type": "Point",
    "coordinates": [
     -1.889240782714065e-05,
     0.000488741092113809
    ]
   },
   "properties": {
    "classname": "info_player_teamspawn",
    "team": "3",
    "targetname": "respawn_blue4",
    "hx": -110.399,
    "hy": 2855.99,
    "hz": 316.0
   }
  },
  {
   "type": "Feature",
   "geometry": {
    "type": "Point",
    "coordinates": [
     -5.300360941948481e-06,
     0.0004903787912134309
    ]
   },
   "properties": {
    "classname": "info_player_teamspawn",
    "team": "3",
    "targetname": "respawn_blue4",
    "hx": -30.973,
    "hy": 2865.56,
    "hz": 316.0
   }
  },
  {
   "type": "Feature",
   "geometry": {
    "type": "Point",
    "coordinates": [
     -1.1933025182829623e-06,
     0.0004974926001550487
    ]
   },
   "properties": {
    "classname": "info_player_teamspawn",
    "team": "3",
    "targetname": "respawn_blue4",
    "hx": -6.97314,
    "hy": 2907.13,
    "hz": 316.0
   }
  },
  {
   "type": "Feature",
   "geometry": {
    "type": "Point",
    "coordinates": [
     1.2398699873538984e-05,
     0.0004991302992546706
    ]
   },
   "properties": {
    "classname": "info_player_teamspawn",
    "team": "3",
    "targetname": "respawn_blue4",
    "hx": 72.4526,
    "hy": 2916.7,
    "hz": 316.0
   }
  },
  {
   "type": "Feature",
   "geometry": {
    "type": "Point",
    "coordinates": [
     2.9137867085092557e-06,
     0.0005046064090966665
    ]
   },
   "properties": {
    "classname": "info_player_teamspawn",
    "team": "3",
    "targetname": "respawn_blue4",
    "hx": 17.0269,
    "hy": 2948.7,
    "hz": 316.0
   }
  },
  {
   "type": "Feature",
   "geometry": {
    "type": "Point",
    "coordinates": [
     8.291617491877308e-06,
     0.0004920164903130528
    ]
   },
   "properties": {
    "classname": "info_player_teamspawn",
    "team": "3",
    "targetname": "respawn_blue4",
    "hx": 48.4526,
    "hy": 2875.13,
    "hz": 316.0
   }
  },
  {
   "type": "Feature",
   "geometry": {
    "type": "Point",
    "coordinates": [
     4.184517997381261e-06,
     0.00048490268137143497
    ]
   },
   "properties": {
    "classname": "info_player_teamspawn",
    "team": "3",
    "targetname": "respawn_blue4",
    "hx": 24.4525,
    "hy": 2833.56,
    "hz": 316.0
   }
  },
  {
   "type": "Feature",
   "geometry": {
    "type": "Point",
    "coordinates": [
     7.743818266365428e-08,
     0.0004777888724298172
    ]
   },
   "properties": {
    "classname": "info_player_teamspawn",
    "team": "3",
    "targetname": "respawn_blue4",
    "hx": 0.452515,
    "hy": 2791.99,
    "hz": 316.0
   }
  },
  {
   "type": "Feature",
   "geometry": {
    "type": "Point",
    "coordinates": [
     -9.40746043642917e-06,
     0.00048326498227181306
    ]
   },
   "properties": {
    "classname": "info_player_teamspawn",
    "team": "3",
    "targetname": "respawn_blue4",
    "hx": -54.9731,
    "hy": 2823.99,
    "hz": 316.0
   }
  },
  {
   "type": "Feature",
   "geometry": {
    "type": "Point",
    "coordinates": [
     -0.0003792206065637947,
     -0.00031076923353326767
    ]
   },
   "properties": {
    "classname": "item_healthkit_medium",
    "team": "",
    "targetname": "",
    "hx": -2216.0,
    "hy": -1816.0,
    "hz": -607.764
   }
  },
  {
   "type": "Feature",
   "geometry": {
    "type": "Point",
    "coordinates": [
     0.0001697594051026182,
     -0.0001697594051018731
    ]
   },
   "properties": {
    "classname": "item_healthkit_small",
    "team": "",
    "targetname": "",
    "hx": 992.0,
    "hy": -992.0,
    "hz": -47.7649
   }
  },
  {
   "type": "Feature",
   "geometry": {
    "type": "Point",
    "coordinates": [
     -2.8407319805392933e-05,
     9.514740850467887e-05
    ]
   },
   "properties": {
    "classname": "team_control_point",
    "team": "",
    "targetname": "cp_two",
    "hx": -166.0,
    "hy": 556.0,
    "hz": -23.9212
   }
  },
  {
   "type": "Feature",
   "geometry": {
    "type": "Point",
    "coordinates": [
     0.00011891492312065959,
     0.00038542572352292815
    ]
   },
   "properties": {
    "classname": "team_control_point",
    "team": "",
    "targetname": "cp_three",
    "hx": 694.887,
    "hy": 2252.26,
    "hz": 272.079
   }
  },
  {
   "type": "Feature",
   "geometry": {
    "type": "Point",
    "coordinates": [
     -0.00030666215115836694,
     0.00037579803790696906
    ]
   },
   "properties": {
    "classname": "info_player_teamspawn",
    "team": "2",
    "targetname": "respawn_red1_new",
    "hx": -1792.0,
    "hy": 2196.0,
    "hz": 208.0
   }
  },
  {
   "type": "Feature",
   "geometry": {
    "type": "Point",
    "coordinates": [
     -0.0003141918021912909,
     0.0003762874652240974
    ]
   },
   "properties": {
    "classname": "info_player_teamspawn",
    "team": "2",
    "targetname": "respawn_red1_new",
    "hx": -1836.0,
    "hy": 2198.86,
    "hz": 208.0
   }
  },
  {
   "type": "Feature",
   "geometry": {
    "type": "Point",
    "coordinates": [
     -0.00032240596695446187,
     0.0003762874652240974
    ]
   },
   "properties": {
    "classname": "info_player_teamspawn",
    "team": "2",
    "targetname": "respawn_red1_new",
    "hx": -1884.0,
    "hy": 2198.86,
    "hz": 208.0
   }
  },
  {
   "type": "Feature",
   "geometry": {
    "type": "Point",
    "coordinates": [
     -0.0003306201317176329,
     0.0003762874652240974
    ]
   },
   "properties": {
    "classname": "info_player_teamspawn",
    "team": "2",
    "targetname": "respawn_red1_new",
    "hx": -1932.0,
    "hy": 2198.86,
    "hz": 208.0
   }
  },
  {
   "type": "Feature",
   "geometry": {
    "type": "Point",
    "coordinates": [
     -0.00033062013171729604,
     0.00036729124352429356
    ]
   },
   "properties": {
    "classname": "info_player_teamspawn",
    "team": "2",
    "targetname": "respawn_red1_new",
    "hx": -1932.0,
    "hy": 2146.29,
    "hz": 208.0
   }
  },
  {
   "type": "Feature",
   "geometry": {
    "type": "Point",
    "coordinates": [
     -0.0003224059669541334,
     0.00036729124352429356
    ]
   },
   "properties": {
    "classname": "info_player_teamspawn",
    "team": "2",
    "targetname": "respawn_red1_new",
    "hx": -1884.0,
    "hy": 2146.29,
    "hz": 208.0
   }
  },
  {
   "type": "Feature",
   "geometry": {
    "type": "Point",
    "coordinates": [
     -0.0003141918021909708,
     0.00036729124352429356
    ]
   },
   "properties": {
    "classname": "info_player_teamspawn",
    "team": "2",
    "targetname": "respawn_red1_new",
    "hx": -1836.0,
    "hy": 2146.29,
    "hz": 208.0
   }
  },
  {
   "type": "Feature",
   "geometry": {
    "type": "Point",
    "coordinates": [
     -0.00030597763742780816,
     0.00036729124352429356
    ]
   },
   "properties": {
    "classname": "info_player_teamspawn",
    "team": "2",
    "targetname": "respawn_red1_new",
    "hx": -1788.0,
    "hy": 2146.29,
    "hz": 208.0
   }
  },
  {
   "type": "Feature",
   "geometry": {
    "type": "Point",
    "coordinates": [
     -0.0003059776374275038,
     0.00035829331054016404
    ]
   },
   "properties": {
    "classname": "info_player_teamspawn",
    "team": "2",
    "targetname": "respawn_red1_new",
    "hx": -1788.0,
    "hy": 2093.71,
    "hz": 208.0
   }
  },
  {
   "type": "Feature",
   "geometry": {
    "type": "Point",
    "coordinates": [
     -0.0003141918021906583,
     0.00035829331054016404
    ]
   },
   "properties": {
    "classname": "info_player_teamspawn",
    "team": "2",
    "targetname": "respawn_red1_new",
    "hx": -1836.0,
    "hy": 2093.71,
    "hz": 208.0
   }
  },
  {
   "type": "Feature",
   "geometry": {
    "type": "Point",
    "coordinates": [
     -0.00032240596695381276,
     0.00035829331054016404
    ]
   },
   "properties": {
    "classname": "info_player_teamspawn",
    "team": "2",
    "targetname": "respawn_red1_new",
    "hx": -1884.0,
    "hy": 2093.71,
    "hz": 208.0
   }
  },
  {
   "type": "Feature",
   "geometry": {
    "type": "Point",
    "coordinates": [
     -0.00033062013171696725,
     0.00035829331054016404
    ]
   },
   "properties": {
    "classname": "info_player_teamspawn",
    "team": "2",
    "targetname": "respawn_red1_new",
    "hx": -1932.0,
    "hy": 2093.71,
    "hz": 208.0
   }
  },
  {
   "type": "Feature",
   "geometry": {
    "type": "Point",
    "coordinates": [
     -0.0003306201317166467,
     0.00034929708884036013
    ]
   },
   "properties": {
    "classname": "info_player_teamspawn",
    "team": "2",
    "targetname": "respawn_red1_new",
    "hx": -1932.0,
    "hy": 2041.14,
    "hz": 208.0
   }
  },
  {
   "type": "Feature",
   "geometry": {
    "type": "Point",
    "coordinates": [
     -0.0003224059669535002,
     0.00034929708884036013
    ]
   },
   "properties": {
    "classname": "info_player_teamspawn",
    "team": "2",
    "targetname": "respawn_red1_new",
    "hx": -1884.0,
    "hy": 2041.14,
    "hz": 208.0
   }
  },
  {
   "type": "Feature",
   "geometry": {
    "type": "Point",
    "coordinates": [
     -0.00031419180219035365,
     0.00034929708884036013
    ]
   },
   "properties": {
    "classname": "info_player_teamspawn",
    "team": "2",
    "targetname": "respawn_red1_new",
    "hx": -1836.0,
    "hy": 2041.14,
    "hz": 208.0
   }
  },
  {
   "type": "Feature",
   "geometry": {
    "type": "Point",
    "coordinates": [
     -0.0003059776374272072,
     0.00034929708884036013
    ]
   },
   "properties": {
    "classname": "info_player_teamspawn",
    "team": "2",
    "targetname": "respawn_red1_new",
    "hx": -1788.0,
    "hy": 2041.14,
    "hz": 208.0
   }
  },
  {
   "type": "Feature",
   "geometry": {
    "type": "Point",
    "coordinates": [
     0.0006598712359608713,
     -6.023720826195497e-05
    ]
   },
   "properties": {
    "classname": "item_healthkit_small",
    "team": "",
    "targetname": "",
    "hx": 3856.0,
    "hy": -352.0,
    "hz": 448.236
   }
  },
  {
   "type": "Feature",
   "geometry": {
    "type": "Point",
    "coordinates": [
     0.0004969569681616057,
     7.940359270894063e-05
    ]
   },
   "properties": {
    "classname": "item_ammopack_medium",
    "team": "",
    "targetname": "",
    "hx": 2904.0,
    "hy": 464.0,
    "hz": 528.256
   }
  },
  {
   "type": "Feature",
   "geometry": {
    "type": "Point",
    "coordinates": [
     8.962286931647803e-05,
     -0.0001241001146246089
    ]
   },
   "properties": {
    "classname": "info_player_teamspawn",
    "team": "3",
    "targetname": "respawn_blue3",
    "hx": 523.717,
    "hy": -725.187,
    "hz": -88.0
   }
  },
  {
   "type": "Feature",
   "geometry": {
    "type": "Point",
    "coordinates": [
     1.7759537603500847e-05,
     -0.00047505252879314486
    ]
   },
   "properties": {
    "classname": "item_healthkit_medium",
    "team": "",
    "targetname": "",
    "hx": 103.779,
    "hy": -2776.0,
    "hz": -167.811
   }
  },
  {
   "type": "Feature",
   "geometry": {
    "type": "Point",
    "coordinates": [
     0.0006066075113342387,
     0.00030809962998529466
    ]
   },
   "properties": {
    "classname": "item_healthkit_medium",
    "team": "",
    "targetname": "",
    "hx": 3544.75,
    "hy": 1800.4,
    "hz": 144.236
   }
  },
  {
   "type": "Feature",
   "geometry": {
    "type": "Point",
    "coordinates": [
     -0.00011020671057321044,
     -0.0004257675402151817
    ]
   },
   "properties": {
    "classname": "team_control_point",
    "team": "",
    "targetname": "cp_one",
    "hx": -644.0,
    "hy": -2488.0,
    "hz": -455.921
   }
  },
  {
   "type": "Feature",
   "geometry": {
    "type": "Point",
    "coordinates": [
     0.00010858304400224854,
     -0.000118624004782613
    ]
   },
   "properties": {
    "classname": "info_player_teamspawn",
    "team": "3",
    "targetname": "respawn_blue3",
    "hx": 634.512,
    "hy": -693.187,
    "hz": -88.0
   }
  },
  {
   "type": "Feature",
   "geometry": {
    "type": "Point",
    "coordinates": [
     -0.0003422568651348742,
     -0.0004408268422806704
    ]
   },
   "properties": {
    "classname": "item_healthkit_medium",
    "team": "",
    "targetname": "",
    "hx": -2000.0,
    "hy": -2576.0,
    "hz": -375.764
   }
  },
  {
   "type": "Feature",
   "geometry": {
    "type": "Point",
    "coordinates": [
     8.537323695063202e-05,
     -0.00011946818134044318
    ]
   },
   "properties": {
    "classname": "info_player_teamspawn",
    "team": "3",
    "targetname": "respawn_blue3",
    "hx": 498.884,
    "hy": -698.12,
    "hz": -88.0
   }
  },
  {
   "type": "Feature",
   "geometry": {
    "type": "Point",
    "coordinates": [
     4.9284988578288204e-05,
     0.00020809217399584442
    ]
   },
   "properties": {
    "classname": "item_ammopack_medium",
    "team": "",
    "targetname": "",
    "hx": 288.0,
    "hy": 1216.0,
    "hz": 176.0
   }
  },
  {
   "type": "Feature",
   "geometry": {
    "type": "Point",
    "coordinates": [
     -2.1904439368017865e-05,
     -0.00010130803207692427
    ]
   },
   "properties": {
    "classname": "item_healthkit_small",
    "team": "",
    "targetname": "",
    "hx": -128.0,
    "hy": -592.0,
    "hz": -95.7648
   }
  },
  {
   "type": "Feature",
   "geometry": {
    "type": "Point",
    "coordinates": [
     0.0001074686556493587,
     -0.00010746865564916965
    ]
   },
   "properties": {
    "classname": "info_player_teamspawn",
    "team": "3",
    "targetname": "respawn_blue3",
    "hx": 628.0,
    "hy": -628.0,
    "hz": -88.0
   }
  },
  {
   "type": "Feature",
   "geometry": {
    "type": "Point",
    "coordinates": [
     7.940359270912993e-05,
     -0.0001251078899639687
    ]
   },
   "properties": {
    "classname": "info_player_teamspawn",
    "team": "3",
    "targetname": "respawn_blue3",
    "hx": 464.0,
    "hy": -731.076,
    "hz": -88.0
   }
  },
  {
   "type": "Feature",
   "geometry": {
    "type": "Point",
    "coordinates": [
     0.0006160623572250522,
     7.392748286694472e-05
    ]
   },
   "properties": {
    "classname": "item_healthkit_full",
    "team": "",
    "targetname": "",
    "hx": 3600.0,
    "hy": 432.0,
    "hz": 167.98
   }
  },
  {
   "type": "Feature",
   "geometry": {
    "type": "Point",
    "coordinates": [
     0.0004682159479147348,
     0.0001856041866728231
    ]
   },
   "properties": {
    "classname": "item_ammopack_full",
    "team": "",
    "targetname": "",
    "hx": 2736.05,
    "hy": 1084.59,
    "hz": 128.211
   }
  },
  {
   "type": "Feature",
   "geometry": {
    "type": "Point",
    "coordinates": [
     -0.0001601762128783848,
     -1.3690274604989765e-05
    ]
   },
   "properties": {
    "classname": "item_healthkit_small",
    "team": "",
    "targetname": "",
    "hx": -936.0,
    "hy": -80.0,
    "hz": 256.235
   }
  },
  {
   "type": "Feature",
   "geometry": {
    "type": "Point",
    "coordinates": [
     0.00017797356987163542,
     0.0004996950230821265
    ]
   },
   "properties": {
    "classname": "item_healthkit_medium",
    "team": "",
    "targetname": "",
    "hx": 1040.0,
    "hy": 2920.0,
    "hz": 192.236
   }
  },
  {
   "type": "Feature",
   "geometry": {
    "type": "Point",
    "coordinates": [
     9.387369958135406e-05,
     -0.0001287308500097467
    ]
   },
   "properties": {
    "classname": "info_player_teamspawn",
    "team": "3",
    "targetname": "respawn_blue3",
    "hx": 548.557,
    "hy": -752.247,
    "hz": -88.0
   }
  },
  {
   "type": "Feature",
   "geometry": {
    "type": "Point",
    "coordinates": [
     -0.00014100982843139457,
     2.738123372370978e-08
    ]
   },
   "properties": {
    "classname": "item_healthkit_full",
    "team": "",
    "targetname": "",
    "hx": -824.0,
    "hy": 0.160004,
    "hz": -240.0
   }
  },
  {
   "type": "Feature",
   "geometry": {
    "type": "Point",
    "coordinates": [
     0.0004682159479145222,
     0.00017739002190982924
    ]
   },
   "properties": {
    "classname": "item_healthkit_medium",
    "team": "",
    "targetname": "",
    "hx": 2736.05,
    "hy": 1036.59,
    "hz": 128.236
   }
  },
  {
   "type": "Feature",
   "geometry": {
    "type": "Point",
    "coordinates": [
     -0.000227258558445123,
     -0.0002573771625738076
    ]
   },
   "properties": {
    "classname": "item_healthkit_small",
    "team": "",
    "targetname": "",
    "hx": -1328.0,
    "hy": -1504.0,
    "hz": -567.764
   }
  },
  {
   "type": "Feature",
   "geometry": {
    "type": "Point",
    "coordinates": [
     0.0004921653720495085,
     4.10708238149693e-05
    ]
   },
   "properties": {
    "classname": "team_control_point",
    "team": "",
    "targetname": "cp_four",
    "hx": 2876.0,
    "hy": 240.0,
    "hz": 328.0
   }
  },
  {
   "type": "Feature",
   "geometry": {
    "type": "Point",
    "coordinates": [
     -0.00016291426780312918,
     0.00038880379878170935
    ]
   },
   "properties": {
    "classname": "item_ammopack_small",
    "team": "",
    "targetname": "",
    "hx": -952.0,
    "hy": 2272.0,
    "hz": 266.261
   }
  },
  {
   "type": "Feature",
   "geometry": {
    "type": "Point",
    "coordinates": [
     9.134288119213247e-05,
     -0.00011382847271691765
    ]
   },
   "properties": {
    "classname": "info_player_teamspawn",
    "team": "3",
    "targetname": "respawn_blue3",
    "hx": 533.768,
    "hy": -665.164,
    "hz": -88.0
   }
  },
  {
   "type": "Feature",
   "geometry": {
    "type": "Point",
    "coordinates": [
     0.0003682683868804835,
     0.00033404270036175025
    ]
   },
   "properties": {
    "classname": "item_healthkit_small",
    "team": "",
    "targetname": "",
    "hx": 2152.0,
    "hy": 1952.0,
    "hz": 496.235
   }
  },
  {
   "type": "Feature",
   "geometry": {
    "type": "Point",
    "coordinates": [
     0.00038332768894034546,
     0.00010404608699792221
    ]
   },
   "properties": {
    "classname": "item_ammopack_small",
    "team": "",
    "targetname": "",
    "hx": 2240.0,
    "hy": 608.0,
    "hz": 176.261
   }
  },
  {
   "type": "Feature",
   "geometry": {
    "type": "Point",
    "coordinates": [
     9.984334382285334e-05,
     -0.00012309131251465373
    ]
   },
   "properties": {
    "classname": "info_player_teamspawn",
    "team": "3",
    "targetname": "respawn_blue3",
    "hx": 583.441,
    "hy": -719.292,
    "hz": -88.0
   }
  },
  {
   "type": "Feature",
   "geometry": {
    "type": "Point",
    "coordinates": [
     0.0006297526318382301,
     0.00030118604130977483
    ]
   },
   "properties": {
    "classname": "item_ammopack_medium",
    "team": "",
    "targetname": "",
    "hx": 3680.0,
    "hy": 1760.0,
    "hz": 336.256
   }
  },
  {
   "type": "Feature",
   "geometry": {
    "type": "Point",
    "coordinates": [
     0.0006598712359607507,
     -4.928498857796316e-05
    ]
   },
   "properties": {
    "classname": "item_ammopack_small",
    "team": "",
    "targetname": "",
    "hx": 3856.0,
    "hy": -288.0,
    "hz": 448.236
   }
  },
  {
   "type": "Feature",
   "geometry": {
    "type": "Point",
    "coordinates": [
     8.967129866292881e-05,
     -0.0001341646911288997
    ]
   },
   "properties": {
    "classname": "info_player_teamspawn",
    "team": "3",
    "targetname": "respawn_blue3",
    "hx": 524.0,
    "hy": -784.0,
    "hz": -88.0
   }
  },
  {
   "type": "Feature",
   "geometry": {
    "type": "Point",
    "coordinates": [
     0.00029023382163016585,
     0.0003148763159147646
    ]
   },
   "properties": {
    "classname": "item_ammopack_medium",
    "team": "",
    "targetname": "",
    "hx": 1696.0,
    "hy": 1840.0,
    "hz": 296.256
   }
  },
  {
   "type": "Feature",
   "geometry": {
    "type": "Point",
    "coordinates": [
     -1.6852163314966975e-05,
     -0.00014237885589189354
    ]
   },
   "properties": {
    "classname": "item_ammopack_small",
    "team": "",
    "targetname": "",
    "hx": -98.4767,
    "hy": -832.0,
    "hz": 88.2562
   }
  },
  {
   "type": "Feature",
   "geometry": {
    "type": "Point",
    "coordinates": [
     9.788546342667495e-05,
     -0.00025874619003430656
    ]
   },
   "properties": {
    "classname": "item_healthkit_medium",
    "team": "",
    "targetname": "",
    "hx": 572.0,
    "hy": -1512.0,
    "hz": -143.765
   }
  },
  {
   "type": "Feature",
   "geometry": {
    "type": "Point",
    "coordinates": [
     -0.0003532090848191902,
     -0.0004408268422806704
    ]
   },
   "properties": {
    "classname": "item_ammopack_medium",
    "team": "",
    "targetname": "",
    "hx": -2064.0,
    "hy": -2576.0,
    "hz": -375.744
   }
  },
  {
   "type": "Feature",
   "geometry": {
    "type": "Point",
    "coordinates": [
     0.00010433238486580556,
     -0.00011399344052590779
    ]
   },
   "properties": {
    "classname": "info_player_teamspawn",
    "team": "3",
    "targetname": "respawn_blue3",
    "hx": 609.673,
    "hy": -666.128,
    "hz": -88.0
   }
  },
  {
   "type": "Feature",
   "geometry": {
    "type": "Point",
    "coordinates": [
     -0.00027517451956313,
     -0.00026011521749480553
    ]
   },
   "properties": {
    "classname": "item_ammopack_medium",
    "team": "",
    "targetname": "",
    "hx": -1608.0,
    "hy": -1520.0,
    "hz": -591.744
   }
  },
  {
   "type": "Feature",
   "geometry": {
    "type": "Point",
    "coordinates": [
     0.0006160623572252155,
     8.487970255093655e-05
    ]
   },
   "properties": {
    "classname": "item_ammopack_full",
    "team": "",
    "targetname": "",
    "hx": 3600.0,
    "hy": 496.0,
    "hz": 168.0
   }
  },
  {
   "type": "Feature",
   "geometry": {
    "type": "Point",
    "coordinates": [
     0.0004709454464134569,
     0.00015880718541788126
    ]
   },
   "properties": {
    "classname": "item_ammopack_full",
    "team": "",
    "targetname": "",
    "hx": 2752.0,
    "hy": 928.0,
    "hz": 337.261
   }
  },
  {
   "type": "Feature",
   "geometry": {
    "type": "Point",
    "coordinates": [
     9.583192223508845e-05,
     -0.0001047306007281717
    ]
   },
   "properties": {
    "classname": "info_player_teamspawn",
    "team": "3",
    "targetname": "respawn_blue3",
    "hx": 560.0,
    "hy": -612.0,
    "hz": -88.0
   }
  },
  {
   "type": "Feature",
   "geometry": {
    "type": "Point",
    "coordinates": [
     0.0003614232495735275,
     0.0001807116247858649
    ]
   },
   "properties": {
    "classname": "item_healthkit_medium",
    "team": "",
    "targetname": "",
    "hx": 2112.0,
    "hy": 1056.0,
    "hz": 240.236
   }
  },
  {
   "type": "Feature",
   "geometry": {
    "type": "Point",
    "coordinates": [
     -0.00018687224836322024,
     -0.0004237139990244332
    ]
   },
   "properties": {
    "classname": "item_healthkit_medium",
    "team": "",
    "targetname": "",
    "hx": -1092.0,
    "hy": -2476.0,
    "hz": -335.764
   }
  },
  {
   "type": "Feature",
   "geometry": {
    "type": "Point",
    "coordinates": [
     3.970179635473216e-05,
     0.00020809217399584442
    ]
   },
   "properties": {
    "classname": "item_healthkit_small",
    "team": "",
    "targetname": "",
    "hx": 232.0,
    "hy": 1216.0,
    "hz": 175.98
   }
  },
  {
   "type": "Feature",
   "geometry": {
    "type": "Point",
    "coordinates": [
     -2.7804434337522372e-05,
     -0.00014237885589189354
    ]
   },
   "properties": {
    "classname": "item_healthkit_small",
    "team": "",
    "targetname": "",
    "hx": -162.477,
    "hy": -832.0,
    "hz": 88.2361
   }
  },
  {
   "type": "Feature",
   "geometry": {
    "type": "Point",
    "coordinates": [
     0.00010008155460093204,
     -0.00010936253401233743
    ]
   },
   "properties": {
    "classname": "info_player_teamspawn",
    "team": "3",
    "targetname": "respawn_blue3",
    "hx": 584.833,
    "hy": -639.067,
    "hz": -88.0
   }
  },
  {
   "type": "Feature",
   "geometry": {
    "type": "Point",
    "coordinates": [
     0.00014374788335410024,
     0.0002792816019417912
    ]
   },
   "properties": {
    "classname": "item_healthkit_medium",
    "team": "",
    "targetname": "",
    "hx": 840.0,
    "hy": 1632.0,
    "hz": 58.2361
   }
  },
  {
   "type": "Feature",
   "geometry": {
    "type": "Point",
    "coordinates": [
     -0.0002094612014696644,
     -0.0006461809613555169
    ]
   },
   "properties": {
    "classname": "item_healthkit_medium",
    "team": "",
    "targetname": "",
    "hx": -1224.0,
    "hy": -3776.0,
    "hz": -629.764
   }
  },
  {
   "type": "Feature",
   "geometry": {
    "type": "Point",
    "coordinates": [
     0.00046410030911011023,
     0.000116367334142413
    ]
   },
   "properties": {
    "classname": "item_healthkit_small",
    "team": "",
    "targetname": "",
    "hx": 2712.0,
    "hy": 680.0,
    "hz": 336.235
   }
  },
  {
   "type": "Feature",
   "geometry": {
    "type": "Point",
    "coordinates": [
     0.0003915418537033529,
     0.00010404608699792221
    ]
   },
   "properties": {
    "classname": "item_healthkit_small",
    "team": "",
    "targetname": "",
    "hx": 2288.0,
    "hy": 608.0,
    "hz": 176.235
   }
  },
  {
   "type": "Feature",
   "geometry": {
    "type": "Point",
    "coordinates": [
     1.7797356987074e-05,
     -0.000465469336569652
    ]
   },
   "properties": {
    "classname": "item_ammopack_small",
    "team": "",
    "targetname": "",
    "hx": 104.0,
    "hy": -2720.0,
    "hz": -167.739
   }
  },
  {
   "type": "Feature",
   "geometry": {
    "type": "Point",
    "coordinates": [
     0.00014374788335421945,
     0.00028886479416528405
    ]
   },
   "properties": {
    "classname": "item_ammopack_medium",
    "team": "",
    "targetname": "",
    "hx": 840.0,
    "hy": 1688.0,
    "hz": 58.256
   }
  },
  {
   "type": "Feature",
   "geometry": {
    "type": "Point",
    "coordinates": [
     -9.514740850493973e-05,
     0.0001341646911288997
    ]
   },
   "properties": {
    "classname": "item_healthkit_small",
    "team": "",
    "targetname": "",
    "hx": -556.0,
    "hy": 784.0,
    "hz": 192.235
   }
  },
  {
   "type": "Feature",
   "geometry": {
    "type": "Point",
    "coordinates": [
     9.559251355797791e-05,
     -0.00011846040600108338
    ]
   },
   "properties": {
    "classname": "info_player_teamspawn",
    "team": "3",
    "targetname": "respawn_blue3",
    "hx": 558.601,
    "hy": -692.231,
    "hz": -88.0
   }
  },
  {
   "type": "Feature",
   "geometry": {
    "type": "Point",
    "coordinates": [
     -0.0002833886843262085,
     -0.00026011521749480553
    ]
   },
   "properties": {
    "classname": "item_healthkit_small",
    "team": "",
    "targetname": "",
    "hx": -1656.0,
    "hy": -1520.0,
    "hz": -591.765
   }
  },
  {
   "type": "Feature",
   "geometry": {
    "type": "Point",
    "coordinates": [
     0.00010130187145361687,
     -0.00013101490119915668
    ]
   },
   "properties": {
    "classname": "info_player_teamspawn",
    "team": "3",
    "targetname": "respawn_blue3",
    "hx": 591.964,
    "hy": -765.594,
    "hz": -88.0
   }
  },
  {
   "type": "Feature",
   "geometry": {
    "type": "Point",
    "coordinates": [
     -0.0001547001030399462,
     0.00038880379878170935
    ]
   },
   "properties": {
    "classname": "item_healthkit_small",
    "team": "",
    "targetname": "",
    "hx": -904.0,
    "hy": 2272.0,
    "hz": 266.235
   }
  },
  {
   "type": "Feature",
   "geometry": {
    "type": "Point",
    "coordinates": [
     0.0006201694396146048,
     0.00030118604130977483
    ]
   },
   "properties": {
    "classname": "item_healthkit_medium",
    "team": "",
    "targetname": "",
    "hx": 3624.0,
    "hy": 1760.0,
    "hz": 336.236
   }
  },
  {
   "type": "Feature",
   "geometry": {
    "type": "Point",
    "coordinates": [
     -0.00042029143039355125,
     -0.0005640393137255783
    ]
   },
   "properties": {
    "classname": "item_ammopack_full",
    "team": "",
    "targetname": "",
    "hx": -2456.0,
    "hy": -3296.0,
    "hz": -527.789
   }
  },
  {
   "type": "Feature",
   "geometry": {
    "type": "Point",
    "coordinates": [
     -0.0002094612014651144,
     -0.000524337517371108
    ]
   },
   "properties": {
    "classname": "item_ammopack_medium",
    "team": "",
    "targetname": "",
    "hx": -1224.0,
    "hy": -3064.0,
    "hz": -519.744
   }
  },
  {
   "type": "Feature",
   "geometry": {
    "type": "Point",
    "coordinates": [
     -4.107082381574366e-05,
     0.00035184005734823696
    ]
   },
   "properties": {
    "classname": "item_healthkit_small",
    "team": "",
    "targetname": "",
    "hx": -240.0,
    "hy": 2056.0,
    "hz": 112.236
   }
  },
  {
   "type": "Feature",
   "geometry": {
    "type": "Point",
    "coordinates": [
     8.365305394654391e-05,
     -0.00012973965211970188
    ]
   },
   "properties": {
    "classname": "info_player_teamspawn",
    "team": "3",
    "targetname": "respawn_blue3",
    "hx": 488.832,
    "hy": -758.142,
    "hz": -88.0
   }
  },
  {
   "type": "Feature",
   "geometry": {
    "type": "Point",
    "coordinates": [
     -0.000420291430392768,
     -0.0005530870940415865
    ]
   },
   "properties": {
    "classname": "item_healthkit_medium",
    "team": "",
    "targetname": "",
    "hx": -2456.0,
    "hy": -3232.0,
    "hz": -527.764
   }
  },
  {
   "type": "Feature",
   "geometry": {
    "type": "Point",
    "coordinates": [
     -0.00018755676208860735,
     9.30938673139304e-05
    ]
   },
   "properties": {
    "classname": "item_healthkit_small",
    "team": "",
    "targetname": "",
    "hx": -1096.0,
    "hy": 544.0,
    "hz": -31.7648
   }
  },
  {
   "type": "Feature",
   "geometry": {
    "type": "Point",
    "coordinates": [
     -2.7380549210566334e-06,
     0.00037511352417671955
    ]
   },
   "properties": {
    "classname": "item_ammopack_full",
    "team": "",
    "targetname": "",
    "hx": -16.0,
    "hy": 2192.0,
    "hz": 176.211
   }
  },
  {
   "type": "Feature",
   "geometry": {
    "type": "Point",
    "coordinates": [
     -4.928498857919583e-05,
     -0.0004052321283076971
    ]
   },
   "properties": {
    "classname": "item_ammopack_medium",
    "team": "",
    "targetname": "",
    "hx": -288.0,
    "hy": -2368.0,
    "hz": -255.739
   }
  },
  {
   "type": "Feature",
   "geometry": {
    "type": "Point",
    "coordinates": [
     0.0004641003091102501,
     0.00012458149890540686
    ]
   },
   "properties": {
    "classname": "item_ammopack_medium",
    "team": "",
    "targetname": "",
    "hx": 2712.0,
    "hy": 728.0,
    "hz": 336.211
   }
  }
 ]
}
