{
 "type": "FeatureCollection",
 "note": "pseudo-WGS84 via crs.local_to_wgs84 ((0,0)m maps to (0,0)deg); viewing only, not survey",
 "features": [
  {
   "type": "Feature",
   "geometry": {
    "type": "Point",
    "coordinates": [
     -4.449339246735984e-05,
     0.0004107082381496929
    ]
   },
   "properties": {
    "classname": "item_ammopack_full",
    "team": "",
    "targetname": "",
    "hx": -260.0,
    "hy": 2400.0,
    "hz": 240.0
   }
  },
  {
   "type": "Feature",
   "geometry": {
    "type": "Point",
    "coordinates": [
     0.00013279566367167735,
     0.0004024940733866991
    ]
   },
   "properties": {
    "classname": "item_ammopack_full",
    "team": "",
    "targetname": "",
    "hx": 776.0,
    "hy": 2352.0,
    "hz": -32.0
   }
  },
  {
   "type": "Feature",
   "geometry": {
    "type": "Point",
    "coordinates": [
     3.403573395340513e-05,
     0.00045536933647982085
    ]
   },
   "properties": {
    "classname": "item_ammopack_medium",
    "team": "",
    "targetname": "",
    "hx": 198.89,
    "hy": 2660.98,
    "hz": 166.0
   }
  },
  {
   "type": "Feature",
   "geometry": {
    "type": "Point",
    "coordinates": [
     -0.00021356828384561035,
     0.0004887428033981346
    ]
   },
   "properties": {
    "classname": "info_player_teamspawn",
    "team": "3",
    "targetname": "spawn_blu2",
    "hx": -1248.0,
    "hy": 2856.0,
    "hz": 132.0
   }
  },
  {
   "type": "Feature",
   "geometry": {
    "type": "Point",
    "coordinates": [
     -0.00021356828384535138,
     0.0004805286386351408
    ]
   },
   "properties": {
    "classname": "info_player_teamspawn",
    "team": "3",
    "targetname": "spawn_blu2",
    "hx": -1248.0,
    "hy": 2808.0,
    "hz": 132.0
   }
  },
  {
   "type": "Feature",
   "geometry": {
    "type": "Point",
    "coordinates": [
     -0.00021356828384587372,
     0.0004969569681611285
    ]
   },
   "properties": {
    "classname": "info_player_teamspawn",
    "team": "3",
    "targetname": "spawn_blu2",
    "hx": -1248.0,
    "hy": 2904.0,
    "hz": 132.0
   }
  },
  {
   "type": "Feature",
   "geometry": {
    "type": "Point",
    "coordinates": [
     -0.00021356828384509676,
     0.0004723144738721469
    ]
   },
   "properties": {
    "classname": "info_player_teamspawn",
    "team": "3",
    "targetname": "spawn_blu2",
    "hx": -1248.0,
    "hy": 2760.0,
    "hz": 132.0
   }
  },
  {
   "type": "Feature",
   "geometry": {
    "type": "Point",
    "coordinates": [
     -0.00020535411908182381,
     0.0004723144738721469
    ]
   },
   "properties": {
    "classname": "info_player_teamspawn",
    "team": "3",
    "targetname": "spawn_blu2",
    "hx": -1200.0,
    "hy": 2760.0,
    "hz": 132.0
   }
  },
  {
   "type": "Feature",
   "geometry": {
    "type": "Point",
    "coordinates": [
     -0.00020535411908206863,
     0.0004805286386351408
    ]
   },
   "properties": {
    "classname": "info_player_teamspawn",
    "team": "3",
    "targetname": "spawn_blu2",
    "hx": -1200.0,
    "hy": 2808.0,
    "hz": 132.0
   }
  },
  {
   "type": "Feature",
   "geometry": {
    "type": "Point",
    "coordinates": [
     -0.00020535411908231764,
     0.0004887428033981346
    ]
   },
   "properties": {
    "classname": "info_player_teamspawn",
    "team": "3",
    "targetname": "spawn_blu2",
    "hx": -1200.0,
    "hy": 2856.0,
    "hz": 132.0
   }
  },
  {
   "type": "Feature",
   "geometry": {
    "type": "Point",
    "coordinates": [
     -0.00020535411908257088,
     0.0004969569681611285
    ]
   },
   "properties": {
    "classname": "info_player_teamspawn",
    "team": "3",
    "targetname": "spawn_blu2",
    "hx": -1200.0,
    "hy": 2904.0,
    "hz": 132.0
   }
  },
  {
   "type": "Feature",
   "geometry": {
    "type": "Point",
    "coordinates": [
     -0.00014237885589366892,
     0.0002861267392442861
    ]
   },
   "properties": {
    "classname": "item_healthkit_small",
    "team": "",
    "targetname": "",
    "hx": -832.0,
    "hy": 1672.0,
    "hz": -64.0
   }
  },
  {
   "type": "Feature",
   "geometry": {
    "type": "Point",
    "coordinates": [
     -5.4761098420443285e-06,
     0.00024094883304781988
    ]
   },
   "properties": {
    "classname": "item_healthkit_small",
    "team": "",
    "targetname": "",
    "hx": -32.0,
    "hy": 1408.0,
    "hz": -60.0
   }
  },
  {
   "type": "Feature",
   "geometry": {
    "type": "Point",
    "coordinates": [
     -4.654693365760831e-05,
     0.00030118604130977483
    ]
   },
   "properties": {
    "classname": "item_ammopack_small",
    "team": "",
    "targetname": "",
    "hx": -272.0,
    "hy": 1760.0,
    "hz": -64.0
   }
  },
  {
   "type": "Feature",
   "geometry": {
    "type": "Point",
    "coordinates": [
     -0.00014237885589356845,
     0.00027791257448129224
    ]
   },
   "properties": {
    "classname": "item_ammopack_small",
    "team": "",
    "targetname": "",
    "hx": -832.0,
    "hy": 1624.0,
    "hz": -64.0
   }
  },
  {
   "type": "Feature",
   "geometry": {
    "type": "Point",
    "coordinates": [
     -0.00039975601846584905,
     4.928498857796316e-05
    ]
   },
   "properties": {
    "classname": "item_healthkit_medium",
    "team": "",
    "targetname": "",
    "hx": -2336.0,
    "hy": 288.0,
    "hz": -112.0
   }
  },
  {
   "type": "Feature",
   "geometry": {
    "type": "Point",
    "coordinates": [
     -0.00035034952870190763,
     0.00015541541988449507
    ]
   },
   "properties": {
    "classname": "item_ammopack_medium",
    "team": "",
    "targetname": "",
    "hx": -2047.29,
    "hy": 908.18,
    "hz": 148.0
   }
  },
  {
   "type": "Feature",
   "geometry": {
    "type": "Point",
    "coordinates": [
     2.738054921082042e-05,
     0.0004490410070436643
    ]
   },
   "properties": {
    "classname": "item_healthkit_medium",
    "team": "",
    "targetname": "",
    "hx": 160.0,
    "hy": 2624.0,
    "hz": 166.0
   }
  },
  {
   "type": "Feature",
   "geometry": {
    "type": "Point",
    "coordinates": [
     0.00017660454240717583,
     0.00032309048067775845
    ]
   },
   "properties": {
    "classname": "item_ammopack_medium",
    "team": "",
    "targetname": "",
    "hx": 1032.0,
    "hy": 1888.0,
    "hz": 176.0
   }
  },
  {
   "type": "Feature",
   "geometry": {
    "type": "Point",
    "coordinates": [
     -0.0001916638444698832,
     3.0118604130977485e-05
    ]
   },
   "properties": {
    "classname": "item_healthkit_small",
    "team": "",
    "targetname": "",
    "hx": -1120.0,
    "hy": 176.0,
    "hz": -192.0
   }
  },
  {
   "type": "Feature",
   "geometry": {
    "type": "Point",
    "coordinates": [
     -0.00016319320714501857,
     0.00015059302065488741
    ]
   },
   "properties": {
    "classname": "team_control_point",
    "team": "",
    "targetname": "cp_one",
    "hx": -953.63,
    "hy": 880.0,
    "hz": -136.161
   }
  },
  {
   "type": "Feature",
   "geometry": {
    "type": "Point",
    "coordinates": [
     0.0001615452403409105,
     0.0002873263495565483
    ]
   },
   "properties": {
    "classname": "team_control_point",
    "team": "",
    "targetname": "cp_two",
    "hx": 944.0,
    "hy": 1679.01,
    "hz": -24.0
   }
  },
  {
   "type": "Feature",
   "geometry": {
    "type": "Point",
    "coordinates": [
     0.00029023382163043674,
     0.0003244595081382574
    ]
   },
   "properties": {
    "classname": "item_ammopack_medium",
    "team": "",
    "targetname": "",
    "hx": 1696.0,
    "hy": 1896.0,
    "hz": -32.0
   }
  },
  {
   "type": "Feature",
   "geometry": {
    "type": "Point",
    "coordinates": [
     0.00029023382163020407,
     0.00031624534337526354
    ]
   },
   "properties": {
    "classname": "item_healthkit_medium",
    "team": "",
    "targetname": "",
    "hx": 1696.0,
    "hy": 1848.0,
    "hz": -32.0
   }
  },
  {
   "type": "Feature",
   "geometry": {
    "type": "Point",
    "coordinates": [
     0.00017797356986786692,
     0.0003326736729012513
    ]
   },
   "properties": {
    "classname": "item_healthkit_medium",
    "team": "",
    "targetname": "",
    "hx": 1040.0,
    "hy": 1944.0,
    "hz": 176.0
   }
  },
  {
   "type": "Feature",
   "geometry": {
    "type": "Point",
    "coordinates": [
     0.0005503490391260237,
     0.00025463910765280965
    ]
   },
   "properties": {
    "classname": "item_healthkit_medium",
    "team": "",
    "targetname": "",
    "hx": 3216.0,
    "hy": 1488.0,
    "hz": -16.0
   }
  },
  {
   "type": "Feature",
   "geometry": {
    "type": "Point",
    "coordinates": [
     0.00023205015455497955,
     0.00010678414191892016
    ]
   },
   "properties": {
    "classname": "item_ammopack_small",
    "team": "",
    "targetname": "",
    "hx": 1356.0,
    "hy": 624.0,
    "hz": -172.0
   }
  },
  {
   "type": "Feature",
   "geometry": {
    "type": "Point",
    "coordinates": [
     0.000470945446417819,
     0.0002933141334119057
    ]
   },
   "properties": {
    "classname": "team_control_point",
    "team": "",
    "targetname": "cp_three",
    "hx": 2752.0,
    "hy": 1714.0,
    "hz": -72.0
   }
  },
  {
   "type": "Feature",
   "geometry": {
    "type": "Point",
    "coordinates": [
     4.1070823815054e-05,
     0.000116367334142413
    ]
   },
   "properties": {
    "classname": "info_player_teamspawn",
    "team": "3",
    "targetname": "spawn_blu3",
    "hx": 240.0,
    "hy": 680.0,
    "hz": -168.0
   }
  },
  {
   "type": "Feature",
   "geometry": {
    "type": "Point",
    "coordinates": [
     2.4642494289024925e-05,
     0.00010746865564916965
    ]
   },
   "properties": {
    "classname": "info_player_teamspawn",
    "team": "3",
    "targetname": "spawn_blu3",
    "hx": 144.0,
    "hy": 628.0,
    "hz": -168.0
   }
  },
  {
   "type": "Feature",
   "geometry": {
    "type": "Point",
    "coordinates": [
     2.4642494289018043e-05,
     9.856997715592632e-05
    ]
   },
   "properties": {
    "classname": "info_player_teamspawn",
    "team": "3",
    "targetname": "spawn_blu3",
    "hx": 144.0,
    "hy": 576.0,
    "hz": -168.0
   }
  },
  {
   "type": "Feature",
   "geometry": {
    "type": "Point",
    "coordinates": [
     4.107082381506745e-05,
     0.00012526601263565635
    ]
   },
   "properties": {
    "classname": "info_player_teamspawn",
    "team": "3",
    "targetname": "spawn_blu3",
    "hx": 240.0,
    "hy": 732.0,
    "hz": -168.0
   }
  },
  {
   "type": "Feature",
   "geometry": {
    "type": "Point",
    "coordinates": [
     4.107082381504154e-05,
     0.00010746865564916965
    ]
   },
   "properties": {
    "classname": "info_player_teamspawn",
    "team": "3",
    "targetname": "spawn_blu3",
    "hx": 240.0,
    "hy": 628.0,
    "hz": -168.0
   }
  },
  {
   "type": "Feature",
   "geometry": {
    "type": "Point",
    "coordinates": [
     4.107082381503007e-05,
     9.856997715592632e-05
    ]
   },
   "properties": {
    "classname": "info_player_teamspawn",
    "team": "3",
    "targetname": "spawn_blu3",
    "hx": 240.0,
    "hy": 576.0,
    "hz": -168.0
   }
  },
  {
   "type": "Feature",
   "geometry": {
    "type": "Point",
    "coordinates": [
     3.2856659052033235e-05,
     0.00010746865564916965
    ]
   },
   "properties": {
    "classname": "info_player_teamspawn",
    "team": "3",
    "targetname": "spawn_blu3",
    "hx": 192.0,
    "hy": 628.0,
    "hz": -168.0
   }
  },
  {
   "type": "Feature",
   "geometry": {
    "type": "Point",
    "coordinates": [
     3.285665905202406e-05,
     9.856997715592632e-05
    ]
   },
   "properties": {
    "classname": "info_player_teamspawn",
    "team": "3",
    "targetname": "spawn_blu3",
    "hx": 192.0,
    "hy": 576.0,
    "hz": -168.0
   }
  },
  {
   "type": "Feature",
   "geometry": {
    "type": "Point",
    "coordinates": [
     0.00031898339830213623,
     0.00034773297496674006
    ]
   },
   "properties": {
    "classname": "info_player_teamspawn",
    "team": "2",
    "targetname": "spawn_red2",
    "hx": 1864.0,
    "hy": 2032.0,
    "hz": 152.0
   }
  },
  {
   "type": "Feature",
   "geometry": {
    "type": "Point",
    "coordinates": [
     0.00031898339830186193,
     0.0003395188102037462
    ]
   },
   "properties": {
    "classname": "info_player_teamspawn",
    "team": "2",
    "targetname": "spawn_red2",
    "hx": 1864.0,
    "hy": 1984.0,
    "hz": 152.0
   }
  },
  {
   "type": "Feature",
   "geometry": {
    "type": "Point",
    "coordinates": [
     0.00032719756306528135,
     0.00034773297496674006
    ]
   },
   "properties": {
    "classname": "info_player_teamspawn",
    "team": "2",
    "targetname": "spawn_red2",
    "hx": 1912.0,
    "hy": 2032.0,
    "hz": 152.0
   }
  },
  {
   "type": "Feature",
   "geometry": {
    "type": "Point",
    "coordinates": [
     0.000327197563065,
     0.0003395188102037462
    ]
   },
   "properties": {
    "classname": "info_player_teamspawn",
    "team": "2",
    "targetname": "spawn_red2",
    "hx": 1912.0,
    "hy": 1984.0,
    "hz": 152.0
   }
  },
  {
   "type": "Feature",
   "geometry": {
    "type": "Point",
    "coordinates": [
     0.00034362589259157164,
     0.00034773297496674006
    ]
   },
   "properties": {
    "classname": "info_player_teamspawn",
    "team": "2",
    "targetname": "spawn_red2",
    "hx": 2008.0,
    "hy": 2032.0,
    "hz": 152.0
   }
  },
  {
   "type": "Feature",
   "geometry": {
    "type": "Point",
    "coordinates": [
     0.0003354117278284265,
     0.00034773297496674006
    ]
   },
   "properties": {
    "classname": "info_player_teamspawn",
    "team": "2",
    "targetname": "spawn_red2",
    "hx": 1960.0,
    "hy": 2032.0,
    "hz": 152.0
   }
  },
  {
   "type": "Feature",
   "geometry": {
    "type": "Point",
    "coordinates": [
     0.00033541172782813807,
     0.0003395188102037462
    ]
   },
   "properties": {
    "classname": "info_player_teamspawn",
    "team": "2",
    "targetname": "spawn_red2",
    "hx": 1960.0,
    "hy": 1984.0,
    "hz": 152.0
   }
  },
  {
   "type": "Feature",
   "geometry": {
    "type": "Point",
    "coordinates": [
     0.0003436258925912762,
     0.0003395188102037462
    ]
   },
   "properties": {
    "classname": "info_player_teamspawn",
    "team": "2",
    "targetname": "spawn_red2",
    "hx": 2008.0,
    "hy": 1984.0,
    "hz": 152.0
   }
  },
  {
   "type": "Feature",
   "geometry": {
    "type": "Point",
    "coordinates": [
     0.00023889529185748632,
     0.00010678414191892016
    ]
   },
   "properties": {
    "classname": "item_healthkit_small",
    "team": "",
    "targetname": "",
    "hx": 1396.0,
    "hy": 624.0,
    "hz": -164.0
   }
  },
  {
   "type": "Feature",
   "geometry": {
    "type": "Point",
    "coordinates": [
     0.0004838656430840367,
     0.00043475691677768313
    ]
   },
   "properties": {
    "classname": "item_ammopack_medium",
    "team": "",
    "targetname": "",
    "hx": 2827.5,
    "hy": 2540.53,
    "hz": 79.0
   }
  },
  {
   "type": "Feature",
   "geometry": {
    "type": "Point",
    "coordinates": [
     0.0004606777404745254,
     0.0004866892622073862
    ]
   },
   "properties": {
    "classname": "team_control_point",
    "team": "",
    "targetname": "cp_four",
    "hx": 2692.0,
    "hy": 2844.0,
    "hz": 40.0
   }
  },
  {
   "type": "Feature",
   "geometry": {
    "type": "Point",
    "coordinates": [
     0.00035731616721153557,
     0.0006256455494480322
    ]
   },
   "properties": {
    "classname": "info_player_teamspawn",
    "team": "2",
    "targetname": "spawn_red4a",
    "hx": 2088.0,
    "hy": 3656.0,
    "hz": 232.0
   }
  },
  {
   "type": "Feature",
   "geometry": {
    "type": "Point",
    "coordinates": [
     0.0003655303319755951,
     0.0006338597142110261
    ]
   },
   "properties": {
    "classname": "info_player_teamspawn",
    "team": "2",
    "targetname": "spawn_red4a",
    "hx": 2136.0,
    "hy": 3704.0,
    "hz": 232.0
   }
  },
  {
   "type": "Feature",
   "geometry": {
    "type": "Point",
    "coordinates": [
     0.0003408878376845684,
     0.0006256455494480322
    ]
   },
   "properties": {
    "classname": "info_player_teamspawn",
    "team": "2",
    "targetname": "spawn_red4a",
    "hx": 1992.0,
    "hy": 3656.0,
    "hz": 232.0
   }
  },
  {
   "type": "Feature",
   "geometry": {
    "type": "Point",
    "coordinates": [
     0.00033267367292056743,
     0.0006174313846850384
    ]
   },
   "properties": {
    "classname": "info_player_teamspawn",
    "team": "2",
    "targetname": "spawn_red4a",
    "hx": 1944.0,
    "hy": 3608.0,
    "hz": 232.0
   }
  },
  {
   "type": "Feature",
   "geometry": {
    "type": "Point",
    "coordinates": [
     0.0003655303319767696,
     0.0006502880437370139
    ]
   },
   "properties": {
    "classname": "info_player_teamspawn",
    "team": "2",
    "targetname": "spawn_red4a",
    "hx": 2136.0,
    "hy": 3800.0,
    "hz": 232.0
   }
  },
  {
   "type": "Feature",
   "geometry": {
    "type": "Point",
    "coordinates": [
     0.0003737444967409045,
     0.0006585022085000077
    ]
   },
   "properties": {
    "classname": "info_player_teamspawn",
    "team": "2",
    "targetname": "spawn_red4a",
    "hx": 2184.0,
    "hy": 3848.0,
    "hz": 232.0
   }
  },
  {
   "type": "Feature",
   "geometry": {
    "type": "Point",
    "coordinates": [
     0.00037374449673968825,
     0.0006420738789740199
    ]
   },
   "properties": {
    "classname": "info_player_teamspawn",
    "team": "2",
    "targetname": "spawn_red4a",
    "hx": 2184.0,
    "hy": 3752.0,
    "hz": 232.0
   }
  },
  {
   "type": "Feature",
   "geometry": {
    "type": "Point",
    "coordinates": [
     0.00034910200244750905,
     0.0006174313846850384
    ]
   },
   "properties": {
    "classname": "info_player_teamspawn",
    "team": "2",
    "targetname": "spawn_red4a",
    "hx": 2040.0,
    "hy": 3608.0,
    "hz": 232.0
   }
  },
  {
   "type": "Feature",
   "geometry": {
    "type": "Point",
    "coordinates": [
     0.00038195866150381543,
     0.0006502880437370139
    ]
   },
   "properties": {
    "classname": "info_player_teamspawn",
    "team": "2",
    "targetname": "spawn_red4a",
    "hx": 2232.0,
    "hy": 3800.0,
    "hz": 232.0
   }
  },
  {
   "type": "Feature",
   "geometry": {
    "type": "Point",
    "coordinates": [
     0.0003408878376835151,
     0.0006092172199220444
    ]
   },
   "properties": {
    "classname": "info_player_teamspawn",
    "team": "2",
    "targetname": "spawn_red4a",
    "hx": 1992.0,
    "hy": 3560.0,
    "hz": 232.0
   }
  },
  {
   "type": "Feature",
   "geometry": {
    "type": "Point",
    "coordinates": [
     0.0006612402634484062,
     0.0005215994624501101
    ]
   },
   "properties": {
    "classname": "item_ammopack_full",
    "team": "",
    "targetname": "",
    "hx": 3864.0,
    "hy": 3048.0,
    "hz": 16.0
   }
  },
  {
   "type": "Feature",
   "geometry": {
    "type": "Point",
    "coordinates": [
     0.0005476109842041083,
     0.000232734668284826
    ]
   },
   "properties": {
    "classname": "item_ammopack_medium",
    "team": "",
    "targetname": "",
    "hx": 3200.0,
    "hy": 1360.0,
    "hz": 192.0
   }
  },
  {
   "type": "Feature",
   "geometry": {
    "type": "Point",
    "coordinates": [
     0.0005955269453655315,
     0.0007310606639064534
    ]
   },
   "properties": {
    "classname": "item_ammopack_small",
    "team": "",
    "targetname": "",
    "hx": 3480.0,
    "hy": 4272.0,
    "hz": -68.0
   }
  },
  {
   "type": "Feature",
   "geometry": {
    "type": "Point",
    "coordinates": [
     0.0006037411101291939,
     0.0007310606639064534
    ]
   },
   "properties": {
    "classname": "item_healthkit_small",
    "team": "",
    "targetname": "",
    "hx": 3528.0,
    "hy": 4272.0,
    "hz": -68.0
   }
  },
  {
   "type": "Feature",
   "geometry": {
    "type": "Point",
    "coordinates": [
     0.00014785496574055005,
     0.0005438461586832184
    ]
   },
   "properties": {
    "classname": "info_player_teamspawn",
    "team": "2",
    "targetname": "spawn_red1",
    "hx": 864.0,
    "hy": 3178.0,
    "hz": 164.0
   }
  },
  {
   "type": "Feature",
   "geometry": {
    "type": "Point",
    "coordinates": [
     0.00016479668056467836,
     0.0005323805537015394
    ]
   },
   "properties": {
    "classname": "info_player_teamspawn",
    "team": "2",
    "targetname": "spawn_red1",
    "hx": 963.0,
    "hy": 3111.0,
    "hz": 164.0
   }
  },
  {
   "type": "Feature",
   "geometry": {
    "type": "Point",
    "coordinates": [
     0.00015641138736890414,
     0.0005380277919760977
    ]
   },
   "properties": {
    "classname": "info_player_teamspawn",
    "team": "2",
    "targetname": "spawn_red1",
    "hx": 914.0,
    "hy": 3144.0,
    "hz": 164.0
   }
  },
  {
   "type": "Feature",
   "geometry": {
    "type": "Point",
    "coordinates": [
     0.000170443918839714,
     0.0005407658468970957
    ]
   },
   "properties": {
    "classname": "info_player_teamspawn",
    "team": "2",
    "targetname": "spawn_red1",
    "hx": 996.0,
    "hy": 3160.0,
    "hz": 164.0
   }
  },
  {
   "type": "Feature",
   "geometry": {
    "type": "Point",
    "coordinates": [
     0.00016205862564393585,
     0.000546413085171654
    ]
   },
   "properties": {
    "classname": "info_player_teamspawn",
    "team": "2",
    "targetname": "spawn_red1",
    "hx": 947.0,
    "hy": 3193.0,
    "hz": 164.0
   }
  },
  {
   "type": "Feature",
   "geometry": {
    "type": "Point",
    "coordinates": [
     0.0001535022040155776,
     0.0005522314518787747
    ]
   },
   "properties": {
    "classname": "info_player_teamspawn",
    "team": "2",
    "targetname": "spawn_red1",
    "hx": 897.0,
    "hy": 3227.0,
    "hz": 164.0
   }
  },
  {
   "type": "Feature",
   "geometry": {
    "type": "Point",
    "coordinates": [
     0.0001451169108197705,
     0.000557878690153333
    ]
   },
   "properties": {
    "classname": "info_player_teamspawn",
    "team": "2",
    "targetname": "spawn_red1",
    "hx": 848.0,
    "hy": 3260.0,
    "hz": 164.0
   }
  },
  {
   "type": "Feature",
   "geometry": {
    "type": "Point",
    "coordinates": [
     0.0001817383953898435,
     0.0005575364332882081
    ]
   },
   "properties": {
    "classname": "info_player_teamspawn",
    "team": "2",
    "targetname": "spawn_red1",
    "hx": 1062.0,
    "hy": 3258.0,
    "hz": 164.0
   }
  },
  {
   "type": "Feature",
   "geometry": {
    "type": "Point",
    "coordinates": [
     0.00017335310219405737,
     0.0005631836715627664
    ]
   },
   "properties": {
    "classname": "info_player_teamspawn",
    "team": "2",
    "targetname": "spawn_red1",
    "hx": 1013.0,
    "hy": 3291.0,
    "hz": 164.0
   }
  },
  {
   "type": "Feature",
   "geometry": {
    "type": "Point",
    "coordinates": [
     0.00016479668056569073,
     0.0005690020382698871
    ]
   },
   "properties": {
    "classname": "info_player_teamspawn",
    "team": "2",
    "targetname": "spawn_red1",
    "hx": 963.0,
    "hy": 3325.0,
    "hz": 164.0
   }
  },
  {
   "type": "Feature",
   "geometry": {
    "type": "Point",
    "coordinates": [
     0.00015641138736987488,
     0.0005746492765444454
    ]
   },
   "properties": {
    "classname": "info_player_teamspawn",
    "team": "2",
    "targetname": "spawn_red1",
    "hx": 914.0,
    "hy": 3358.0,
    "hz": 164.0
   }
  },
  {
   "type": "Feature",
   "geometry": {
    "type": "Point",
    "coordinates": [
     0.00015076414909481287,
     0.0005662639833488892
    ]
   },
   "properties": {
    "classname": "info_player_teamspawn",
    "team": "2",
    "targetname": "spawn_red1",
    "hx": 881.0,
    "hy": 3309.0,
    "hz": 164.0
   }
  },
  {
   "type": "Feature",
   "geometry": {
    "type": "Point",
    "coordinates": [
     0.00015914944229062438,
     0.0005606167450743309
    ]
   },
   "properties": {
    "classname": "info_player_teamspawn",
    "team": "2",
    "targetname": "spawn_red1",
    "hx": 930.0,
    "hy": 3276.0,
    "hz": 164.0
   }
  },
  {
   "type": "Feature",
   "geometry": {
    "type": "Point",
    "coordinates": [
     0.0001677058639189868,
     0.0005547983783672102
    ]
   },
   "properties": {
    "classname": "info_player_teamspawn",
    "team": "2",
    "targetname": "spawn_red1",
    "hx": 980.0,
    "hy": 3242.0,
    "hz": 164.0
   }
  },
  {
   "type": "Feature",
   "geometry": {
    "type": "Point",
    "coordinates": [
     0.00017609115711476894,
     0.0005491511400926519
    ]
   },
   "properties": {
    "classname": "info_player_teamspawn",
    "team": "2",
    "targetname": "spawn_red1",
    "hx": 1029.0,
    "hy": 3209.0,
    "hz": 164.0
   }
  },
  {
   "type": "Feature",
   "geometry": {
    "type": "Point",
    "coordinates": [
     0.000357316167212669,
     0.0006420738789740199
    ]
   },
   "properties": {
    "classname": "info_player_teamspawn",
    "team": "2",
    "targetname": "spawn_red4a",
    "hx": 2088.0,
    "hy": 3752.0,
    "hz": 232.0
   }
  },
  {
   "type": "Feature",
   "geometry": {
    "type": "Point",
    "coordinates": [
     0.0003491020024486021,
     0.0006338597142110261
    ]
   },
   "properties": {
    "classname": "info_player_teamspawn",
    "team": "2",
    "targetname": "spawn_red4a",
    "hx": 2040.0,
    "hy": 3704.0,
    "hz": 232.0
   }
  },
  {
   "type": "Feature",
   "geometry": {
    "type": "Point",
    "coordinates": [
     -6.160623572267062e-05,
     0.00015196204811538638
    ]
   },
   "properties": {
    "classname": "item_ammopack_medium",
    "team": "",
    "targetname": "",
    "hx": -360.0,
    "hy": 888.0,
    "hz": -80.0
   }
  },
  {
   "type": "Feature",
   "geometry": {
    "type": "Point",
    "coordinates": [
     -5.339207095964787e-05,
     0.00015196204811538638
    ]
   },
   "properties": {
    "classname": "item_healthkit_medium",
    "team": "",
    "targetname": "",
    "hx": -312.0,
    "hy": 888.0,
    "hz": -80.0
   }
  },
  {
   "type": "Feature",
   "geometry": {
    "type": "Point",
    "coordinates": [
     -0.0002436868879735203,
     0.00035594713972973387
    ]
   },
   "properties": {
    "classname": "item_ammopack_medium",
    "team": "",
    "targetname": "",
    "hx": -1424.0,
    "hy": 2080.0,
    "hz": -160.0
   }
  },
  {
   "type": "Feature",
   "geometry": {
    "type": "Point",
    "coordinates": [
     -0.00023547272321036795,
     0.00035594713972973387
    ]
   },
   "properties": {
    "classname": "item_healthkit_medium",
    "team": "",
    "targetname": "",
    "hx": -1376.0,
    "hy": 2080.0,
    "hz": -160.0
   }
  },
  {
   "type": "Feature",
   "geometry": {
    "type": "Point",
    "coordinates": [
     0.00038606574387159474,
     0.0004302168794618033
    ]
   },
   "properties": {
    "classname": "item_healthkit_full",
    "team": "",
    "targetname": "",
    "hx": 2256.0,
    "hy": 2514.0,
    "hz": 96.0
   }
  },
  {
   "type": "Feature",
   "geometry": {
    "type": "Point",
    "coordinates": [
     0.0003860657438711831,
     0.0004220027146988095
    ]
   },
   "properties": {
    "classname": "item_ammopack_medium",
    "team": "",
    "targetname": "",
    "hx": 2256.0,
    "hy": 2466.0,
    "hz": 96.0
   }
  },
  {
   "type": "Feature",
   "geometry": {
    "type": "Point",
    "coordinates": [
     0.0005421348743622802,
     0.0002382107781268219
    ]
   },
   "properties": {
    "classname": "item_healthkit_medium",
    "team": "",
    "targetname": "",
    "hx": 3168.0,
    "hy": 1392.0,
    "hz": 192.235
   }
  },
  {
   "type": "Feature",
   "geometry": {
    "type": "Point",
    "coordinates": [
     -0.0002710674371801051,
     0.00017797356986486694
    ]
   },
   "properties": {
    "classname": "item_ammopack_full",
    "team": "",
    "targetname": "",
    "hx": -1584.0,
    "hy": 1040.0,
    "hz": -200.0
   }
  },
  {
   "type": "Feature",
   "geometry": {
    "type": "Point",
    "coordinates": [
     -0.00017797356986486694,
     0.0
    ]
   },
   "properties": {
    "classname": "item_ammopack_medium",
    "team": "",
    "targetname": "",
    "hx": -1040.0,
    "hy": 0.0,
    "hz": 48.0
   }
  },
  {
   "type": "Feature",
   "geometry": {
    "type": "Point",
    "coordinates": [
     -0.0001861877346278608,
     0.0
    ]
   },
   "properties": {
    "classname": "item_healthkit_small",
    "team": "",
    "targetname": "",
    "hx": -1088.0,
    "hy": 0.0,
    "hz": 48.0
   }
  },
  {
   "type": "Feature",
   "geometry": {
    "type": "Point",
    "coordinates": [
     0.0006434429064406702,
     0.0002505320252713127
    ]
   },
   "properties": {
    "classname": "item_ammopack_full",
    "team": "",
    "targetname": "",
    "hx": 3760.0,
    "hy": 1464.0,
    "hz": -16.0
   }
  },
  {
   "type": "Feature",
   "geometry": {
    "type": "Point",
    "coordinates": [
     0.0005229684899117132,
     0.00011773636160291199
    ]
   },
   "properties": {
    "classname": "item_ammopack_medium",
    "team": "",
    "targetname": "",
    "hx": 3056.0,
    "hy": 688.0,
    "hz": 32.2106
   }
  },
  {
   "type": "Feature",
   "geometry": {
    "type": "Point",
    "coordinates": [
     0.0006557641536056157,
     0.0005161233526081142
    ]
   },
   "properties": {
    "classname": "item_healthkit_small",
    "team": "",
    "targetname": "",
    "hx": 3832.0,
    "hy": 3016.0,
    "hz": 16.0
   }
  },
  {
   "type": "Feature",
   "geometry": {
    "type": "Point",
    "coordinates": [
     0.0007173703893444197,
     0.0006270145769085312
    ]
   },
   "properties": {
    "classname": "item_healthkit_medium",
    "team": "",
    "targetname": "",
    "hx": 4192.0,
    "hy": 3664.0,
    "hz": -168.0
   }
  },
  {
   "type": "Feature",
   "geometry": {
    "type": "Point",
    "coordinates": [
     -0.00030700440801809277,
     0.0001600187747204229
    ]
   },
   "properties": {
    "classname": "item_healthkit_medium",
    "team": "0",
    "targetname": "",
    "hx": -1794.0,
    "hy": 935.08,
    "hz": -213.0
   }
  },
  {
   "type": "Feature",
   "geometry": {
    "type": "Point",
    "coordinates": [
     0.0006355709985377176,
     0.00010502323034785337
    ]
   },
   "properties": {
    "classname": "item_healthkit_small",
    "team": "0",
    "targetname": "",
    "hx": 3714.0,
    "hy": 613.71,
    "hz": 10.0
   }
  },
  {
   "type": "Feature",
   "geometry": {
    "type": "Point",
    "coordinates": [
     0.0005195459212699643,
     0.00036604371725091386
    ]
   },
   "properties": {
    "classname": "item_healthkit_medium",
    "team": "",
    "targetname": "",
    "hx": 3036.0,
    "hy": 2139.0,
    "hz": -78.7639
   }
  },
  {
   "type": "Feature",
   "geometry": {
    "type": "Point",
    "coordinates": [
     0.0004331055274070492,
     0.000233384956328563
    ]
   },
   "properties": {
    "classname": "item_healthkit_medium",
    "team": "",
    "targetname": "",
    "hx": 2530.88,
    "hy": 1363.8,
    "hz": -79.7438
   }
  },
  {
   "type": "Feature",
   "geometry": {
    "type": "Point",
    "coordinates": [
     0.0004331055274067602,
     0.00022380176410507016
    ]
   },
   "properties": {
    "classname": "item_ammopack_medium",
    "team": "",
    "targetname": "",
    "hx": 2530.88,
    "hy": 1307.8,
    "hz": -79.7438
   }
  },
  {
   "type": "Feature",
   "geometry": {
    "type": "Point",
    "coordinates": [
     0.00013946967254474724,
     0.0005494933969577767
    ]
   },
   "properties": {
    "classname": "info_player_teamspawn",
    "team": "2",
    "targetname": "spawn_red1",
    "hx": 815.0,
    "hy": 3211.0,
    "hz": 164.0
   }
  },
  {
   "type": "Feature",
   "geometry": {
    "type": "Point",
    "coordinates": [
     -0.0007120003790915482,
     -0.0001894391748465459
    ]
   },
   "properties": {
    "classname": "info_player_teamspawn",
    "team": "3",
    "targetname": "spawn_blu1",
    "hx": -4160.62,
    "hy": -1107.0,
    "hz": -92.0
   }
  },
  {
   "type": "Feature",
   "geometry": {
    "type": "Point",
    "coordinates": [
     -0.0007219908569842524,
     -0.00018105388165098966
    ]
   },
   "properties": {
    "classname": "info_player_teamspawn",
    "team": "3",
    "targetname": "spawn_blu1",
    "hx": -4219.0,
    "hy": -1058.0,
    "hz": -92.0
   }
  },
  {
   "type": "Feature",
   "geometry": {
    "type": "Point",
    "coordinates": [
     -0.0007310606639096493,
     -0.00016941714823674834
    ]
   },
   "properties": {
    "classname": "info_player_teamspawn",
    "team": "3",
    "targetname": "spawn_blu1",
    "hx": -4272.0,
    "hy": -990.0,
    "hz": -92.0
   }
  },
  {
   "type": "Feature",
   "geometry": {
    "type": "Point",
    "coordinates": [
     -0.0007156591049792002,
     -0.00017557777180899373
    ]
   },
   "properties": {
    "classname": "info_player_teamspawn",
    "team": "3",
    "targetname": "spawn_blu1",
    "hx": -4182.0,
    "hy": -1026.0,
    "hz": -92.0
   }
  },
  {
   "type": "Feature",
   "geometry": {
    "type": "Point",
    "coordinates": [
     -0.000705668627086486,
     -0.00018396306500454996
    ]
   },
   "properties": {
    "classname": "info_player_teamspawn",
    "team": "3",
    "targetname": "spawn_blu1",
    "hx": -4123.62,
    "hy": -1075.0,
    "hz": -92.0
   }
  },
  {
   "type": "Feature",
   "geometry": {
    "type": "Point",
    "coordinates": [
     -0.0007247289119046124,
     -0.00016394103839475243
    ]
   },
   "properties": {
    "classname": "info_player_teamspawn",
    "team": "3",
    "targetname": "spawn_blu1",
    "hx": -4235.0,
    "hy": -958.0,
    "hz": -92.0
   }
  },
  {
   "type": "Feature",
   "geometry": {
    "type": "Point",
    "coordinates": [
     -0.0007076160686484893,
     -0.0001690748913716236
    ]
   },
   "properties": {
    "classname": "info_player_teamspawn",
    "team": "3",
    "targetname": "spawn_blu1",
    "hx": -4135.0,
    "hy": -988.0,
    "hz": -92.0
   }
  },
  {
   "type": "Feature",
   "geometry": {
    "type": "Point",
    "coordinates": [
     -0.0006976255907557633,
     -0.00017746018456717984
    ]
   },
   "properties": {
    "classname": "info_player_teamspawn",
    "team": "3",
    "targetname": "spawn_blu1",
    "hx": -4076.62,
    "hy": -1037.0,
    "hz": -92.0
   }
  },
  {
   "type": "Feature",
   "geometry": {
    "type": "Point",
    "coordinates": [
     -0.0007166858755739199,
     -0.0001574381579573823
    ]
   },
   "properties": {
    "classname": "info_player_teamspawn",
    "team": "3",
    "targetname": "spawn_blu1",
    "hx": -4188.0,
    "hy": -920.0,
    "hz": -92.0
   }
  },
  {
   "type": "Feature",
   "geometry": {
    "type": "Point",
    "coordinates": [
     -0.0007000864176155121,
     -0.0001634276530970653
    ]
   },
   "properties": {
    "classname": "info_player_teamspawn",
    "team": "3",
    "targetname": "spawn_blu1",
    "hx": -4091.0,
    "hy": -955.0,
    "hz": -92.0
   }
  },
  {
   "type": "Feature",
   "geometry": {
    "type": "Point",
    "coordinates": [
     -0.0006900959397227755,
     -0.00017181294629262155
    ]
   },
   "properties": {
    "classname": "info_player_teamspawn",
    "team": "3",
    "targetname": "spawn_blu1",
    "hx": -4032.62,
    "hy": -1004.0,
    "hz": -92.0
   }
  },
  {
   "type": "Feature",
   "geometry": {
    "type": "Point",
    "coordinates": [
     -0.0007091562245409585,
     -0.00015179091968282402
    ]
   },
   "properties": {
    "classname": "info_player_teamspawn",
    "team": "3",
    "targetname": "spawn_blu1",
    "hx": -4144.0,
    "hy": -887.0,
    "hz": -92.0
   }
  },
  {
   "type": "Feature",
   "geometry": {
    "type": "Point",
    "coordinates": [
     -0.000693583537177839,
     -0.00015521417284780173
    ]
   },
   "properties": {
    "classname": "info_player_teamspawn",
    "team": "3",
    "targetname": "spawn_blu1",
    "hx": -4053.0,
    "hy": -907.004,
    "hz": -92.0
   }
  },
  {
   "type": "Feature",
   "geometry": {
    "type": "Point",
    "coordinates": [
     -0.0006835930592850893,
     -0.00016359878152962768
    ]
   },
   "properties": {
    "classname": "info_player_teamspawn",
    "team": "3",
    "targetname": "spawn_blu1",
    "hx": -3994.62,
    "hy": -956.0,
    "hz": -92.0
   }
  },
  {
   "type": "Feature",
   "geometry": {
    "type": "Point",
    "coordinates": [
     -0.0007026533441033058,
     -0.0001435774394335604
    ]
   },
   "properties": {
    "classname": "info_player_teamspawn",
    "team": "3",
    "targetname": "spawn_blu1",
    "hx": -4106.0,
    "hy": -839.004,
    "hz": -92.0
   }
  },
  {
   "type": "Feature",
   "geometry": {
    "type": "Point",
    "coordinates": [
     0.0003436258925906949,
     0.0003227482238126337
    ]
   },
   "properties": {
    "classname": "info_player_teamspawn",
    "team": "2",
    "targetname": "spawn_red2",
    "hx": 2008.0,
    "hy": 1886.0,
    "hz": 152.0
   }
  },
  {
   "type": "Feature",
   "geometry": {
    "type": "Point",
    "coordinates": [
     0.0003436258925909759,
     0.0003309623885756276
    ]
   },
   "properties": {
    "classname": "info_player_teamspawn",
    "team": "2",
    "targetname": "spawn_red2",
    "hx": 2008.0,
    "hy": 1934.0,
    "hz": 152.0
   }
  },
  {
   "type": "Feature",
   "geometry": {
    "type": "Point",
    "coordinates": [
     0.000335411727827845,
     0.0003309623885756276
    ]
   },
   "properties": {
    "classname": "info_player_teamspawn",
    "team": "2",
    "targetname": "spawn_red2",
    "hx": 1960.0,
    "hy": 1934.0,
    "hz": 152.0
   }
  },
  {
   "type": "Feature",
   "geometry": {
    "type": "Point",
    "coordinates": [
     0.0003354117278275707,
     0.0003227482238126337
    ]
   },
   "properties": {
    "classname": "info_player_teamspawn",
    "team": "2",
    "targetname": "spawn_red2",
    "hx": 1960.0,
    "hy": 1886.0,
    "hz": 152.0
   }
  },
  {
   "type": "Feature",
   "geometry": {
    "type": "Point",
    "coordinates": [
     0.00032719756306471415,
     0.0003309623885756276
    ]
   },
   "properties": {
    "classname": "info_player_teamspawn",
    "team": "2",
    "targetname": "spawn_red2",
    "hx": 1912.0,
    "hy": 1934.0,
    "hz": 152.0
   }
  },
  {
   "type": "Feature",
   "geometry": {
    "type": "Point",
    "coordinates": [
     0.0003271975630644465,
     0.0003227482238126337
    ]
   },
   "properties": {
    "classname": "info_player_teamspawn",
    "team": "2",
    "targetname": "spawn_red2",
    "hx": 1912.0,
    "hy": 1886.0,
    "hz": 152.0
   }
  },
  {
   "type": "Feature",
   "geometry": {
    "type": "Point",
    "coordinates": [
     0.00031898339830158324,
     0.0003309623885756276
    ]
   },
   "properties": {
    "classname": "info_player_teamspawn",
    "team": "2",
    "targetname": "spawn_red2",
    "hx": 1864.0,
    "hy": 1934.0,
    "hz": 152.0
   }
  },
  {
   "type": "Feature",
   "geometry": {
    "type": "Point",
    "coordinates": [
     0.0003189833983013223,
     0.0003227482238126337
    ]
   },
   "properties": {
    "classname": "info_player_teamspawn",
    "team": "2",
    "targetname": "spawn_red2",
    "hx": 1864.0,
    "hy": 1886.0,
    "hz": 152.0
   }
  },
  {
   "type": "Feature",
   "geometry": {
    "type": "Point",
    "coordinates": [
     0.0001317688930730406,
     2.652490704716767e-05
    ]
   },
   "properties": {
    "classname": "item_healthkit_medium",
    "team": "0",
    "targetname": "",
    "hx": 770.0,
    "hy": 155.0,
    "hz": -186.0
   }
  },
  {
   "type": "Feature",
   "geometry": {
    "type": "Point",
    "coordinates": [
     0.00045229244727596586,
     0.0004445916677970426
    ]
   },
   "properties": {
    "classname": "item_healthkit_small",
    "team": "0",
    "targetname": "",
    "hx": 2643.0,
    "hy": 2598.0,
    "hz": 329.0
   }
  }
 ]
}
