{
 "type": "FeatureCollection",
 "note": "pseudo-WGS84 via crs.local_to_wgs84 ((0,0)m maps to (0,0)deg); viewing only, not survey",
 "features": [
  {
   "type": "Feature",
   "geometry": {
    "type": "Point",
    "coordinates": [
     0.00017523551494571304,
     -0.0002628532724158035
    ]
   },
   "properties": {
    "classname": "team_control_point",
    "team": "",
    "targetname": "cap_1",
    "hx": 1024.0,
    "hy": -1536.0,
    "hz": 136.0
   }
  },
  {
   "type": "Feature",
   "geometry": {
    "type": "Point",
    "coordinates": [
     0.00026285327241719136,
     0.0001861877346278608
    ]
   },
   "properties": {
    "classname": "team_control_point",
    "team": "",
    "targetname": "cap_2",
    "hx": 1536.0,
    "hy": 1088.0,
    "hz": 264.0
   }
  },
  {
   "type": "Feature",
   "geometry": {
    "type": "Point",
    "coordinates": [
     -0.00017523551494417333,
     0.00010678414191892016
    ]
   },
   "properties": {
    "classname": "team_control_point",
    "team": "",
    "targetname": "cap_3",
    "hx": -1024.0,
    "hy": 624.0,
    "hz": 516.0
   }
  },
  {
   "type": "Feature",
   "geometry": {
    "type": "Point",
    "coordinates": [
     8.761775747199212e-05,
     -6.571331810395088e-05
    ]
   },
   "properties": {
    "classname": "team_control_point",
    "team": "",
    "targetname": "cap_4",
    "hx": 512.0,
    "hy": -384.0,
    "hz": 476.0
   }
  },
  {
   "type": "Feature",
   "geometry": {
    "type": "Point",
    "coordinates": [
     2.7380549210037337e-05,
     0.00011773636160291199
    ]
   },
   "properties": {
    "classname": "info_player_teamspawn",
    "team": "2",
    "targetname": "spawn_red_3",
    "hx": 160.0,
    "hy": 688.0,
    "hz": 593.0
   }
  },
  {
   "type": "Feature",
   "geometry": {
    "type": "Point",
    "coordinates": [
     3.8332768894052274e-05,
     0.00011773636160291199
    ]
   },
   "properties": {
    "classname": "info_player_teamspawn",
    "team": "2",
    "targetname": "spawn_red_3",
    "hx": 224.0,
    "hy": 688.0,
    "hz": 593.0
   }
  },
  {
   "type": "Feature",
   "geometry": {
    "type": "Point",
    "coordinates": [
     3.8332768894037915e-05,
     0.00010678414191892016
    ]
   },
   "properties": {
    "classname": "info_player_teamspawn",
    "team": "2",
    "targetname": "spawn_red_3",
    "hx": 224.0,
    "hy": 624.0,
    "hz": 593.0
   }
  },
  {
   "type": "Feature",
   "geometry": {
    "type": "Point",
    "coordinates": [
     2.738054921002708e-05,
     0.00010678414191892016
    ]
   },
   "properties": {
    "classname": "info_player_teamspawn",
    "team": "2",
    "targetname": "spawn_red_3",
    "hx": 160.0,
    "hy": 624.0,
    "hz": 593.0
   }
  },
  {
   "type": "Feature",
   "geometry": {
    "type": "Point",
    "coordinates": [
     1.642832952601625e-05,
     0.00010678414191892016
    ]
   },
   "properties": {
    "classname": "info_player_teamspawn",
    "team": "2",
    "targetname": "spawn_red_3",
    "hx": 96.0,
    "hy": 624.0,
    "hz": 593.0
   }
  },
  {
   "type": "Feature",
   "geometry": {
    "type": "Point",
    "coordinates": [
     1.64283295260107e-05,
     9.583192223492836e-05
    ]
   },
   "properties": {
    "classname": "info_player_teamspawn",
    "team": "2",
    "targetname": "spawn_red_3",
    "hx": 96.0,
    "hy": 560.0,
    "hz": 593.0
   }
  },
  {
   "type": "Feature",
   "geometry": {
    "type": "Point",
    "coordinates": [
     2.738054921001783e-05,
     9.583192223492836e-05
    ]
   },
   "properties": {
    "classname": "info_player_teamspawn",
    "team": "2",
    "targetname": "spawn_red_3",
    "hx": 160.0,
    "hy": 560.0,
    "hz": 593.0
   }
  },
  {
   "type": "Feature",
   "geometry": {
    "type": "Point",
    "coordinates": [
     3.833276889402496e-05,
     9.583192223492836e-05
    ]
   },
   "properties": {
    "classname": "info_player_teamspawn",
    "team": "2",
    "targetname": "spawn_red_3",
    "hx": 224.0,
    "hy": 560.0,
    "hz": 593.0
   }
  },
  {
   "type": "Feature",
   "geometry": {
    "type": "Point",
    "coordinates": [
     4.928498857806721e-05,
     0.00011773636160291199
    ]
   },
   "properties": {
    "classname": "info_player_teamspawn",
    "team": "2",
    "targetname": "spawn_red_3",
    "hx": 288.0,
    "hy": 688.0,
    "hz": 593.0
   }
  },
  {
   "type": "Feature",
   "geometry": {
    "type": "Point",
    "coordinates": [
     4.928498857804875e-05,
     0.00010678414191892016
    ]
   },
   "properties": {
    "classname": "info_player_teamspawn",
    "team": "2",
    "targetname": "spawn_red_3",
    "hx": 288.0,
    "hy": 624.0,
    "hz": 593.0
   }
  },
  {
   "type": "Feature",
   "geometry": {
    "type": "Point",
    "coordinates": [
     4.9284988578032096e-05,
     9.583192223492836e-05
    ]
   },
   "properties": {
    "classname": "info_player_teamspawn",
    "team": "2",
    "targetname": "spawn_red_3",
    "hx": 288.0,
    "hy": 560.0,
    "hz": 593.0
   }
  },
  {
   "type": "Feature",
   "geometry": {
    "type": "Point",
    "coordinates": [
     0.00017249746002320215,
     -0.00011226025176091607
    ]
   },
   "properties": {
    "classname": "info_player_teamspawn",
    "team": "3",
    "targetname": "spawn_blueB",
    "hx": 1008.0,
    "hy": -656.0,
    "hz": 0.0
   }
  },
  {
   "type": "Feature",
   "geometry": {
    "type": "Point",
    "coordinates": [
     0.00017249746002314067,
     -0.00010130803207692427
    ]
   },
   "properties": {
    "classname": "info_player_teamspawn",
    "team": "3",
    "targetname": "spawn_blueB",
    "hx": 1008.0,
    "hy": -592.0,
    "hz": 0.0
   }
  },
  {
   "type": "Feature",
   "geometry": {
    "type": "Point",
    "coordinates": [
     0.00017249746002308551,
     -9.035581239293245e-05
    ]
   },
   "properties": {
    "classname": "info_player_teamspawn",
    "team": "3",
    "targetname": "spawn_blueB",
    "hx": 1008.0,
    "hy": -528.0,
    "hz": 0.0
   }
  },
  {
   "type": "Feature",
   "geometry": {
    "type": "Point",
    "coordinates": [
     0.0001724974600230367,
     -7.940359270894063e-05
    ]
   },
   "properties": {
    "classname": "info_player_teamspawn",
    "team": "3",
    "targetname": "spawn_blueB",
    "hx": 1008.0,
    "hy": -464.0,
    "hz": 0.0
   }
  },
  {
   "type": "Feature",
   "geometry": {
    "type": "Point",
    "coordinates": [
     0.00019440189939122783,
     -0.00011226025176091607
    ]
   },
   "properties": {
    "classname": "info_player_teamspawn",
    "team": "3",
    "targetname": "spawn_blueB",
    "hx": 1136.0,
    "hy": -656.0,
    "hz": 0.0
   }
  },
  {
   "type": "Feature",
   "geometry": {
    "type": "Point",
    "coordinates": [
     0.00018344967970701558,
     -7.392748286694472e-05
    ]
   },
   "properties": {
    "classname": "info_player_teamspawn",
    "team": "3",
    "targetname": "spawn_blueB",
    "hx": 1072.0,
    "hy": -432.0,
    "hz": 0.0
   }
  },
  {
   "type": "Feature",
   "geometry": {
    "type": "Point",
    "coordinates": [
     0.00018344967970718146,
     -0.00010678414191892016
    ]
   },
   "properties": {
    "classname": "info_player_teamspawn",
    "team": "3",
    "targetname": "spawn_blueB",
    "hx": 1072.0,
    "hy": -624.0,
    "hz": 0.0
   }
  },
  {
   "type": "Feature",
   "geometry": {
    "type": "Point",
    "coordinates": [
     0.00018344967970711944,
     -9.583192223492836e-05
    ]
   },
   "properties": {
    "classname": "info_player_teamspawn",
    "team": "3",
    "targetname": "spawn_blueB",
    "hx": 1072.0,
    "hy": -560.0,
    "hz": 0.0
   }
  },
  {
   "type": "Feature",
   "geometry": {
    "type": "Point",
    "coordinates": [
     0.00018344967970706418,
     -8.487970255093655e-05
    ]
   },
   "properties": {
    "classname": "info_player_teamspawn",
    "team": "3",
    "targetname": "spawn_blueB",
    "hx": 1072.0,
    "hy": -496.0,
    "hz": 0.0
   }
  },
  {
   "type": "Feature",
   "geometry": {
    "type": "Point",
    "coordinates": [
     0.00019440189939115855,
     -0.00010130803207692427
    ]
   },
   "properties": {
    "classname": "info_player_teamspawn",
    "team": "3",
    "targetname": "spawn_blueB",
    "hx": 1136.0,
    "hy": -592.0,
    "hz": 0.0
   }
  },
  {
   "type": "Feature",
   "geometry": {
    "type": "Point",
    "coordinates": [
     0.0001944018993910964,
     -9.035581239293245e-05
    ]
   },
   "properties": {
    "classname": "info_player_teamspawn",
    "team": "3",
    "targetname": "spawn_blueB",
    "hx": 1136.0,
    "hy": -528.0,
    "hz": 0.0
   }
  },
  {
   "type": "Feature",
   "geometry": {
    "type": "Point",
    "coordinates": [
     0.00019440189939104135,
     -7.940359270894063e-05
    ]
   },
   "properties": {
    "classname": "info_player_teamspawn",
    "team": "3",
    "targetname": "spawn_blueB",
    "hx": 1136.0,
    "hy": -464.0,
    "hz": 0.0
   }
  },
  {
   "type": "Feature",
   "geometry": {
    "type": "Point",
    "coordinates": [
     0.0004709454464125965,
     -0.00011499830668191402
    ]
   },
   "properties": {
    "classname": "item_healthkit_medium",
    "team": "",
    "targetname": "",
    "hx": 2752.0,
    "hy": -672.0,
    "hz": 33.2361
   }
  },
  {
   "type": "Feature",
   "geometry": {
    "type": "Point",
    "coordinates": [
     0.0004709454464122695,
     -9.30938673139304e-05
    ]
   },
   "properties": {
    "classname": "item_ammopack_medium",
    "team": "",
    "targetname": "",
    "hx": 2752.0,
    "hy": -544.0,
    "hz": 33.2562
   }
  },
  {
   "type": "Feature",
   "geometry": {
    "type": "Point",
    "coordinates": [
     5.476109842043234e-05,
     -0.0002382107781268219
    ]
   },
   "properties": {
    "classname": "item_ammopack_medium",
    "team": "",
    "targetname": "",
    "hx": 320.0,
    "hy": -1392.0,
    "hz": 321.256
   }
  },
  {
   "type": "Feature",
   "geometry": {
    "type": "Point",
    "coordinates": [
     0.0001752355149477908,
     -0.0003833276889397134
    ]
   },
   "properties": {
    "classname": "item_ammopack_medium",
    "team": "",
    "targetname": "",
    "hx": 1024.0,
    "hy": -2240.0,
    "hz": 289.256
   }
  },
  {
   "type": "Feature",
   "geometry": {
    "type": "Point",
    "coordinates": [
     0.00017523551494675035,
     -0.0003285665905197544
    ]
   },
   "properties": {
    "classname": "item_healthkit_medium",
    "team": "",
    "targetname": "",
    "hx": 1024.0,
    "hy": -1920.0,
    "hz": 137.236
   }
  },
  {
   "type": "Feature",
   "geometry": {
    "type": "Point",
    "coordinates": [
     2.1904439368228763e-05,
     -0.00027106743717879734
    ]
   },
   "properties": {
    "classname": "item_healthkit_small",
    "team": "",
    "targetname": "",
    "hx": 128.0,
    "hy": -1584.0,
    "hz": 321.235
   }
  },
  {
   "type": "Feature",
   "geometry": {
    "type": "Point",
    "coordinates": [
     0.00029844798638897313,
     -6.571331810395088e-05
    ]
   },
   "properties": {
    "classname": "item_healthkit_small",
    "team": "",
    "targetname": "",
    "hx": 1744.0,
    "hy": -384.0,
    "hz": 65.2352
   }
  },
  {
   "type": "Feature",
   "geometry": {
    "type": "Point",
    "coordinates": [
     0.0002519010527318301,
     2.1904439367983625e-05
    ]
   },
   "properties": {
    "classname": "item_healthkit_small",
    "team": "",
    "targetname": "",
    "hx": 1472.0,
    "hy": 128.0,
    "hz": 433.235
   }
  },
  {
   "type": "Feature",
   "geometry": {
    "type": "Point",
    "coordinates": [
     0.0002519010527318163,
     1.0952219683991812e-05
    ]
   },
   "properties": {
    "classname": "item_ammopack_medium",
    "team": "",
    "targetname": "",
    "hx": 1472.0,
    "hy": 64.0,
    "hz": 433.261
   }
  },
  {
   "type": "Feature",
   "geometry": {
    "type": "Point",
    "coordinates": [
     -0.000235472723205921,
     5.2023043498961106e-05
    ]
   },
   "properties": {
    "classname": "item_ammopack_medium",
    "team": "",
    "targetname": "",
    "hx": -1376.0,
    "hy": 304.0,
    "hz": 385.256
   }
  },
  {
   "type": "Feature",
   "geometry": {
    "type": "Point",
    "coordinates": [
     -0.00019166384447075316,
     0.000175235514943869
    ]
   },
   "properties": {
    "classname": "item_healthkit_medium",
    "team": "",
    "targetname": "",
    "hx": -1120.0,
    "hy": 1024.0,
    "hz": 153.236
   }
  },
  {
   "type": "Feature",
   "geometry": {
    "type": "Point",
    "coordinates": [
     -3.0118604130982438e-05,
     3.285665905197544e-05
    ]
   },
   "properties": {
    "classname": "item_healthkit_small",
    "team": "",
    "targetname": "",
    "hx": -176.0,
    "hy": 192.0,
    "hz": 577.235
   }
  },
  {
   "type": "Feature",
   "geometry": {
    "type": "Point",
    "coordinates": [
     -3.285665905199705e-05,
     6.571331810395088e-05
    ]
   },
   "properties": {
    "classname": "item_ammopack_medium",
    "team": "",
    "targetname": "",
    "hx": -192.0,
    "hy": 384.0,
    "hz": 577.261
   }
  },
  {
   "type": "Feature",
   "geometry": {
    "type": "Point",
    "coordinates": [
     6.023720826248762e-05,
     -0.00024094883304781988
    ]
   },
   "properties": {
    "classname": "item_ammopack_medium",
    "team": "",
    "targetname": "",
    "hx": 352.0,
    "hy": -1408.0,
    "hz": 545.256
   }
  },
  {
   "type": "Feature",
   "geometry": {
    "type": "Point",
    "coordinates": [
     0.00030118604131307774,
     0.0002683293822577994
    ]
   },
   "properties": {
    "classname": "item_ammopack_medium",
    "team": "",
    "targetname": "",
    "hx": 1760.0,
    "hy": 1568.0,
    "hz": 417.256
   }
  },
  {
   "type": "Feature",
   "geometry": {
    "type": "Point",
    "coordinates": [
     0.00032582853560232954,
     0.0002683293822577994
    ]
   },
   "properties": {
    "classname": "item_healthkit_medium",
    "team": "",
    "targetname": "",
    "hx": 1904.0,
    "hy": 1568.0,
    "hz": 417.236
   }
  },
  {
   "type": "Feature",
   "geometry": {
    "type": "Point",
    "coordinates": [
     -0.00043261267752124557,
     -0.000232734668284826
    ]
   },
   "properties": {
    "classname": "info_player_teamspawn",
    "team": "3",
    "targetname": "spawn_blueA",
    "hx": -2528.0,
    "hy": -1360.0,
    "hz": 17.0
   }
  },
  {
   "type": "Feature",
   "geometry": {
    "type": "Point",
    "coordinates": [
     -0.00043261267752091754,
     -0.0002217824486008342
    ]
   },
   "properties": {
    "classname": "info_player_teamspawn",
    "team": "3",
    "targetname": "spawn_blueA",
    "hx": -2528.0,
    "hy": -1296.0,
    "hz": 17.0
   }
  },
  {
   "type": "Feature",
   "geometry": {
    "type": "Point",
    "coordinates": [
     -0.0004326126775206054,
     -0.00021083022891684236
    ]
   },
   "properties": {
    "classname": "info_player_teamspawn",
    "team": "3",
    "targetname": "spawn_blueA",
    "hx": -2528.0,
    "hy": -1232.0,
    "hz": 17.0
   }
  },
  {
   "type": "Feature",
   "geometry": {
    "type": "Point",
    "coordinates": [
     -0.000432612677520309,
     -0.00019987800923285058
    ]
   },
   "properties": {
    "classname": "info_player_teamspawn",
    "team": "3",
    "targetname": "spawn_blueA",
    "hx": -2528.0,
    "hy": -1168.0,
    "hz": 17.0
   }
  },
  {
   "type": "Feature",
   "geometry": {
    "type": "Point",
    "coordinates": [
     -0.00042166045783625054,
     -0.00019987800923285058
    ]
   },
   "properties": {
    "classname": "info_player_teamspawn",
    "team": "3",
    "targetname": "spawn_blueA",
    "hx": -2464.0,
    "hy": -1168.0,
    "hz": 17.0
   }
  },
  {
   "type": "Feature",
   "geometry": {
    "type": "Point",
    "coordinates": [
     -0.00042166045783653943,
     -0.00021083022891684236
    ]
   },
   "properties": {
    "classname": "info_player_teamspawn",
    "team": "3",
    "targetname": "spawn_blueA",
    "hx": -2464.0,
    "hy": -1232.0,
    "hz": 17.0
   }
  },
  {
   "type": "Feature",
   "geometry": {
    "type": "Point",
    "coordinates": [
     -0.00042166045783684366,
     -0.0002217824486008342
    ]
   },
   "properties": {
    "classname": "info_player_teamspawn",
    "team": "3",
    "targetname": "spawn_blueA",
    "hx": -2464.0,
    "hy": -1296.0,
    "hz": 17.0
   }
  },
  {
   "type": "Feature",
   "geometry": {
    "type": "Point",
    "coordinates": [
     -0.0004216604578371634,
     -0.000232734668284826
    ]
   },
   "properties": {
    "classname": "info_player_teamspawn",
    "team": "3",
    "targetname": "spawn_blueA",
    "hx": -2464.0,
    "hy": -1360.0,
    "hz": 17.0
   }
  },
  {
   "type": "Feature",
   "geometry": {
    "type": "Point",
    "coordinates": [
     -0.00043261267752354554,
     -0.00029844798638877683
    ]
   },
   "properties": {
    "classname": "info_player_teamspawn",
    "team": "3",
    "targetname": "spawn_blueA",
    "hx": -2528.0,
    "hy": -1744.0,
    "hz": 17.0
   }
  },
  {
   "type": "Feature",
   "geometry": {
    "type": "Point",
    "coordinates": [
     -0.000443564897207686,
     -0.00029844798638877683
    ]
   },
   "properties": {
    "classname": "info_player_teamspawn",
    "team": "3",
    "targetname": "spawn_blueA",
    "hx": -2592.0,
    "hy": -1744.0,
    "hz": 17.0
   }
  },
  {
   "type": "Feature",
   "geometry": {
    "type": "Point",
    "coordinates": [
     -0.00044356489720725236,
     -0.0002874957667047851
    ]
   },
   "properties": {
    "classname": "info_player_teamspawn",
    "team": "3",
    "targetname": "spawn_blueA",
    "hx": -2592.0,
    "hy": -1680.0,
    "hz": 17.0
   }
  },
  {
   "type": "Feature",
   "geometry": {
    "type": "Point",
    "coordinates": [
     -0.00044356489720683506,
     -0.00027654354702079327
    ]
   },
   "properties": {
    "classname": "info_player_teamspawn",
    "team": "3",
    "targetname": "spawn_blueA",
    "hx": -2592.0,
    "hy": -1616.0,
    "hz": 17.0
   }
  },
  {
   "type": "Feature",
   "geometry": {
    "type": "Point",
    "coordinates": [
     -0.00044356489720643385,
     -0.0002655913273368014
    ]
   },
   "properties": {
    "classname": "info_player_teamspawn",
    "team": "3",
    "targetname": "spawn_blueA",
    "hx": -2592.0,
    "hy": -1552.0,
    "hz": 17.0
   }
  },
  {
   "type": "Feature",
   "geometry": {
    "type": "Point",
    "coordinates": [
     -0.0004326126775223244,
     -0.0002655913273368014
    ]
   },
   "properties": {
    "classname": "info_player_teamspawn",
    "team": "3",
    "targetname": "spawn_blueA",
    "hx": -2528.0,
    "hy": -1552.0,
    "hz": 17.0
   }
  },
  {
   "type": "Feature",
   "geometry": {
    "type": "Point",
    "coordinates": [
     -0.00043261267752312265,
     -0.0002874957667047851
    ]
   },
   "properties": {
    "classname": "info_player_teamspawn",
    "team": "3",
    "targetname": "spawn_blueA",
    "hx": -2528.0,
    "hy": -1680.0,
    "hz": 17.0
   }
  },
  {
   "type": "Feature",
   "geometry": {
    "type": "Point",
    "coordinates": [
     -0.0004326126775227157,
     -0.00027654354702079327
    ]
   },
   "properties": {
    "classname": "info_player_teamspawn",
    "team": "3",
    "targetname": "spawn_blueA",
    "hx": -2528.0,
    "hy": -1616.0,
    "hz": 17.0
   }
  },
  {
   "type": "Feature",
   "geometry": {
    "type": "Point",
    "coordinates": [
     1.6428329526022405e-05,
     0.00011773636160291199
    ]
   },
   "properties": {
    "classname": "info_player_teamspawn",
    "team": "2",
    "targetname": "spawn_red_3",
    "hx": 96.0,
    "hy": 688.0,
    "hz": 593.0
   }
  },
  {
   "type": "Feature",
   "geometry": {
    "type": "Point",
    "coordinates": [
     -7.118942794596271e-05,
     -3.833276889397134e-05
    ]
   },
   "properties": {
    "classname": "item_ammopack_medium",
    "team": "",
    "targetname": "",
    "hx": -416.0,
    "hy": -224.0,
    "hz": 336.256
   }
  },
  {
   "type": "Feature",
   "geometry": {
    "type": "Point",
    "coordinates": [
     -4.9284988577974186e-05,
     -3.833276889397134e-05
    ]
   },
   "properties": {
    "classname": "item_healthkit_full",
    "team": "",
    "targetname": "",
    "hx": -288.0,
    "hy": -224.0,
    "hz": 336.269
   }
  },
  {
   "type": "Feature",
   "geometry": {
    "type": "Point",
    "coordinates": [
     6.0237208262039226e-05,
     9.583192223492836e-05
    ]
   },
   "properties": {
    "classname": "info_player_teamspawn",
    "team": "2",
    "targetname": "spawn_red_3",
    "hx": 352.0,
    "hy": 560.0,
    "hz": 593.0
   }
  },
  {
   "type": "Feature",
   "geometry": {
    "type": "Point",
    "coordinates": [
     6.023720826205959e-05,
     0.00010678414191892016
    ]
   },
   "properties": {
    "classname": "info_player_teamspawn",
    "team": "2",
    "targetname": "spawn_red_3",
    "hx": 352.0,
    "hy": 624.0,
    "hz": 593.0
   }
  },
  {
   "type": "Feature",
   "geometry": {
    "type": "Point",
    "coordinates": [
     6.0237208262082146e-05,
     0.00011773636160291199
    ]
   },
   "properties": {
    "classname": "info_player_teamspawn",
    "team": "2",
    "targetname": "spawn_red_3",
    "hx": 352.0,
    "hy": 688.0,
    "hz": 593.0
   }
  },
  {
   "type": "Feature",
   "geometry": {
    "type": "Point",
    "coordinates": [
     -3.559471397315584e-05,
     -0.00018344967970686287
    ]
   },
   "properties": {
    "classname": "item_ammopack_medium",
    "team": "",
    "targetname": "",
    "hx": -208.0,
    "hy": -1072.0,
    "hz": 721.256
   }
  },
  {
   "type": "Feature",
   "geometry": {
    "type": "Point",
    "coordinates": [
     -3.5594713973124625e-05,
     -0.00016702135018087513
    ]
   },
   "properties": {
    "classname": "item_healthkit_medium",
    "team": "",
    "targetname": "",
    "hx": -208.0,
    "hy": -976.0,
    "hz": 721.236
   }
  },
  {
   "type": "Feature",
   "geometry": {
    "type": "Point",
    "coordinates": [
     0.00019440189939086265,
     -1.642832952598772e-05
    ]
   },
   "properties": {
    "classname": "item_ammopack_medium",
    "team": "",
    "targetname": "",
    "hx": 1136.0,
    "hy": -96.0,
    "hz": 721.261
   }
  },
  {
   "type": "Feature",
   "geometry": {
    "type": "Point",
    "coordinates": [
     7.86916984295895e-05,
     9.507142748062118e-05
    ]
   },
   "properties": {
    "classname": "item_ammopack_medium",
    "team": "",
    "targetname": "",
    "hx": 459.84,
    "hy": 555.556,
    "hz": 384.211
   }
  },
  {
   "type": "Feature",
   "geometry": {
    "type": "Point",
    "coordinates": [
     9.785722723443874e-05,
     9.507142748062118e-05
    ]
   },
   "properties": {
    "classname": "item_healthkit_small",
    "team": "",
    "targetname": "",
    "hx": 571.835,
    "hy": 555.556,
    "hz": 384.269
   }
  },
  {
   "type": "Feature",
   "geometry": {
    "type": "Point",
    "coordinates": [
     0.00029844798638889984,
     -5.2023043498961106e-05
    ]
   },
   "properties": {
    "classname": "item_ammopack_medium",
    "team": "",
    "targetname": "",
    "hx": 1744.0,
    "hy": -304.0,
    "hz": 64.2562
   }
  },
  {
   "type": "Feature",
   "geometry": {
    "type": "Point",
    "coordinates": [
     0.0001861877346282724,
     0.00012047441652390994
    ]
   },
   "properties": {
    "classname": "item_ammopack_small",
    "team": "",
    "targetname": "",
    "hx": 1088.0,
    "hy": 704.0,
    "hz": 515.261
   }
  },
  {
   "type": "Feature",
   "geometry": {
    "type": "Point",
    "coordinates": [
     0.00021750423779288205,
     -0.0004293612372989915
    ]
   },
   "properties": {
    "classname": "item_ammopack_full",
    "team": "",
    "targetname": "",
    "hx": 1271.0,
    "hy": -2509.0,
    "hz": 13.0
   }
  },
  {
   "type": "Feature",
   "geometry": {
    "type": "Point",
    "coordinates": [
     0.00010404608699906321,
     0.0002683293822577994
    ]
   },
   "properties": {
    "classname": "info_player_teamspawn",
    "team": "3",
    "targetname": "spawn_blueC",
    "hx": 608.0,
    "hy": 1568.0,
    "hz": 592.0
   }
  },
  {
   "type": "Feature",
   "geometry": {
    "type": "Point",
    "coordinates": [
     0.00010404608699898316,
     0.00025874619003430656
    ]
   },
   "properties": {
    "classname": "info_player_teamspawn",
    "team": "3",
    "targetname": "spawn_blueC",
    "hx": 608.0,
    "hy": 1512.0,
    "hz": 592.0
   }
  },
  {
   "type": "Feature",
   "geometry": {
    "type": "Point",
    "coordinates": [
     0.00010404608699890603,
     0.0002491629978108137
    ]
   },
   "properties": {
    "classname": "info_player_teamspawn",
    "team": "3",
    "targetname": "spawn_blueC",
    "hx": 608.0,
    "hy": 1456.0,
    "hz": 592.0
   }
  },
  {
   "type": "Feature",
   "geometry": {
    "type": "Point",
    "coordinates": [
     9.309386731481067e-05,
     0.0002491629978108137
    ]
   },
   "properties": {
    "classname": "info_player_teamspawn",
    "team": "3",
    "targetname": "spawn_blueC",
    "hx": 544.0,
    "hy": 1456.0,
    "hz": 592.0
   }
  },
  {
   "type": "Feature",
   "geometry": {
    "type": "Point",
    "coordinates": [
     9.30938673149513e-05,
     0.0002683293822577994
    ]
   },
   "properties": {
    "classname": "info_player_teamspawn",
    "team": "3",
    "targetname": "spawn_blueC",
    "hx": 544.0,
    "hy": 1568.0,
    "hz": 592.0
   }
  },
  {
   "type": "Feature",
   "geometry": {
    "type": "Point",
    "coordinates": [
     9.309386731487968e-05,
     0.00025874619003430656
    ]
   },
   "properties": {
    "classname": "info_player_teamspawn",
    "team": "3",
    "targetname": "spawn_blueC",
    "hx": 544.0,
    "hy": 1512.0,
    "hz": 592.0
   }
  },
  {
   "type": "Feature",
   "geometry": {
    "type": "Point",
    "coordinates": [
     8.214164763071529e-05,
     0.0002491629978108137
    ]
   },
   "properties": {
    "classname": "info_player_teamspawn",
    "team": "3",
    "targetname": "spawn_blueC",
    "hx": 480.0,
    "hy": 1456.0,
    "hz": 592.0
   }
  },
  {
   "type": "Feature",
   "geometry": {
    "type": "Point",
    "coordinates": [
     8.214164763083938e-05,
     0.0002683293822577994
    ]
   },
   "properties": {
    "classname": "info_player_teamspawn",
    "team": "3",
    "targetname": "spawn_blueC",
    "hx": 480.0,
    "hy": 1568.0,
    "hz": 592.0
   }
  },
  {
   "type": "Feature",
   "geometry": {
    "type": "Point",
    "coordinates": [
     8.214164763077618e-05,
     0.00025874619003430656
    ]
   },
   "properties": {
    "classname": "info_player_teamspawn",
    "team": "3",
    "targetname": "spawn_blueC",
    "hx": 480.0,
    "hy": 1512.0,
    "hz": 592.0
   }
  },
  {
   "type": "Feature",
   "geometry": {
    "type": "Point",
    "coordinates": [
     7.118942794661991e-05,
     0.0002491629978108137
    ]
   },
   "properties": {
    "classname": "info_player_teamspawn",
    "team": "3",
    "targetname": "spawn_blueC",
    "hx": 416.0,
    "hy": 1456.0,
    "hz": 592.0
   }
  },
  {
   "type": "Feature",
   "geometry": {
    "type": "Point",
    "coordinates": [
     7.118942794672747e-05,
     0.0002683293822577994
    ]
   },
   "properties": {
    "classname": "info_player_teamspawn",
    "team": "3",
    "targetname": "spawn_blueC",
    "hx": 416.0,
    "hy": 1568.0,
    "hz": 592.0
   }
  },
  {
   "type": "Feature",
   "geometry": {
    "type": "Point",
    "coordinates": [
     7.118942794667269e-05,
     0.00025874619003430656
    ]
   },
   "properties": {
    "classname": "info_player_teamspawn",
    "team": "3",
    "targetname": "spawn_blueC",
    "hx": 416.0,
    "hy": 1512.0,
    "hz": 592.0
   }
  },
  {
   "type": "Feature",
   "geometry": {
    "type": "Point",
    "coordinates": [
     0.00010404608699883182,
     0.00023957980558732088
    ]
   },
   "properties": {
    "classname": "info_player_teamspawn",
    "team": "3",
    "targetname": "spawn_blueC",
    "hx": 608.0,
    "hy": 1400.0,
    "hz": 592.0
   }
  },
  {
   "type": "Feature",
   "geometry": {
    "type": "Point",
    "coordinates": [
     7.118942794656914e-05,
     0.00023957980558732088
    ]
   },
   "properties": {
    "classname": "info_player_teamspawn",
    "team": "3",
    "targetname": "spawn_blueC",
    "hx": 416.0,
    "hy": 1400.0,
    "hz": 592.0
   }
  },
  {
   "type": "Feature",
   "geometry": {
    "type": "Point",
    "coordinates": [
     8.21416476306567e-05,
     0.00023957980558732088
    ]
   },
   "properties": {
    "classname": "info_player_teamspawn",
    "team": "3",
    "targetname": "spawn_blueC",
    "hx": 480.0,
    "hy": 1400.0,
    "hz": 592.0
   }
  },
  {
   "type": "Feature",
   "geometry": {
    "type": "Point",
    "coordinates": [
     0.00010130803207803526,
     0.0002683293822577994
    ]
   },
   "properties": {
    "classname": "info_player_teamspawn",
    "team": "2",
    "targetname": "spawn_red_2",
    "hx": 592.0,
    "hy": 1568.0,
    "hz": 592.0
   }
  },
  {
   "type": "Feature",
   "geometry": {
    "type": "Point",
    "coordinates": [
     0.0001013080320779573,
     0.00025874619003430656
    ]
   },
   "properties": {
    "classname": "info_player_teamspawn",
    "team": "2",
    "targetname": "spawn_red_2",
    "hx": 592.0,
    "hy": 1512.0,
    "hz": 592.0
   }
  },
  {
   "type": "Feature",
   "geometry": {
    "type": "Point",
    "coordinates": [
     0.00010130803207788219,
     0.0002491629978108137
    ]
   },
   "properties": {
    "classname": "info_player_teamspawn",
    "team": "2",
    "targetname": "spawn_red_2",
    "hx": 592.0,
    "hy": 1456.0,
    "hz": 592.0
   }
  },
  {
   "type": "Feature",
   "geometry": {
    "type": "Point",
    "coordinates": [
     9.035581239378682e-05,
     0.0002491629978108137
    ]
   },
   "properties": {
    "classname": "info_player_teamspawn",
    "team": "2",
    "targetname": "spawn_red_2",
    "hx": 528.0,
    "hy": 1456.0,
    "hz": 592.0
   }
  },
  {
   "type": "Feature",
   "geometry": {
    "type": "Point",
    "coordinates": [
     9.03558123938538e-05,
     0.00025874619003430656
    ]
   },
   "properties": {
    "classname": "info_player_teamspawn",
    "team": "2",
    "targetname": "spawn_red_2",
    "hx": 528.0,
    "hy": 1512.0,
    "hz": 592.0
   }
  },
  {
   "type": "Feature",
   "geometry": {
    "type": "Point",
    "coordinates": [
     9.035581239392333e-05,
     0.0002683293822577994
    ]
   },
   "properties": {
    "classname": "info_player_teamspawn",
    "team": "2",
    "targetname": "spawn_red_2",
    "hx": 528.0,
    "hy": 1568.0,
    "hz": 592.0
   }
  },
  {
   "type": "Feature",
   "geometry": {
    "type": "Point",
    "coordinates": [
     7.940359270969144e-05,
     0.0002491629978108137
    ]
   },
   "properties": {
    "classname": "info_player_teamspawn",
    "team": "2",
    "targetname": "spawn_red_2",
    "hx": 464.0,
    "hy": 1456.0,
    "hz": 592.0
   }
  },
  {
   "type": "Feature",
   "geometry": {
    "type": "Point",
    "coordinates": [
     7.940359270975031e-05,
     0.00025874619003430656
    ]
   },
   "properties": {
    "classname": "info_player_teamspawn",
    "team": "2",
    "targetname": "spawn_red_2",
    "hx": 464.0,
    "hy": 1512.0,
    "hz": 592.0
   }
  },
  {
   "type": "Feature",
   "geometry": {
    "type": "Point",
    "coordinates": [
     7.94035927098114e-05,
     0.0002683293822577994
    ]
   },
   "properties": {
    "classname": "info_player_teamspawn",
    "team": "2",
    "targetname": "spawn_red_2",
    "hx": 464.0,
    "hy": 1568.0,
    "hz": 592.0
   }
  },
  {
   "type": "Feature",
   "geometry": {
    "type": "Point",
    "coordinates": [
     6.845137302559607e-05,
     0.0002491629978108137
    ]
   },
   "properties": {
    "classname": "info_player_teamspawn",
    "team": "2",
    "targetname": "spawn_red_2",
    "hx": 400.0,
    "hy": 1456.0,
    "hz": 592.0
   }
  },
  {
   "type": "Feature",
   "geometry": {
    "type": "Point",
    "coordinates": [
     6.845137302564682e-05,
     0.00025874619003430656
    ]
   },
   "properties": {
    "classname": "info_player_teamspawn",
    "team": "2",
    "targetname": "spawn_red_2",
    "hx": 400.0,
    "hy": 1512.0,
    "hz": 592.0
   }
  },
  {
   "type": "Feature",
   "geometry": {
    "type": "Point",
    "coordinates": [
     6.845137302569948e-05,
     0.0002683293822577994
    ]
   },
   "properties": {
    "classname": "info_player_teamspawn",
    "team": "2",
    "targetname": "spawn_red_2",
    "hx": 400.0,
    "hy": 1568.0,
    "hz": 592.0
   }
  },
  {
   "type": "Feature",
   "geometry": {
    "type": "Point",
    "coordinates": [
     0.00010130803207780994,
     0.00023957980558732088
    ]
   },
   "properties": {
    "classname": "info_player_teamspawn",
    "team": "2",
    "targetname": "spawn_red_2",
    "hx": 592.0,
    "hy": 1400.0,
    "hz": 592.0
   }
  },
  {
   "type": "Feature",
   "geometry": {
    "type": "Point",
    "coordinates": [
     7.940359270963482e-05,
     0.00023957980558732088
    ]
   },
   "properties": {
    "classname": "info_player_teamspawn",
    "team": "2",
    "targetname": "spawn_red_2",
    "hx": 464.0,
    "hy": 1400.0,
    "hz": 592.0
   }
  },
  {
   "type": "Feature",
   "geometry": {
    "type": "Point",
    "coordinates": [
     6.845137302554726e-05,
     0.00023957980558732088
    ]
   },
   "properties": {
    "classname": "info_player_teamspawn",
    "team": "2",
    "targetname": "spawn_red_2",
    "hx": 400.0,
    "hy": 1400.0,
    "hz": 592.0
   }
  },
  {
   "type": "Feature",
   "geometry": {
    "type": "Point",
    "coordinates": [
     -0.0003395188102127031,
     -0.00041618434799168885
    ]
   },
   "properties": {
    "classname": "info_player_teamspawn",
    "team": "3",
    "targetname": "spawn_blueA2",
    "hx": -1984.0,
    "hy": -2432.0,
    "hz": -48.0
   }
  },
  {
   "type": "Feature",
   "geometry": {
    "type": "Point",
    "coordinates": [
     -0.00033951881021223793,
     -0.0004052321283076971
    ]
   },
   "properties": {
    "classname": "info_player_teamspawn",
    "team": "3",
    "targetname": "spawn_blueA2",
    "hx": -1984.0,
    "hy": -2368.0,
    "hz": -48.0
   }
  },
  {
   "type": "Feature",
   "geometry": {
    "type": "Point",
    "coordinates": [
     -0.00033951881021178506,
     -0.0003942799086237053
    ]
   },
   "properties": {
    "classname": "info_player_teamspawn",
    "team": "3",
    "targetname": "spawn_blueA2",
    "hx": -1984.0,
    "hy": -2304.0,
    "hz": -48.0
   }
  },
  {
   "type": "Feature",
   "geometry": {
    "type": "Point",
    "coordinates": [
     -0.00033951881021134465,
     -0.0003833276889397134
    ]
   },
   "properties": {
    "classname": "info_player_teamspawn",
    "team": "3",
    "targetname": "spawn_blueA2",
    "hx": -1984.0,
    "hy": -2240.0,
    "hz": -48.0
   }
  },
  {
   "type": "Feature",
   "geometry": {
    "type": "Point",
    "coordinates": [
     -0.0003504710298955816,
     -0.0003833276889397134
    ]
   },
   "properties": {
    "classname": "info_player_teamspawn",
    "team": "3",
    "targetname": "spawn_blueA2",
    "hx": -2048.0,
    "hy": -2240.0,
    "hz": -48.0
   }
  },
  {
   "type": "Feature",
   "geometry": {
    "type": "Point",
    "coordinates": [
     -0.00035047102989698385,
     -0.00041618434799168885
    ]
   },
   "properties": {
    "classname": "info_player_teamspawn",
    "team": "3",
    "targetname": "spawn_blueA2",
    "hx": -2048.0,
    "hy": -2432.0,
    "hz": -48.0
   }
  },
  {
   "type": "Feature",
   "geometry": {
    "type": "Point",
    "coordinates": [
     -0.00035047102989650366,
     -0.0004052321283076971
    ]
   },
   "properties": {
    "classname": "info_player_teamspawn",
    "team": "3",
    "targetname": "spawn_blueA2",
    "hx": -2048.0,
    "hy": -2368.0,
    "hz": -48.0
   }
  },
  {
   "type": "Feature",
   "geometry": {
    "type": "Point",
    "coordinates": [
     -0.0003504710298960362,
     -0.0003942799086237053
    ]
   },
   "properties": {
    "classname": "info_player_teamspawn",
    "team": "3",
    "targetname": "spawn_blueA2",
    "hx": -2048.0,
    "hy": -2304.0,
    "hz": -48.0
   }
  },
  {
   "type": "Feature",
   "geometry": {
    "type": "Point",
    "coordinates": [
     -0.00035047102988937715,
     -0.000175235514943869
    ]
   },
   "properties": {
    "classname": "info_player_teamspawn",
    "team": "3",
    "targetname": "spawn_blueA2",
    "hx": -2048.0,
    "hy": -1024.0,
    "hz": 144.0
   }
  },
  {
   "type": "Feature",
   "geometry": {
    "type": "Point",
    "coordinates": [
     -0.0003395188102053341,
     -0.000175235514943869
    ]
   },
   "properties": {
    "classname": "info_player_teamspawn",
    "team": "3",
    "targetname": "spawn_blueA2",
    "hx": -1984.0,
    "hy": -1024.0,
    "hz": 144.0
   }
  },
  {
   "type": "Feature",
   "geometry": {
    "type": "Point",
    "coordinates": [
     -0.0003491020024286741,
     -0.0001642832952598772
    ]
   },
   "properties": {
    "classname": "info_player_teamspawn",
    "team": "3",
    "targetname": "spawn_blueA2",
    "hx": -2040.0,
    "hy": -960.0,
    "hz": 144.0
   }
  },
  {
   "type": "Feature",
   "geometry": {
    "type": "Point",
    "coordinates": [
     -0.0003395188102051418,
     -0.0001642832952598772
    ]
   },
   "properties": {
    "classname": "info_player_teamspawn",
    "team": "3",
    "targetname": "spawn_blueA2",
    "hx": -1984.0,
    "hy": -960.0,
    "hz": 144.0
   }
  },
  {
   "type": "Feature",
   "geometry": {
    "type": "Point",
    "coordinates": [
     -0.00035047102988899296,
     -0.00015333107557588535
    ]
   },
   "properties": {
    "classname": "info_player_teamspawn",
    "team": "3",
    "targetname": "spawn_blueA2",
    "hx": -2048.0,
    "hy": -896.0,
    "hz": 144.0
   }
  },
  {
   "type": "Feature",
   "geometry": {
    "type": "Point",
    "coordinates": [
     -0.00033951881020496196,
     -0.00015333107557588535
    ]
   },
   "properties": {
    "classname": "info_player_teamspawn",
    "team": "3",
    "targetname": "spawn_blueA2",
    "hx": -1984.0,
    "hy": -896.0,
    "hz": 144.0
   }
  },
  {
   "type": "Feature",
   "geometry": {
    "type": "Point",
    "coordinates": [
     -0.00032856659052753396,
     -0.0003942799086237053
    ]
   },
   "properties": {
    "classname": "info_player_teamspawn",
    "team": "3",
    "targetname": "spawn_blueA2",
    "hx": -1920.0,
    "hy": -2304.0,
    "hz": -48.0
   }
  },
  {
   "type": "Feature",
   "geometry": {
    "type": "Point",
    "coordinates": [
     -0.00032856659052797214,
     -0.0004052321283076971
    ]
   },
   "properties": {
    "classname": "info_player_teamspawn",
    "team": "3",
    "targetname": "spawn_blueA2",
    "hx": -1920.0,
    "hy": -2368.0,
    "hz": -48.0
   }
  },
  {
   "type": "Feature",
   "geometry": {
    "type": "Point",
    "coordinates": [
     9.035581239372237e-05,
     0.00023957980558732088
    ]
   },
   "properties": {
    "classname": "info_player_teamspawn",
    "team": "2",
    "targetname": "spawn_red_2",
    "hx": 528.0,
    "hy": 1400.0,
    "hz": 592.0
   }
  },
  {
   "type": "Feature",
   "geometry": {
    "type": "Point",
    "coordinates": [
     9.309386731474427e-05,
     0.00023957980558732088
    ]
   },
   "properties": {
    "classname": "info_player_teamspawn",
    "team": "3",
    "targetname": "spawn_blueC",
    "hx": 544.0,
    "hy": 1400.0,
    "hz": 592.0
   }
  },
  {
   "type": "Feature",
   "geometry": {
    "type": "Point",
    "coordinates": [
     5.202304349911561e-05,
     -0.0001396408009708956
    ]
   },
   "properties": {
    "classname": "item_healthkit_medium",
    "team": "",
    "targetname": "",
    "hx": 304.0,
    "hy": -816.0,
    "hz": 480.236
   }
  },
  {
   "type": "Feature",
   "geometry": {
    "type": "Point",
    "coordinates": [
     -8.214164763011201e-05,
     -0.00011773636160291199
    ]
   },
   "properties": {
    "classname": "item_ammopack_medium",
    "team": "",
    "targetname": "",
    "hx": -480.0,
    "hy": -688.0,
    "hz": 572.703
   }
  },
  {
   "type": "Feature",
   "geometry": {
    "type": "Point",
    "coordinates": [
     0.00011226025176161801,
     -0.00020261606415384855
    ]
   },
   "properties": {
    "classname": "item_healthkit_medium",
    "team": "",
    "targetname": "",
    "hx": 656.0,
    "hy": -1184.0,
    "hz": 721.236
   }
  },
  {
   "type": "Feature",
   "geometry": {
    "type": "Point",
    "coordinates": [
     0.00018618773462798327,
     -6.571331810395088e-05
    ]
   },
   "properties": {
    "classname": "item_ammopack_medium",
    "team": "",
    "targetname": "",
    "hx": 1088.0,
    "hy": -384.0,
    "hz": 721.256
   }
  }
 ]
}
