{
 "type": "FeatureCollection",
 "note": "pseudo-WGS84 via crs.local_to_wgs84 ((0,0)m maps to (0,0)deg); viewing only, not survey",
 "features": [
  {
   "type": "Feature",
   "geometry": {
    "type": "Point",
    "coordinates": [
     0.00012146456563496796,
     -0.0001167462124921061
    ]
   },
   "properties": {
    "classname": "item_ammopack_full",
    "team": "0",
    "targetname": "",
    "hx": 709.786,
    "hy": -682.214,
    "hz": 138.0
   }
  },
  {
   "type": "Feature",
   "geometry": {
    "type": "Point",
    "coordinates": [
     -9.446289477443811e-05,
     2.464249428898158e-05
    ]
   },
   "properties": {
    "classname": "item_ammopack_medium",
    "team": "0",
    "targetname": "",
    "hx": -552.0,
    "hy": 144.0,
    "hz": -124.0
   }
  },
  {
   "type": "Feature",
   "geometry": {
    "type": "Point",
    "coordinates": [
     3.148763159151444e-05,
     -8.898678493243347e-05
    ]
   },
   "properties": {
    "classname": "item_healthkit_small",
    "team": "0",
    "targetname": "",
    "hx": 184.0,
    "hy": -520.0,
    "hz": 42.0
   }
  },
  {
   "type": "Feature",
   "geometry": {
    "type": "Point",
    "coordinates": [
     7.491763197815953e-05,
     -0.0001893039833848216
    ]
   },
   "properties": {
    "classname": "item_healthkit_medium",
    "team": "0",
    "targetname": "",
    "hx": 437.786,
    "hy": -1106.21,
    "hz": 26.0
   }
  },
  {
   "type": "Feature",
   "geometry": {
    "type": "Point",
    "coordinates": [
     0.0,
     0.0
    ]
   },
   "properties": {
    "classname": "item_ammopack_full",
    "team": "0",
    "targetname": "",
    "hx": 0.0,
    "hy": 0.0,
    "hz": -130.0
   }
  },
  {
   "type": "Feature",
   "geometry": {
    "type": "Point",
    "coordinates": [
     -7.628665943866598e-05,
     0.0001893039833848216
    ]
   },
   "properties": {
    "classname": "item_healthkit_medium",
    "team": "0",
    "targetname": "",
    "hx": -445.786,
    "hy": 1106.21,
    "hz": 26.0
   }
  },
  {
   "type": "Feature",
   "geometry": {
    "type": "Point",
    "coordinates": [
     -0.00012146456563496796,
     0.0001167462124921061
    ]
   },
   "properties": {
    "classname": "item_ammopack_full",
    "team": "0",
    "targetname": "",
    "hx": -709.786,
    "hy": 682.214,
    "hz": 138.0
   }
  },
  {
   "type": "Feature",
   "geometry": {
    "type": "Point",
    "coordinates": [
     -3.9017282624745306e-05,
     -0.00029707895892827787
    ]
   },
   "properties": {
    "classname": "item_ammopack_small",
    "team": "0",
    "targetname": "",
    "hx": -228.0,
    "hy": -1736.0,
    "hz": 20.0
   }
  },
  {
   "type": "Feature",
   "geometry": {
    "type": "Point",
    "coordinates": [
     -3.9017282624745306e-05,
     -0.00029707895892827787
    ]
   },
   "properties": {
    "classname": "item_ammopack_medium",
    "team": "0",
    "targetname": "",
    "hx": -228.0,
    "hy": -1736.0,
    "hz": 140.0
   }
  },
  {
   "type": "Feature",
   "geometry": {
    "type": "Point",
    "coordinates": [
     3.9017282624745306e-05,
     0.00029707895892827787
    ]
   },
   "properties": {
    "classname": "item_ammopack_small",
    "team": "0",
    "targetname": "",
    "hx": 228.0,
    "hy": 1736.0,
    "hz": 20.0
   }
  },
  {
   "type": "Feature",
   "geometry": {
    "type": "Point",
    "coordinates": [
     3.9017282624745306e-05,
     0.00029707895892827787
    ]
   },
   "properties": {
    "classname": "item_ammopack_medium",
    "team": "0",
    "targetname": "",
    "hx": 228.0,
    "hy": 1736.0,
    "hz": 140.0
   }
  },
  {
   "type": "Feature",
   "geometry": {
    "type": "Point",
    "coordinates": [
     6.807249467562728e-05,
     -0.0001893039833848216
    ]
   },
   "properties": {
    "classname": "item_ammopack_small",
    "team": "0",
    "targetname": "",
    "hx": 397.786,
    "hy": -1106.21,
    "hz": 26.0
   }
  },
  {
   "type": "Feature",
   "geometry": {
    "type": "Point",
    "coordinates": [
     -0.00012047441652391048,
     5.476109841995906e-06
    ]
   },
   "properties": {
    "classname": "item_ammopack_medium",
    "team": "0",
    "targetname": "",
    "hx": -704.0,
    "hy": 32.0,
    "hz": 90.0
   }
  },
  {
   "type": "Feature",
   "geometry": {
    "type": "Point",
    "coordinates": [
     4.380887873596725e-05,
     0.0
    ]
   },
   "properties": {
    "classname": "team_control_point",
    "team": "",
    "targetname": "cp_center",
    "hx": 256.0,
    "hy": 0.0,
    "hz": 238.0
   }
  },
  {
   "type": "Feature",
   "geometry": {
    "type": "Point",
    "coordinates": [
     -7.25584554064485e-05,
     -1.5743815795738232e-05
    ]
   },
   "properties": {
    "classname": "team_control_point",
    "team": "",
    "targetname": "CPBaseRED",
    "hx": -424.0,
    "hy": -92.0,
    "hz": -8.0
   }
  },
  {
   "type": "Feature",
   "geometry": {
    "type": "Point",
    "coordinates": [
     3.22087668062943e-05,
     3.668976481294001e-08
    ]
   },
   "properties": {
    "classname": "item_healthkit_medium",
    "team": "0",
    "targetname": "",
    "hx": 188.214,
    "hy": 0.214399,
    "hz": -142.0
   }
  },
  {
   "type": "Feature",
   "geometry": {
    "type": "Point",
    "coordinates": [
     9.446289477443811e-05,
     -2.464249428898158e-05
    ]
   },
   "properties": {
    "classname": "item_ammopack_medium",
    "team": "0",
    "targetname": "",
    "hx": 552.0,
    "hy": -144.0,
    "hz": -124.0
   }
  },
  {
   "type": "Feature",
   "geometry": {
    "type": "Point",
    "coordinates": [
     -6.944152213613373e-05,
     0.0001893039833848216
    ]
   },
   "properties": {
    "classname": "item_ammopack_small",
    "team": "0",
    "targetname": "",
    "hx": -405.786,
    "hy": 1106.21,
    "hz": 26.0
   }
  },
  {
   "type": "Feature",
   "geometry": {
    "type": "Point",
    "coordinates": [
     -4.107082381497085e-05,
     -1.5743815795738232e-05
    ]
   },
   "properties": {
    "classname": "team_control_point",
    "team": "",
    "targetname": "CPBaseBLU",
    "hx": -240.0,
    "hy": -92.0,
    "hz": -8.0
   }
  },
  {
   "type": "Feature",
   "geometry": {
    "type": "Point",
    "coordinates": [
     0.00012047441652391048,
     -5.476126954839163e-06
    ]
   },
   "properties": {
    "classname": "item_ammopack_medium",
    "team": "0",
    "targetname": "",
    "hx": 704.0,
    "hy": -32.0001,
    "hz": 90.0
   }
  },
  {
   "type": "Feature",
   "geometry": {
    "type": "Point",
    "coordinates": [
     -3.148763159151444e-05,
     8.898678493243347e-05
    ]
   },
   "properties": {
    "classname": "item_healthkit_small",
    "team": "0",
    "targetname": "",
    "hx": -184.0,
    "hy": 520.0,
    "hz": 42.0
   }
  },
  {
   "type": "Feature",
   "geometry": {
    "type": "Point",
    "coordinates": [
     -0.00012967873039797885,
     0.0001167462124921061
    ]
   },
   "properties": {
    "classname": "item_healthkit_medium",
    "team": "0",
    "targetname": "",
    "hx": -757.786,
    "hy": 682.214,
    "hz": 138.0
   }
  },
  {
   "type": "Feature",
   "geometry": {
    "type": "Point",
    "coordinates": [
     -3.22087668062943e-05,
     -3.6692673996293574e-08
    ]
   },
   "properties": {
    "classname": "item_healthkit_medium",
    "team": "0",
    "targetname": "",
    "hx": -188.214,
    "hy": -0.214416,
    "hz": -142.0
   }
  },
  {
   "type": "Feature",
   "geometry": {
    "type": "Point",
    "coordinates": [
     0.00012967873039797885,
     -0.0001167462124921061
    ]
   },
   "properties": {
    "classname": "item_healthkit_medium",
    "team": "0",
    "targetname": "",
    "hx": 757.786,
    "hy": -682.214,
    "hz": 138.0
   }
  },
  {
   "type": "Feature",
   "geometry": {
    "type": "Point",
    "coordinates": [
     0.0004915373307213266,
     0.0005096855009751177
    ]
   },
   "properties": {
    "classname": "info_player_teamspawn",
    "team": "3",
    "targetname": "blu_spawn_near",
    "hx": 2872.33,
    "hy": 2978.38,
    "hz": 328.005
   }
  },
  {
   "type": "Feature",
   "geometry": {
    "type": "Point",
    "coordinates": [
     0.0005028763006626523,
     0.0005005643555195433
    ]
   },
   "properties": {
    "classname": "info_player_teamspawn",
    "team": "3",
    "targetname": "blu_spawn_near",
    "hx": 2938.59,
    "hy": 2925.08,
    "hz": 328.005
   }
  },
  {
   "type": "Feature",
   "geometry": {
    "type": "Point",
    "coordinates": [
     0.0005009750637776445,
     0.000511348869339624
    ]
   },
   "properties": {
    "classname": "info_player_teamspawn",
    "team": "3",
    "targetname": "blu_spawn_near",
    "hx": 2927.48,
    "hy": 2988.1,
    "hz": 328.005
   }
  },
  {
   "type": "Feature",
   "geometry": {
    "type": "Point",
    "coordinates": [
     0.0004934385676063522,
     0.0004988992758707114
    ]
   },
   "properties": {
    "classname": "info_player_teamspawn",
    "team": "3",
    "targetname": "blu_spawn_near",
    "hx": 2883.44,
    "hy": 2915.35,
    "hz": 328.005
   }
  },
  {
   "type": "Feature",
   "geometry": {
    "type": "Point",
    "coordinates": [
     0.0005104127968339678,
     0.0005130139489884558
    ]
   },
   "properties": {
    "classname": "info_player_teamspawn",
    "team": "3",
    "targetname": "blu_spawn_near",
    "hx": 2982.63,
    "hy": 2997.83,
    "hz": 328.005
   }
  },
  {
   "type": "Feature",
   "geometry": {
    "type": "Point",
    "coordinates": [
     0.0005123140337189574,
     0.0005022277238840495
    ]
   },
   "properties": {
    "classname": "info_player_teamspawn",
    "team": "3",
    "targetname": "blu_spawn_near",
    "hx": 2993.74,
    "hy": 2934.8,
    "hz": 328.005
   }
  },
  {
   "type": "Feature",
   "geometry": {
    "type": "Point",
    "coordinates": [
     0.0004955297570515426,
     0.0004881472764528176
    ]
   },
   "properties": {
    "classname": "info_player_teamspawn",
    "team": "3",
    "targetname": "blu_spawn_near",
    "hx": 2895.66,
    "hy": 2852.52,
    "hz": 328.005
   }
  },
  {
   "type": "Feature",
   "geometry": {
    "type": "Point",
    "coordinates": [
     0.0004974309939365907,
     0.0004773610513484112
    ]
   },
   "properties": {
    "classname": "info_player_teamspawn",
    "team": "3",
    "targetname": "blu_spawn_near",
    "hx": 2906.77,
    "hy": 2789.49,
    "hz": 328.005
   }
  },
  {
   "type": "Feature",
   "geometry": {
    "type": "Point",
    "coordinates": [
     0.0005068687269928559,
     0.00047902613099724313
    ]
   },
   "properties": {
    "classname": "info_player_teamspawn",
    "team": "3",
    "targetname": "blu_spawn_near",
    "hx": 2961.92,
    "hy": 2799.22,
    "hz": 328.005
   }
  },
  {
   "type": "Feature",
   "geometry": {
    "type": "Point",
    "coordinates": [
     0.0005049674901078252,
     0.0004898123561016494
    ]
   },
   "properties": {
    "classname": "info_player_teamspawn",
    "team": "3",
    "targetname": "blu_spawn_near",
    "hx": 2950.81,
    "hy": 2862.25,
    "hz": 328.005
   }
  },
  {
   "type": "Feature",
   "geometry": {
    "type": "Point",
    "coordinates": [
     0.0005144052231641128,
     0.0004914757244661557
    ]
   },
   "properties": {
    "classname": "info_player_teamspawn",
    "team": "3",
    "targetname": "blu_spawn_near",
    "hx": 3005.96,
    "hy": 2871.97,
    "hz": 328.005
   }
  },
  {
   "type": "Feature",
   "geometry": {
    "type": "Point",
    "coordinates": [
     0.0005163064600491262,
     0.0004806894993617494
    ]
   },
   "properties": {
    "classname": "info_player_teamspawn",
    "team": "3",
    "targetname": "blu_spawn_near",
    "hx": 3017.07,
    "hy": 2808.94,
    "hz": 328.005
   }
  },
  {
   "type": "Feature",
   "geometry": {
    "type": "Point",
    "coordinates": [
     0.0005160857043803472,
     0.0005903725569282761
    ]
   },
   "properties": {
    "classname": "info_player_teamspawn",
    "team": "3",
    "targetname": "blu_spawn_far",
    "hx": 3015.78,
    "hy": 3449.88,
    "hz": 312.005
   }
  },
  {
   "type": "Feature",
   "geometry": {
    "type": "Point",
    "coordinates": [
     0.0005334569515714582,
     0.0005984737769257788
    ]
   },
   "properties": {
    "classname": "info_player_teamspawn",
    "team": "3",
    "targetname": "blu_spawn_far",
    "hx": 3117.29,
    "hy": 3497.22,
    "hz": 312.005
   }
  },
  {
   "type": "Feature",
   "geometry": {
    "type": "Point",
    "coordinates": [
     0.0005247704723337323,
     0.0005944231669270276
    ]
   },
   "properties": {
    "classname": "info_player_teamspawn",
    "team": "3",
    "targetname": "blu_spawn_far",
    "hx": 3066.53,
    "hy": 3473.55,
    "hz": 312.005
   }
  },
  {
   "type": "Feature",
   "geometry": {
    "type": "Point",
    "coordinates": [
     0.0005207147284804834,
     0.0005804471078396586
    ]
   },
   "properties": {
    "classname": "info_player_teamspawn",
    "team": "3",
    "targetname": "blu_spawn_far",
    "hx": 3042.83,
    "hy": 3391.88,
    "hz": 312.005
   }
  },
  {
   "type": "Feature",
   "geometry": {
    "type": "Point",
    "coordinates": [
     0.0005293994964338497,
     0.0005844960065540843
    ]
   },
   "properties": {
    "classname": "info_player_teamspawn",
    "team": "3",
    "targetname": "blu_spawn_far",
    "hx": 3093.58,
    "hy": 3415.54,
    "hz": 312.005
   }
  },
  {
   "type": "Feature",
   "geometry": {
    "type": "Point",
    "coordinates": [
     0.0005380842643872315,
     0.0005885466165528357
    ]
   },
   "properties": {
    "classname": "info_player_teamspawn",
    "team": "3",
    "targetname": "blu_spawn_far",
    "hx": 3144.33,
    "hy": 3439.21,
    "hz": 312.005
   }
  },
  {
   "type": "Feature",
   "geometry": {
    "type": "Point",
    "coordinates": [
     0.0005257133899949665,
     0.0005704600525153185
    ]
   },
   "properties": {
    "classname": "info_player_teamspawn",
    "team": "3",
    "targetname": "blu_spawn_far",
    "hx": 3072.04,
    "hy": 3333.52,
    "hz": 312.005
   }
  },
  {
   "type": "Feature",
   "geometry": {
    "type": "Point",
    "coordinates": [
     0.0005343981579483146,
     0.0005745089512297442
    ]
   },
   "properties": {
    "classname": "info_player_teamspawn",
    "team": "3",
    "targetname": "blu_spawn_far",
    "hx": 3122.79,
    "hy": 3357.18,
    "hz": 312.005
   }
  },
  {
   "type": "Feature",
   "geometry": {
    "type": "Point",
    "coordinates": [
     0.000543082925901678,
     0.0005785595612284955
    ]
   },
   "properties": {
    "classname": "info_player_teamspawn",
    "team": "3",
    "targetname": "blu_spawn_far",
    "hx": 3173.54,
    "hy": 3380.85,
    "hz": 312.005
   }
  },
  {
   "type": "Feature",
   "geometry": {
    "type": "Point",
    "coordinates": [
     0.0005163423970369742,
     0.0006688332319737981
    ]
   },
   "properties": {
    "classname": "info_player_teamspawn",
    "team": "3",
    "targetname": "blu_spawn_far",
    "hx": 3017.28,
    "hy": 3908.37,
    "hz": 345.005
   }
  },
  {
   "type": "Feature",
   "geometry": {
    "type": "Point",
    "coordinates": [
     0.0005352178631502537,
     0.0006721616799871363
    ]
   },
   "properties": {
    "classname": "info_player_teamspawn",
    "team": "3",
    "targetname": "blu_spawn_far",
    "hx": 3127.58,
    "hy": 3927.82,
    "hz": 345.005
   }
  },
  {
   "type": "Feature",
   "geometry": {
    "type": "Point",
    "coordinates": [
     0.0005371191000349758,
     0.00066137545488273
    ]
   },
   "properties": {
    "classname": "info_player_teamspawn",
    "team": "3",
    "targetname": "blu_spawn_far",
    "hx": 3138.69,
    "hy": 3864.79,
    "hz": 345.005
   }
  },
  {
   "type": "Feature",
   "geometry": {
    "type": "Point",
    "coordinates": [
     0.000518243633921742,
     0.0006580470068693919
    ]
   },
   "properties": {
    "classname": "info_player_teamspawn",
    "team": "3",
    "targetname": "blu_spawn_far",
    "hx": 3028.39,
    "hy": 3845.34,
    "hz": 345.005
   }
  },
  {
   "type": "Feature",
   "geometry": {
    "type": "Point",
    "coordinates": [
     0.0005276813669783555,
     0.0006597103752338981
    ]
   },
   "properties": {
    "classname": "info_player_teamspawn",
    "team": "3",
    "targetname": "blu_spawn_far",
    "hx": 3083.54,
    "hy": 3855.06,
    "hz": 345.005
   }
  },
  {
   "type": "Feature",
   "geometry": {
    "type": "Point",
    "coordinates": [
     0.0005257801300936104,
     0.0006704966003383044
    ]
   },
   "properties": {
    "classname": "info_player_teamspawn",
    "team": "3",
    "targetname": "blu_spawn_far",
    "hx": 3072.43,
    "hy": 3918.09,
    "hz": 345.005
   }
  },
  {
   "type": "Feature",
   "geometry": {
    "type": "Point",
    "coordinates": [
     0.0005204871276716506,
     0.0006471067661756793
    ]
   },
   "properties": {
    "classname": "info_player_teamspawn",
    "team": "3",
    "targetname": "blu_spawn_far",
    "hx": 3041.5,
    "hy": 3781.41,
    "hz": 345.005
   }
  },
  {
   "type": "Feature",
   "geometry": {
    "type": "Point",
    "coordinates": [
     0.0005299248607282415,
     0.0006487701345401856
    ]
   },
   "properties": {
    "classname": "info_player_teamspawn",
    "team": "3",
    "targetname": "blu_spawn_far",
    "hx": 3096.65,
    "hy": 3791.13,
    "hz": 345.005
   }
  },
  {
   "type": "Feature",
   "geometry": {
    "type": "Point",
    "coordinates": [
     0.000539362593784839,
     0.0006504352141890175
    ]
   },
   "properties": {
    "classname": "info_player_teamspawn",
    "team": "3",
    "targetname": "blu_spawn_far",
    "hx": 3151.8,
    "hy": 3800.86,
    "hz": 345.005
   }
  },
  {
   "type": "Feature",
   "geometry": {
    "type": "Point",
    "coordinates": [
     0.0003660539849790523,
     0.0006307999378368108
    ]
   },
   "properties": {
    "classname": "info_player_teamspawn",
    "team": "3",
    "targetname": "blu_spawn_near",
    "hx": 2139.06,
    "hy": 3686.12,
    "hz": 184.005
   }
  },
  {
   "type": "Feature",
   "geometry": {
    "type": "Point",
    "coordinates": [
     0.00037517684172033,
     0.0006421389077783938
    ]
   },
   "properties": {
    "classname": "info_player_teamspawn",
    "team": "3",
    "targetname": "blu_spawn_near",
    "hx": 2192.37,
    "hy": 3752.38,
    "hz": 184.005
   }
  },
  {
   "type": "Feature",
   "geometry": {
    "type": "Point",
    "coordinates": [
     0.00037684021008425016,
     0.0006327011747225788
    ]
   },
   "properties": {
    "classname": "info_player_teamspawn",
    "team": "3",
    "targetname": "blu_spawn_near",
    "hx": 2202.09,
    "hy": 3697.23,
    "hz": 184.005
   }
  },
  {
   "type": "Feature",
   "geometry": {
    "type": "Point",
    "coordinates": [
     0.000364390616615111,
     0.0006402376708926258
    ]
   },
   "properties": {
    "classname": "info_player_teamspawn",
    "team": "3",
    "targetname": "blu_spawn_near",
    "hx": 2129.34,
    "hy": 3741.27,
    "hz": 184.005
   }
  },
  {
   "type": "Feature",
   "geometry": {
    "type": "Point",
    "coordinates": [
     0.00036272553696684766,
     0.0006496754039484406
    ]
   },
   "properties": {
    "classname": "info_player_teamspawn",
    "team": "3",
    "targetname": "blu_spawn_near",
    "hx": 2119.61,
    "hy": 3796.42,
    "hz": 184.005
   }
  },
  {
   "type": "Feature",
   "geometry": {
    "type": "Point",
    "coordinates": [
     0.0003735117620720881,
     0.0006515766408342086
    ]
   },
   "properties": {
    "classname": "info_player_teamspawn",
    "team": "3",
    "targetname": "blu_spawn_near",
    "hx": 2182.64,
    "hy": 3807.53,
    "hz": 184.005
   }
  },
  {
   "type": "Feature",
   "geometry": {
    "type": "Point",
    "coordinates": [
     0.00038759220950295586,
     0.0006347906528841654
    ]
   },
   "properties": {
    "classname": "info_player_teamspawn",
    "team": "3",
    "targetname": "blu_spawn_near",
    "hx": 2264.92,
    "hy": 3709.44,
    "hz": 184.005
   }
  },
  {
   "type": "Feature",
   "geometry": {
    "type": "Point",
    "coordinates": [
     0.00039837843460817097,
     0.000636693601054259
    ]
   },
   "properties": {
    "classname": "info_player_teamspawn",
    "team": "3",
    "targetname": "blu_spawn_near",
    "hx": 2327.95,
    "hy": 3720.56,
    "hz": 184.005
   }
  },
  {
   "type": "Feature",
   "geometry": {
    "type": "Point",
    "coordinates": [
     0.0003859271298547314,
     0.0006442283859399802
    ]
   },
   "properties": {
    "classname": "info_player_teamspawn",
    "team": "3",
    "targetname": "blu_spawn_near",
    "hx": 2255.19,
    "hy": 3764.59,
    "hz": 184.005
   }
  },
  {
   "type": "Feature",
   "geometry": {
    "type": "Point",
    "coordinates": [
     0.0003842637614908369,
     0.000653666118995795
    ]
   },
   "properties": {
    "classname": "info_player_teamspawn",
    "team": "3",
    "targetname": "blu_spawn_near",
    "hx": 2245.47,
    "hy": 3819.74,
    "hz": 184.005
   }
  },
  {
   "type": "Feature",
   "geometry": {
    "type": "Point",
    "coordinates": [
     0.0003950499865960949,
     0.0006555673558815631
    ]
   },
   "properties": {
    "classname": "info_player_teamspawn",
    "team": "3",
    "targetname": "blu_spawn_near",
    "hx": 2308.5,
    "hy": 3830.85,
    "hz": 184.005
   }
  },
  {
   "type": "Feature",
   "geometry": {
    "type": "Point",
    "coordinates": [
     0.0003967133549599677,
     0.0006461296228257482
    ]
   },
   "properties": {
    "classname": "info_player_teamspawn",
    "team": "3",
    "targetname": "blu_spawn_near",
    "hx": 2318.22,
    "hy": 3775.7,
    "hz": 184.005
   }
  },
  {
   "type": "Feature",
   "geometry": {
    "type": "Point",
    "coordinates": [
     -0.0003660539849790523,
     -0.0006307999378368108
    ]
   },
   "properties": {
    "classname": "info_player_teamspawn",
    "team": "2",
    "targetname": "red_spawn_near",
    "hx": -2139.06,
    "hy": -3686.12,
    "hz": 184.005
   }
  },
  {
   "type": "Feature",
   "geometry": {
    "type": "Point",
    "coordinates": [
     -0.00036272553696684766,
     -0.0006496754039484406
    ]
   },
   "properties": {
    "classname": "info_player_teamspawn",
    "team": "2",
    "targetname": "red_spawn_near",
    "hx": -2119.61,
    "hy": -3796.42,
    "hz": 184.005
   }
  },
  {
   "type": "Feature",
   "geometry": {
    "type": "Point",
    "coordinates": [
     -0.0003735117620720881,
     -0.0006515766408342086
    ]
   },
   "properties": {
    "classname": "info_player_teamspawn",
    "team": "2",
    "targetname": "red_spawn_near",
    "hx": -2182.64,
    "hy": -3807.53,
    "hz": 184.005
   }
  },
  {
   "type": "Feature",
   "geometry": {
    "type": "Point",
    "coordinates": [
     -0.00037684021008425016,
     -0.0006327011747225788
    ]
   },
   "properties": {
    "classname": "info_player_teamspawn",
    "team": "2",
    "targetname": "red_spawn_near",
    "hx": -2202.09,
    "hy": -3697.23,
    "hz": 184.005
   }
  },
  {
   "type": "Feature",
   "geometry": {
    "type": "Point",
    "coordinates": [
     -0.00037517684172033,
     -0.0006421389077783938
    ]
   },
   "properties": {
    "classname": "info_player_teamspawn",
    "team": "2",
    "targetname": "red_spawn_near",
    "hx": -2192.37,
    "hy": -3752.38,
    "hz": 184.005
   }
  },
  {
   "type": "Feature",
   "geometry": {
    "type": "Point",
    "coordinates": [
     -0.000364390616615111,
     -0.0006402376708926258
    ]
   },
   "properties": {
    "classname": "info_player_teamspawn",
    "team": "2",
    "targetname": "red_spawn_near",
    "hx": -2129.34,
    "hy": -3741.27,
    "hz": 184.005
   }
  },
  {
   "type": "Feature",
   "geometry": {
    "type": "Point",
    "coordinates": [
     -0.00038759220950295586,
     -0.0006347906528841654
    ]
   },
   "properties": {
    "classname": "info_player_teamspawn",
    "team": "2",
    "targetname": "red_spawn_near",
    "hx": -2264.92,
    "hy": -3709.44,
    "hz": 184.005
   }
  },
  {
   "type": "Feature",
   "geometry": {
    "type": "Point",
    "coordinates": [
     -0.0003842637614908369,
     -0.000653666118995795
    ]
   },
   "properties": {
    "classname": "info_player_teamspawn",
    "team": "2",
    "targetname": "red_spawn_near",
    "hx": -2245.47,
    "hy": -3819.74,
    "hz": 184.005
   }
  },
  {
   "type": "Feature",
   "geometry": {
    "type": "Point",
    "coordinates": [
     -0.0003950499865960949,
     -0.0006555673558815631
    ]
   },
   "properties": {
    "classname": "info_player_teamspawn",
    "team": "2",
    "targetname": "red_spawn_near",
    "hx": -2308.5,
    "hy": -3830.85,
    "hz": 184.005
   }
  },
  {
   "type": "Feature",
   "geometry": {
    "type": "Point",
    "coordinates": [
     -0.00039837843460817097,
     -0.000636693601054259
    ]
   },
   "properties": {
    "classname": "info_player_teamspawn",
    "team": "2",
    "targetname": "red_spawn_near",
    "hx": -2327.95,
    "hy": -3720.56,
    "hz": 184.005
   }
  },
  {
   "type": "Feature",
   "geometry": {
    "type": "Point",
    "coordinates": [
     -0.0003967133549599677,
     -0.0006461296228257482
    ]
   },
   "properties": {
    "classname": "info_player_teamspawn",
    "team": "2",
    "targetname": "red_spawn_near",
    "hx": -2318.22,
    "hy": -3775.7,
    "hz": 184.005
   }
  },
  {
   "type": "Feature",
   "geometry": {
    "type": "Point",
    "coordinates": [
     -0.0003859271298547314,
     -0.0006442283859399802
    ]
   },
   "properties": {
    "classname": "info_player_teamspawn",
    "team": "2",
    "targetname": "red_spawn_near",
    "hx": -2255.19,
    "hy": -3764.59,
    "hz": 184.005
   }
  },
  {
   "type": "Feature",
   "geometry": {
    "type": "Point",
    "coordinates": [
     -0.0005163423970369742,
     -0.0006688332319737981
    ]
   },
   "properties": {
    "classname": "info_player_teamspawn",
    "team": "2",
    "targetname": "red_spawn_far",
    "hx": -3017.28,
    "hy": -3908.37,
    "hz": 345.005
   }
  },
  {
   "type": "Feature",
   "geometry": {
    "type": "Point",
    "coordinates": [
     -0.0005352178631502537,
     -0.0006721616799871363
    ]
   },
   "properties": {
    "classname": "info_player_teamspawn",
    "team": "2",
    "targetname": "red_spawn_far",
    "hx": -3127.58,
    "hy": -3927.82,
    "hz": 345.005
   }
  },
  {
   "type": "Feature",
   "geometry": {
    "type": "Point",
    "coordinates": [
     -0.0005371191000349758,
     -0.00066137545488273
    ]
   },
   "properties": {
    "classname": "info_player_teamspawn",
    "team": "2",
    "targetname": "red_spawn_far",
    "hx": -3138.69,
    "hy": -3864.79,
    "hz": 345.005
   }
  },
  {
   "type": "Feature",
   "geometry": {
    "type": "Point",
    "coordinates": [
     -0.000518243633921742,
     -0.0006580470068693919
    ]
   },
   "properties": {
    "classname": "info_player_teamspawn",
    "team": "2",
    "targetname": "red_spawn_far",
    "hx": -3028.39,
    "hy": -3845.34,
    "hz": 345.005
   }
  },
  {
   "type": "Feature",
   "geometry": {
    "type": "Point",
    "coordinates": [
     -0.0005276813669783555,
     -0.0006597103752338981
    ]
   },
   "properties": {
    "classname": "info_player_teamspawn",
    "team": "2",
    "targetname": "red_spawn_far",
    "hx": -3083.54,
    "hy": -3855.06,
    "hz": 345.005
   }
  },
  {
   "type": "Feature",
   "geometry": {
    "type": "Point",
    "coordinates": [
     -0.0005257801300936104,
     -0.0006704966003383044
    ]
   },
   "properties": {
    "classname": "info_player_teamspawn",
    "team": "2",
    "targetname": "red_spawn_far",
    "hx": -3072.43,
    "hy": -3918.09,
    "hz": 345.005
   }
  },
  {
   "type": "Feature",
   "geometry": {
    "type": "Point",
    "coordinates": [
     -0.0005204871276716506,
     -0.0006471067661756793
    ]
   },
   "properties": {
    "classname": "info_player_teamspawn",
    "team": "2",
    "targetname": "red_spawn_far",
    "hx": -3041.5,
    "hy": -3781.41,
    "hz": 345.005
   }
  },
  {
   "type": "Feature",
   "geometry": {
    "type": "Point",
    "coordinates": [
     -0.0005299248607282415,
     -0.0006487701345401856
    ]
   },
   "properties": {
    "classname": "info_player_teamspawn",
    "team": "2",
    "targetname": "red_spawn_far",
    "hx": -3096.65,
    "hy": -3791.13,
    "hz": 345.005
   }
  },
  {
   "type": "Feature",
   "geometry": {
    "type": "Point",
    "coordinates": [
     -0.000539362593784839,
     -0.0006504352141890175
    ]
   },
   "properties": {
    "classname": "info_player_teamspawn",
    "team": "2",
    "targetname": "red_spawn_far",
    "hx": -3151.8,
    "hy": -3800.86,
    "hz": 345.005
   }
  },
  {
   "type": "Feature",
   "geometry": {
    "type": "Point",
    "coordinates": [
     -0.0005200079680549081,
     -0.0005906206931554916
    ]
   },
   "properties": {
    "classname": "info_player_teamspawn",
    "team": "2",
    "targetname": "red_spawn_far",
    "hx": -3038.7,
    "hy": -3451.33,
    "hz": 312.005
   }
  },
  {
   "type": "Feature",
   "geometry": {
    "type": "Point",
    "coordinates": [
     -0.0005373792152460259,
     -0.0005987202018686687
    ]
   },
   "properties": {
    "classname": "info_player_teamspawn",
    "team": "2",
    "targetname": "red_spawn_far",
    "hx": -3140.21,
    "hy": -3498.66,
    "hz": 312.005
   }
  },
  {
   "type": "Feature",
   "geometry": {
    "type": "Point",
    "coordinates": [
     -0.0005420065280617921,
     -0.000588794752780051
    ]
   },
   "properties": {
    "classname": "info_player_teamspawn",
    "team": "2",
    "targetname": "red_spawn_far",
    "hx": -3167.25,
    "hy": -3440.66,
    "hz": 312.005
   }
  },
  {
   "type": "Feature",
   "geometry": {
    "type": "Point",
    "coordinates": [
     -0.000524636992155037,
     -0.0005806935327825484
    ]
   },
   "properties": {
    "classname": "info_player_teamspawn",
    "team": "2",
    "targetname": "red_spawn_far",
    "hx": -3065.75,
    "hy": -3393.32,
    "hz": 312.005
   }
  },
  {
   "type": "Feature",
   "geometry": {
    "type": "Point",
    "coordinates": [
     -0.000533321760108407,
     -0.0005847441427812997
    ]
   },
   "properties": {
    "classname": "info_player_teamspawn",
    "team": "2",
    "targetname": "red_spawn_far",
    "hx": -3116.5,
    "hy": -3416.99,
    "hz": 312.005
   }
  },
  {
   "type": "Feature",
   "geometry": {
    "type": "Point",
    "coordinates": [
     -0.0005286927360082964,
     -0.0005946695918699173
    ]
   },
   "properties": {
    "classname": "info_player_teamspawn",
    "team": "2",
    "targetname": "red_spawn_far",
    "hx": -3089.45,
    "hy": -3474.99,
    "hz": 312.005
   }
  },
  {
   "type": "Feature",
   "geometry": {
    "type": "Point",
    "coordinates": [
     -0.0005296356536695132,
     -0.0005707064774582083
    ]
   },
   "properties": {
    "classname": "info_player_teamspawn",
    "team": "2",
    "targetname": "red_spawn_far",
    "hx": -3094.96,
    "hy": -3334.96,
    "hz": 312.005
   }
  },
  {
   "type": "Feature",
   "geometry": {
    "type": "Point",
    "coordinates": [
     -0.0005383204216228647,
     -0.0005747570874569597
    ]
   },
   "properties": {
    "classname": "info_player_teamspawn",
    "team": "2",
    "targetname": "red_spawn_far",
    "hx": -3145.71,
    "hy": -3358.63,
    "hz": 312.005
   }
  },
  {
   "type": "Feature",
   "geometry": {
    "type": "Point",
    "coordinates": [
     -0.0005470051895762314,
     -0.000578807697455711
    ]
   },
   "properties": {
    "classname": "info_player_teamspawn",
    "team": "2",
    "targetname": "red_spawn_far",
    "hx": -3196.46,
    "hy": -3382.3,
    "hz": 312.005
   }
  },
  {
   "type": "Feature",
   "geometry": {
    "type": "Point",
    "coordinates": [
     -0.0004861536302326262,
     -0.0005086878222132791
    ]
   },
   "properties": {
    "classname": "info_player_teamspawn",
    "team": "2",
    "targetname": "red_spawn_near",
    "hx": -2840.87,
    "hy": -2972.55,
    "hz": 328.005
   }
  },
  {
   "type": "Feature",
   "geometry": {
    "type": "Point",
    "coordinates": [
     -0.0005050290963452611,
     -0.0005120162702266172
    ]
   },
   "properties": {
    "classname": "info_player_teamspawn",
    "team": "2",
    "targetname": "red_spawn_near",
    "hx": -2951.17,
    "hy": -2992.0,
    "hz": 328.005
   }
  },
  {
   "type": "Feature",
   "geometry": {
    "type": "Point",
    "coordinates": [
     -0.0005069303332302611,
     -0.0005012300451222108
    ]
   },
   "properties": {
    "classname": "info_player_teamspawn",
    "team": "2",
    "targetname": "red_spawn_near",
    "hx": -2962.28,
    "hy": -2928.97,
    "hz": 328.005
   }
  },
  {
   "type": "Feature",
   "geometry": {
    "type": "Point",
    "coordinates": [
     -0.000488054867117662,
     -0.0004979015971088728
    ]
   },
   "properties": {
    "classname": "info_player_teamspawn",
    "team": "2",
    "targetname": "red_spawn_near",
    "hx": -2851.98,
    "hy": -2909.52,
    "hz": 328.005
   }
  },
  {
   "type": "Feature",
   "geometry": {
    "type": "Point",
    "coordinates": [
     -0.0004974926001739589,
     -0.000499564965473379
    ]
   },
   "properties": {
    "classname": "info_player_teamspawn",
    "team": "2",
    "targetname": "red_spawn_near",
    "hx": -2907.13,
    "hy": -2919.24,
    "hz": 328.005
   }
  },
  {
   "type": "Feature",
   "geometry": {
    "type": "Point",
    "coordinates": [
     -0.0004955896520046153,
     -0.0005103511905777854
    ]
   },
   "properties": {
    "classname": "info_player_teamspawn",
    "team": "2",
    "targetname": "red_spawn_near",
    "hx": -2896.01,
    "hy": -2982.27,
    "hz": 328.005
   }
  },
  {
   "type": "Feature",
   "geometry": {
    "type": "Point",
    "coordinates": [
     -0.0004901443452785367,
     -0.000487149597690979
    ]
   },
   "properties": {
    "classname": "info_player_teamspawn",
    "team": "2",
    "targetname": "red_spawn_near",
    "hx": -2864.19,
    "hy": -2846.69,
    "hz": 328.005
   }
  },
  {
   "type": "Feature",
   "geometry": {
    "type": "Point",
    "coordinates": [
     -0.0005090198113911009,
     -0.000490478045704317
    ]
   },
   "properties": {
    "classname": "info_player_teamspawn",
    "team": "2",
    "targetname": "red_spawn_near",
    "hx": -2974.49,
    "hy": -2866.14,
    "hz": 328.005
   }
  },
  {
   "type": "Feature",
   "geometry": {
    "type": "Point",
    "coordinates": [
     -0.0005109210482761242,
     -0.0004796918205999108
    ]
   },
   "properties": {
    "classname": "info_player_teamspawn",
    "team": "2",
    "targetname": "red_spawn_near",
    "hx": -2985.6,
    "hy": -2803.11,
    "hz": 328.005
   }
  },
  {
   "type": "Feature",
   "geometry": {
    "type": "Point",
    "coordinates": [
     -0.0004920455821635947,
     -0.0004763633725865726
    ]
   },
   "properties": {
    "classname": "info_player_teamspawn",
    "team": "2",
    "targetname": "red_spawn_near",
    "hx": -2875.3,
    "hy": -2783.66,
    "hz": 328.005
   }
  },
  {
   "type": "Feature",
   "geometry": {
    "type": "Point",
    "coordinates": [
     -0.0005014833152198569,
     -0.0004780284522354044
    ]
   },
   "properties": {
    "classname": "info_player_teamspawn",
    "team": "2",
    "targetname": "red_spawn_near",
    "hx": -2930.45,
    "hy": -2793.39,
    "hz": 328.005
   }
  },
  {
   "type": "Feature",
   "geometry": {
    "type": "Point",
    "coordinates": [
     -0.0004995820783348163,
     -0.0004888146773398108
    ]
   },
   "properties": {
    "classname": "info_player_teamspawn",
    "team": "2",
    "targetname": "red_spawn_near",
    "hx": -2919.34,
    "hy": -2856.42,
    "hz": 328.005
   }
  },
  {
   "type": "Feature",
   "geometry": {
    "type": "Point",
    "coordinates": [
     -6.513798431408202e-05,
     -0.00020225498316114193
    ]
   },
   "properties": {
    "classname": "item_healthkit_small",
    "team": "0",
    "targetname": "",
    "hx": -380.638,
    "hy": -1181.89,
    "hz": 10.4
   }
  },
  {
   "type": "Feature",
   "geometry": {
    "type": "Point",
    "coordinates": [
     -0.00014427975052165118,
     -0.00019722722981245941
    ]
   },
   "properties": {
    "classname": "item_ammopack_medium",
    "team": "0",
    "targetname": "",
    "hx": -843.108,
    "hy": -1152.51,
    "hz": 44.0
   }
  },
  {
   "type": "Feature",
   "geometry": {
    "type": "Point",
    "coordinates": [
     -0.00013784737499847812,
     -0.00019956826676991268
    ]
   },
   "properties": {
    "classname": "item_healthkit_medium",
    "team": "0",
    "targetname": "",
    "hx": -805.52,
    "hy": -1166.19,
    "hz": 44.0
   }
  },
  {
   "type": "Feature",
   "geometry": {
    "type": "Point",
    "coordinates": [
     -0.00019718787027588034,
     -0.0003112894639682573
    ]
   },
   "properties": {
    "classname": "item_healthkit_full",
    "team": "0",
    "targetname": "",
    "hx": -1152.28,
    "hy": -1819.04,
    "hz": 74.0
   }
  },
  {
   "type": "Feature",
   "geometry": {
    "type": "Point",
    "coordinates": [
     -0.0001947065080038628,
     -0.0003205475121698816
    ]
   },
   "properties": {
    "classname": "item_ammopack_full",
    "team": "0",
    "targetname": "",
    "hx": -1137.78,
    "hy": -1873.14,
    "hz": 74.0
   }
  },
  {
   "type": "Feature",
   "geometry": {
    "type": "Point",
    "coordinates": [
     -0.00018918419348451103,
     -0.00029355542450181866
    ]
   },
   "properties": {
    "classname": "item_healthkit_small",
    "team": "0",
    "targetname": "",
    "hx": -1105.51,
    "hy": -1715.41,
    "hz": 42.0
   }
  },
  {
   "type": "Feature",
   "geometry": {
    "type": "Point",
    "coordinates": [
     -0.00015127000473846486,
     -0.0004350495463973647
    ]
   },
   "properties": {
    "classname": "item_ammopack_small",
    "team": "0",
    "targetname": "",
    "hx": -883.956,
    "hy": -2542.24,
    "hz": 26.0
   }
  },
  {
   "type": "Feature",
   "geometry": {
    "type": "Point",
    "coordinates": [
     -0.00018741130292325363,
     -0.0003001661158517031
    ]
   },
   "properties": {
    "classname": "item_ammopack_medium",
    "team": "0",
    "targetname": "",
    "hx": -1095.15,
    "hy": -1754.04,
    "hz": 42.0
   }
  },
  {
   "type": "Feature",
   "geometry": {
    "type": "Point",
    "coordinates": [
     0.00013784737499847812,
     0.00019956826676991268
    ]
   },
   "properties": {
    "classname": "item_healthkit_medium",
    "team": "0",
    "targetname": "",
    "hx": 805.52,
    "hy": 1166.19,
    "hz": 44.0
   }
  },
  {
   "type": "Feature",
   "geometry": {
    "type": "Point",
    "coordinates": [
     0.00014427975052165118,
     0.00019722722981245941
    ]
   },
   "properties": {
    "classname": "item_ammopack_medium",
    "team": "0",
    "targetname": "",
    "hx": 843.108,
    "hy": 1152.51,
    "hz": 44.0
   }
  },
  {
   "type": "Feature",
   "geometry": {
    "type": "Point",
    "coordinates": [
     6.513798431408202e-05,
     0.00020225498316114193
    ]
   },
   "properties": {
    "classname": "item_healthkit_small",
    "team": "0",
    "targetname": "",
    "hx": 380.638,
    "hy": 1181.89,
    "hz": 10.4
   }
  },
  {
   "type": "Feature",
   "geometry": {
    "type": "Point",
    "coordinates": [
     0.00019718787027588034,
     0.0003112894639682573
    ]
   },
   "properties": {
    "classname": "item_healthkit_full",
    "team": "0",
    "targetname": "",
    "hx": 1152.28,
    "hy": 1819.04,
    "hz": 74.0
   }
  },
  {
   "type": "Feature",
   "geometry": {
    "type": "Point",
    "coordinates": [
     0.00018741130292325363,
     0.0003001661158517031
    ]
   },
   "properties": {
    "classname": "item_ammopack_medium",
    "team": "0",
    "targetname": "",
    "hx": 1095.15,
    "hy": 1754.04,
    "hz": 42.0
   }
  },
  {
   "type": "Feature",
   "geometry": {
    "type": "Point",
    "coordinates": [
     0.00018918419348451103,
     0.00029355542450181866
    ]
   },
   "properties": {
    "classname": "item_healthkit_small",
    "team": "0",
    "targetname": "",
    "hx": 1105.51,
    "hy": 1715.41,
    "hz": 42.0
   }
  },
  {
   "type": "Feature",
   "geometry": {
    "type": "Point",
    "coordinates": [
     0.00015127000473846486,
     0.0004350495463973647
    ]
   },
   "properties": {
    "classname": "item_ammopack_small",
    "team": "0",
    "targetname": "",
    "hx": 883.956,
    "hy": 2542.24,
    "hz": 26.0
   }
  },
  {
   "type": "Feature",
   "geometry": {
    "type": "Point",
    "coordinates": [
     0.0001947065080038628,
     0.0003205475121698816
    ]
   },
   "properties": {
    "classname": "item_ammopack_full",
    "team": "0",
    "targetname": "",
    "hx": 1137.78,
    "hy": 1873.14,
    "hz": 74.0
   }
  }
 ]
}
