{
 "type": "FeatureCollection",
 "note": "pseudo-WGS84 via crs.local_to_wgs84 ((0,0)m maps to (0,0)deg); viewing only, not survey",
 "features": [
  {
   "type": "Feature",
   "geometry": {
    "type": "Point",
    "coordinates": [
     0.00045811081397197404,
     0.0001894391748465459
    ]
   },
   "properties": {
    "classname": "item_ammopack_full",
    "team": "",
    "targetname": "",
    "hx": 2677.0,
    "hy": 1107.0,
    "hz": 16.2361
   }
  },
  {
   "type": "Feature",
   "geometry": {
    "type": "Point",
    "coordinates": [
     0.00031479930812128965,
     -0.0001567536442271328
    ]
   },
   "properties": {
    "classname": "item_ammopack_small",
    "team": "",
    "targetname": "",
    "hx": 1839.55,
    "hy": -916.0,
    "hz": 64.2361
   }
  },
  {
   "type": "Feature",
   "geometry": {
    "type": "Point",
    "coordinates": [
     0.00046872077679088986,
     0.00018909691798142114
    ]
   },
   "properties": {
    "classname": "item_healthkit_medium",
    "team": "",
    "targetname": "",
    "hx": 2739.0,
    "hy": 1105.0,
    "hz": 16.2361
   }
  },
  {
   "type": "Feature",
   "geometry": {
    "type": "Point",
    "coordinates": [
     -3.5081328675289166e-05,
     -2.32734668284826e-05
    ]
   },
   "properties": {
    "classname": "info_player_teamspawn",
    "team": "3",
    "targetname": "blu_spawn",
    "hx": -205.0,
    "hy": -136.0,
    "hz": 279.995
   }
  },
  {
   "type": "Feature",
   "geometry": {
    "type": "Point",
    "coordinates": [
     -2.4813622721545998e-05,
     -2.32734668284826e-05
    ]
   },
   "properties": {
    "classname": "info_player_teamspawn",
    "team": "3",
    "targetname": "blu_spawn",
    "hx": -145.0,
    "hy": -136.0,
    "hz": 279.995
   }
  },
  {
   "type": "Feature",
   "geometry": {
    "type": "Point",
    "coordinates": [
     -2.481362272154838e-05,
     -3.422568651247441e-05
    ]
   },
   "properties": {
    "classname": "info_player_teamspawn",
    "team": "3",
    "targetname": "blu_spawn",
    "hx": -145.0,
    "hy": -200.0,
    "hz": 279.995
   }
  },
  {
   "type": "Feature",
   "geometry": {
    "type": "Point",
    "coordinates": [
     -2.4813622721551663e-05,
     -4.5177906196466225e-05
    ]
   },
   "properties": {
    "classname": "info_player_teamspawn",
    "team": "3",
    "targetname": "blu_spawn",
    "hx": -145.0,
    "hy": -264.0,
    "hz": 279.995
   }
  },
  {
   "type": "Feature",
   "geometry": {
    "type": "Point",
    "coordinates": [
     -2.2246696233121374e-05,
     -6.194849258757869e-05
    ]
   },
   "properties": {
    "classname": "info_player_teamspawn",
    "team": "3",
    "targetname": "blu_spawn",
    "hx": -130.0,
    "hy": -362.0,
    "hz": 279.995
   }
  },
  {
   "type": "Feature",
   "geometry": {
    "type": "Point",
    "coordinates": [
     -3.508132867531561e-05,
     -7.40986112995071e-05
    ]
   },
   "properties": {
    "classname": "info_player_teamspawn",
    "team": "3",
    "targetname": "blu_spawn",
    "hx": -205.0,
    "hy": -433.0,
    "hz": 279.995
   }
  },
  {
   "type": "Feature",
   "geometry": {
    "type": "Point",
    "coordinates": [
     -4.534903462906652e-05,
     -7.40986112995071e-05
    ]
   },
   "properties": {
    "classname": "info_player_teamspawn",
    "team": "3",
    "targetname": "blu_spawn",
    "hx": -265.0,
    "hy": -433.0,
    "hz": 279.995
   }
  },
  {
   "type": "Feature",
   "geometry": {
    "type": "Point",
    "coordinates": [
     -5.5616740582817426e-05,
     -7.40986112995071e-05
    ]
   },
   "properties": {
    "classname": "info_player_teamspawn",
    "team": "3",
    "targetname": "blu_spawn",
    "hx": -325.0,
    "hy": -433.0,
    "hz": 279.995
   }
  },
  {
   "type": "Feature",
   "geometry": {
    "type": "Point",
    "coordinates": [
     -6.845137302500607e-05,
     -7.40986112995071e-05
    ]
   },
   "properties": {
    "classname": "info_player_teamspawn",
    "team": "3",
    "targetname": "blu_spawn",
    "hx": -400.0,
    "hy": -433.0,
    "hz": 280.0
   }
  },
  {
   "type": "Feature",
   "geometry": {
    "type": "Point",
    "coordinates": [
     -6.588444653653372e-05,
     -4.5177906196466225e-05
    ]
   },
   "properties": {
    "classname": "info_player_teamspawn",
    "team": "3",
    "targetname": "blu_spawn",
    "hx": -385.0,
    "hy": -264.0,
    "hz": 279.995
   }
  },
  {
   "type": "Feature",
   "geometry": {
    "type": "Point",
    "coordinates": [
     -5.561674058278821e-05,
     -4.5177906196466225e-05
    ]
   },
   "properties": {
    "classname": "info_player_teamspawn",
    "team": "3",
    "targetname": "blu_spawn",
    "hx": -325.0,
    "hy": -264.0,
    "hz": 279.995
   }
  },
  {
   "type": "Feature",
   "geometry": {
    "type": "Point",
    "coordinates": [
     -4.53490346290427e-05,
     -4.5177906196466225e-05
    ]
   },
   "properties": {
    "classname": "info_player_teamspawn",
    "team": "3",
    "targetname": "blu_spawn",
    "hx": -265.0,
    "hy": -264.0,
    "hz": 279.995
   }
  },
  {
   "type": "Feature",
   "geometry": {
    "type": "Point",
    "coordinates": [
     -3.5081328675297175e-05,
     -4.5177906196466225e-05
    ]
   },
   "properties": {
    "classname": "info_player_teamspawn",
    "team": "3",
    "targetname": "blu_spawn",
    "hx": -205.0,
    "hy": -264.0,
    "hz": 279.995
   }
  },
  {
   "type": "Feature",
   "geometry": {
    "type": "Point",
    "coordinates": [
     -3.5081328675292534e-05,
     -3.422568651247441e-05
    ]
   },
   "properties": {
    "classname": "info_player_teamspawn",
    "team": "3",
    "targetname": "blu_spawn",
    "hx": -205.0,
    "hy": -200.0,
    "hz": 279.995
   }
  },
  {
   "type": "Feature",
   "geometry": {
    "type": "Point",
    "coordinates": [
     -4.534903462903669e-05,
     -3.422568651247441e-05
    ]
   },
   "properties": {
    "classname": "info_player_teamspawn",
    "team": "3",
    "targetname": "blu_spawn",
    "hx": -265.0,
    "hy": -200.0,
    "hz": 279.995
   }
  },
  {
   "type": "Feature",
   "geometry": {
    "type": "Point",
    "coordinates": [
     -6.5884446536525e-05,
     -3.422568651247441e-05
    ]
   },
   "properties": {
    "classname": "info_player_teamspawn",
    "team": "3",
    "targetname": "blu_spawn",
    "hx": -385.0,
    "hy": -200.0,
    "hz": 279.995
   }
  },
  {
   "type": "Feature",
   "geometry": {
    "type": "Point",
    "coordinates": [
     -5.561674058278084e-05,
     -3.422568651247441e-05
    ]
   },
   "properties": {
    "classname": "info_player_teamspawn",
    "team": "3",
    "targetname": "blu_spawn",
    "hx": -325.0,
    "hy": -200.0,
    "hz": 279.995
   }
  },
  {
   "type": "Feature",
   "geometry": {
    "type": "Point",
    "coordinates": [
     -5.561674058277551e-05,
     -2.32734668284826e-05
    ]
   },
   "properties": {
    "classname": "info_player_teamspawn",
    "team": "3",
    "targetname": "blu_spawn",
    "hx": -325.0,
    "hy": -136.0,
    "hz": 279.995
   }
  },
  {
   "type": "Feature",
   "geometry": {
    "type": "Point",
    "coordinates": [
     -6.588444653651868e-05,
     -2.32734668284826e-05
    ]
   },
   "properties": {
    "classname": "info_player_teamspawn",
    "team": "3",
    "targetname": "blu_spawn",
    "hx": -385.0,
    "hy": -136.0,
    "hz": 279.995
   }
  },
  {
   "type": "Feature",
   "geometry": {
    "type": "Point",
    "coordinates": [
     -4.534903462903234e-05,
     -2.32734668284826e-05
    ]
   },
   "properties": {
    "classname": "info_player_teamspawn",
    "team": "3",
    "targetname": "blu_spawn",
    "hx": -265.0,
    "hy": -136.0,
    "hz": 279.995
   }
  },
  {
   "type": "Feature",
   "geometry": {
    "type": "Point",
    "coordinates": [
     -2.2246696233108408e-05,
     -3.422568651247441e-06
    ]
   },
   "properties": {
    "classname": "info_player_teamspawn",
    "team": "3",
    "targetname": "blu_spawn",
    "hx": -130.0,
    "hy": -20.0,
    "hz": 279.995
   }
  },
  {
   "type": "Feature",
   "geometry": {
    "type": "Point",
    "coordinates": [
     -3.508132867528668e-05,
     8.727550060680975e-06
    ]
   },
   "properties": {
    "classname": "info_player_teamspawn",
    "team": "3",
    "targetname": "blu_spawn",
    "hx": -205.0,
    "hy": 51.0,
    "hz": 279.995
   }
  },
  {
   "type": "Feature",
   "geometry": {
    "type": "Point",
    "coordinates": [
     -4.534903462902912e-05,
     8.727550060680975e-06
    ]
   },
   "properties": {
    "classname": "info_player_teamspawn",
    "team": "3",
    "targetname": "blu_spawn",
    "hx": -265.0,
    "hy": 51.0,
    "hz": 279.995
   }
  },
  {
   "type": "Feature",
   "geometry": {
    "type": "Point",
    "coordinates": [
     -5.561674058277156e-05,
     8.727550060680975e-06
    ]
   },
   "properties": {
    "classname": "info_player_teamspawn",
    "team": "3",
    "targetname": "blu_spawn",
    "hx": -325.0,
    "hy": 51.0,
    "hz": 279.995
   }
  },
  {
   "type": "Feature",
   "geometry": {
    "type": "Point",
    "coordinates": [
     -6.84513730249496e-05,
     8.727550060680975e-06
    ]
   },
   "properties": {
    "classname": "info_player_teamspawn",
    "team": "3",
    "targetname": "blu_spawn",
    "hx": -400.0,
    "hy": 51.0,
    "hz": 280.0
   }
  },
  {
   "type": "Feature",
   "geometry": {
    "type": "Point",
    "coordinates": [
     0.00034807523183593423,
     -0.00027705693231848036
    ]
   },
   "properties": {
    "classname": "item_healthkit_medium",
    "team": "",
    "targetname": "",
    "hx": 2034.0,
    "hy": -1619.0,
    "hz": 264.0
   }
  },
  {
   "type": "Feature",
   "geometry": {
    "type": "Point",
    "coordinates": [
     0.00021664859562617217,
     -0.00025874619003430656
    ]
   },
   "properties": {
    "classname": "item_ammopack_medium",
    "team": "",
    "targetname": "",
    "hx": 1266.0,
    "hy": -1512.0,
    "hz": 64.0
   }
  },
  {
   "type": "Feature",
   "geometry": {
    "type": "Point",
    "coordinates": [
     0.00015179091968410964,
     0.0002358149800709487
    ]
   },
   "properties": {
    "classname": "item_ammopack_medium",
    "team": "",
    "targetname": "",
    "hx": 887.0,
    "hy": 1378.0,
    "hz": 264.256
   }
  },
  {
   "type": "Feature",
   "geometry": {
    "type": "Point",
    "coordinates": [
     0.0001624008825030626,
     0.00023547272320582397
    ]
   },
   "properties": {
    "classname": "item_healthkit_medium",
    "team": "",
    "targetname": "",
    "hx": 949.0,
    "hy": 1376.0,
    "hz": 264.256
   }
  },
  {
   "type": "Feature",
   "geometry": {
    "type": "Point",
    "coordinates": [
     0.00039855811943779464,
     2.2246696233108367e-05
    ]
   },
   "properties": {
    "classname": "item_healthkit_full",
    "team": "",
    "targetname": "",
    "hx": 2329.0,
    "hy": 130.0,
    "hz": 16.0
   }
  },
  {
   "type": "Feature",
   "geometry": {
    "type": "Point",
    "coordinates": [
     0.0004641003091093443,
     -5.2023043498961106e-05
    ]
   },
   "properties": {
    "classname": "item_healthkit_small",
    "team": "",
    "targetname": "",
    "hx": 2712.0,
    "hy": -304.0,
    "hz": 264.0
   }
  },
  {
   "type": "Feature",
   "geometry": {
    "type": "Point",
    "coordinates": [
     0.0002248627603892559,
     -0.00025908844689943134
    ]
   },
   "properties": {
    "classname": "item_healthkit_medium",
    "team": "",
    "targetname": "",
    "hx": 1314.0,
    "hy": -1514.0,
    "hz": 64.0
   }
  },
  {
   "type": "Feature",
   "geometry": {
    "type": "Point",
    "coordinates": [
     0.00021613521032631035,
     -3.234327375428832e-05
    ]
   },
   "properties": {
    "classname": "team_control_point",
    "team": "",
    "targetname": "point",
    "hx": 1263.0,
    "hy": -189.0,
    "hz": 340.0
   }
  },
  {
   "type": "Feature",
   "geometry": {
    "type": "Point",
    "coordinates": [
     0.0003386238085054026,
     -0.00027701072764168855
    ]
   },
   "properties": {
    "classname": "item_ammopack_full",
    "team": "",
    "targetname": "",
    "hx": 1978.77,
    "hy": -1618.73,
    "hz": 264.0
   }
  },
  {
   "type": "Feature",
   "geometry": {
    "type": "Point",
    "coordinates": [
     0.00019320400036302668,
     6.075059355964208e-05
    ]
   },
   "properties": {
    "classname": "item_ammopack_medium",
    "team": "",
    "targetname": "",
    "hx": 1129.0,
    "hy": 355.0,
    "hz": 64.0
   }
  },
  {
   "type": "Feature",
   "geometry": {
    "type": "Point",
    "coordinates": [
     0.00019354625722819294,
     7.136055637850915e-05
    ]
   },
   "properties": {
    "classname": "item_healthkit_medium",
    "team": "",
    "targetname": "",
    "hx": 1131.0,
    "hy": 417.0,
    "hz": 64.0
   }
  },
  {
   "type": "Feature",
   "geometry": {
    "type": "Point",
    "coordinates": [
     0.00036193663486966876,
     6.759573086213696e-05
    ]
   },
   "properties": {
    "classname": "item_ammopack_small",
    "team": "",
    "targetname": "",
    "hx": 2115.0,
    "hy": 395.0,
    "hz": 734.261
   }
  },
  {
   "type": "Feature",
   "geometry": {
    "type": "Point",
    "coordinates": [
     0.0004747102719282184,
     -5.236530036408585e-05
    ]
   },
   "properties": {
    "classname": "item_ammopack_full",
    "team": "",
    "targetname": "",
    "hx": 2774.0,
    "hy": -306.0,
    "hz": 264.0
   }
  },
  {
   "type": "Feature",
   "geometry": {
    "type": "Point",
    "coordinates": [
     0.0003151415649862614,
     -0.00014614368140826572
    ]
   },
   "properties": {
    "classname": "item_healthkit_medium",
    "team": "",
    "targetname": "",
    "hx": 1841.55,
    "hy": -854.0,
    "hz": 64.2361
   }
  },
  {
   "type": "Feature",
   "geometry": {
    "type": "Point",
    "coordinates": [
     0.00039855811943792036,
     5.065401603846214e-05
    ]
   },
   "properties": {
    "classname": "item_ammopack_small",
    "team": "",
    "targetname": "",
    "hx": 2329.0,
    "hy": 296.0,
    "hz": 16.0
   }
  },
  {
   "type": "Feature",
   "geometry": {
    "type": "Point",
    "coordinates": [
     2.532700801923519e-05,
     -3.268553061941307e-05
    ]
   },
   "properties": {
    "classname": "item_healthkit_medium",
    "team": "",
    "targetname": "",
    "hx": 148.0,
    "hy": -191.0,
    "hz": 264.0
   }
  },
  {
   "type": "Feature",
   "geometry": {
    "type": "Point",
    "coordinates": [
     0.0006288969896671752,
     6.913588675519832e-05
    ]
   },
   "properties": {
    "classname": "info_player_teamspawn",
    "team": "2",
    "targetname": "hale_spawn",
    "hx": 3675.0,
    "hy": 404.0,
    "hz": 328.0
   }
  },
  {
   "type": "Feature",
   "geometry": {
    "type": "Point",
    "coordinates": [
     0.00034208573669225896,
     3.850389732653371e-05
    ]
   },
   "properties": {
    "classname": "item_ammopack_medium",
    "team": "",
    "targetname": "",
    "hx": 1999.0,
    "hy": 225.0,
    "hz": 264.0
   }
  }
 ]
}
