{
 "type": "FeatureCollection",
 "note": "pseudo-WGS84 via crs.local_to_wgs84 ((0,0)m maps to (0,0)deg); viewing only, not survey",
 "features": [
  {
   "type": "Feature",
   "geometry": {
    "type": "Point",
    "coordinates": [
     0.00014922399319439115,
     1.0952219683991812e-05
    ]
   },
   "properties": {
    "classname": "item_ammopack_small",
    "team": "0",
    "targetname": "",
    "hx": 872.0,
    "hy": 64.0,
    "hz": 236.0
   }
  },
  {
   "type": "Feature",
   "geometry": {
    "type": "Point",
    "coordinates": [
     0.00015470010303638682,
     1.0267705953742324e-05
    ]
   },
   "properties": {
    "classname": "item_healthkit_small",
    "team": "0",
    "targetname": "",
    "hx": 904.0,
    "hy": 60.0,
    "hz": 236.0
   }
  },
  {
   "type": "Feature",
   "geometry": {
    "type": "Point",
    "coordinates": [
     -0.00024094883304874538,
     -0.00015880718541788126
    ]
   },
   "properties": {
    "classname": "info_player_teamspawn",
    "team": "2",
    "targetname": "spawn_red",
    "hx": -1408.0,
    "hy": -928.0,
    "hz": -64.3286
   }
  },
  {
   "type": "Feature",
   "geometry": {
    "type": "Point",
    "coordinates": [
     -0.00024094883304887746,
     -0.0001697594051018731
    ]
   },
   "properties": {
    "classname": "info_player_teamspawn",
    "team": "2",
    "targetname": "spawn_red",
    "hx": -1408.0,
    "hy": -992.0,
    "hz": -64.3286
   }
  },
  {
   "type": "Feature",
   "geometry": {
    "type": "Point",
    "coordinates": [
     -0.00024094883304901833,
     -0.0001807116247858649
    ]
   },
   "properties": {
    "classname": "info_player_teamspawn",
    "team": "2",
    "targetname": "spawn_red",
    "hx": -1408.0,
    "hy": -1056.0,
    "hz": -64.3286
   }
  },
  {
   "type": "Feature",
   "geometry": {
    "type": "Point",
    "coordinates": [
     -0.00025737716257493733,
     -0.0001697611163861987
    ]
   },
   "properties": {
    "classname": "info_player_teamspawn",
    "team": "2",
    "targetname": "spawn_red",
    "hx": -1504.0,
    "hy": -992.01,
    "hz": -64.3286
   }
  },
  {
   "type": "Feature",
   "geometry": {
    "type": "Point",
    "coordinates": [
     -0.00025737716257508776,
     -0.00018071333607019052
    ]
   },
   "properties": {
    "classname": "info_player_teamspawn",
    "team": "2",
    "targetname": "spawn_red",
    "hx": -1504.0,
    "hy": -1056.01,
    "hz": -64.3286
   }
  },
  {
   "type": "Feature",
   "geometry": {
    "type": "Point",
    "coordinates": [
     -0.0002573771625747962,
     -0.00015880718541788126
    ]
   },
   "properties": {
    "classname": "info_player_teamspawn",
    "team": "2",
    "targetname": "spawn_red",
    "hx": -1504.0,
    "hy": -928.0,
    "hz": -64.3286
   }
  },
  {
   "type": "Feature",
   "geometry": {
    "type": "Point",
    "coordinates": [
     0.0001216890861398866,
     -0.00029827343538756324
    ]
   },
   "properties": {
    "classname": "info_player_teamspawn",
    "team": "2",
    "targetname": "spawn_red",
    "hx": 711.098,
    "hy": -1742.98,
    "hz": -63.9954
   }
  },
  {
   "type": "Feature",
   "geometry": {
    "type": "Point",
    "coordinates": [
     0.00012943350335551176,
     -0.00029052816252979027
    ]
   },
   "properties": {
    "classname": "info_player_teamspawn",
    "team": "2",
    "targetname": "spawn_red",
    "hx": 756.353,
    "hy": -1697.72,
    "hz": -63.9954
   }
  },
  {
   "type": "Feature",
   "geometry": {
    "type": "Point",
    "coordinates": [
     0.00013717792057112873,
     -0.00028278460095634297
    ]
   },
   "properties": {
    "classname": "info_player_teamspawn",
    "team": "2",
    "targetname": "spawn_red",
    "hx": 801.608,
    "hy": -1652.47,
    "hz": -63.9954
   }
  },
  {
   "type": "Feature",
   "geometry": {
    "type": "Point",
    "coordinates": [
     0.0001410512415140359,
     -0.00030214436053212413
    ]
   },
   "properties": {
    "classname": "info_player_teamspawn",
    "team": "2",
    "targetname": "spawn_red",
    "hx": 824.242,
    "hy": -1765.6,
    "hz": -63.9954
   }
  },
  {
   "type": "Feature",
   "geometry": {
    "type": "Point",
    "coordinates": [
     0.00014879565872964902,
     -0.00029439908767435116
    ]
   },
   "properties": {
    "classname": "info_player_teamspawn",
    "team": "2",
    "targetname": "spawn_red",
    "hx": 869.497,
    "hy": -1720.34,
    "hz": -63.9954
   }
  },
  {
   "type": "Feature",
   "geometry": {
    "type": "Point",
    "coordinates": [
     0.00013330562639938637,
     -0.00030988963338989705
    ]
   },
   "properties": {
    "classname": "info_player_teamspawn",
    "team": "2",
    "targetname": "spawn_red",
    "hx": 778.98,
    "hy": -1810.86,
    "hz": -63.9954
   }
  },
  {
   "type": "Feature",
   "geometry": {
    "type": "Point",
    "coordinates": [
     5.476092729236789e-06,
     0.0003176143708357625
    ]
   },
   "properties": {
    "classname": "info_player_teamspawn",
    "team": "2",
    "targetname": "spawn_red",
    "hx": 31.9999,
    "hy": 1856.0,
    "hz": -159.995
   }
  },
  {
   "type": "Feature",
   "geometry": {
    "type": "Point",
    "coordinates": [
     -5.4761269549233025e-06,
     0.0003176143708357625
    ]
   },
   "properties": {
    "classname": "info_player_teamspawn",
    "team": "2",
    "targetname": "spawn_red",
    "hx": -32.0001,
    "hy": 1856.0,
    "hz": -159.995
   }
  },
  {
   "type": "Feature",
   "geometry": {
    "type": "Point",
    "coordinates": [
     -1.6428346639083393e-05,
     0.0003176143708357625
    ]
   },
   "properties": {
    "classname": "info_player_teamspawn",
    "team": "2",
    "targetname": "spawn_red",
    "hx": -96.0001,
    "hy": 1856.0,
    "hz": -159.995
   }
  },
  {
   "type": "Feature",
   "geometry": {
    "type": "Point",
    "coordinates": [
     -5.477838239257884e-06,
     0.00033404270036175025
    ]
   },
   "properties": {
    "classname": "info_player_teamspawn",
    "team": "2",
    "targetname": "spawn_red",
    "hx": -32.0101,
    "hy": 1952.0,
    "hz": -159.995
   }
  },
  {
   "type": "Feature",
   "geometry": {
    "type": "Point",
    "coordinates": [
     -1.643005792343583e-05,
     0.00033404270036175025
    ]
   },
   "properties": {
    "classname": "info_player_teamspawn",
    "team": "2",
    "targetname": "spawn_red",
    "hx": -96.0101,
    "hy": 1952.0,
    "hz": -159.995
   }
  },
  {
   "type": "Feature",
   "geometry": {
    "type": "Point",
    "coordinates": [
     5.476092729245718e-06,
     0.00033404270036175025
    ]
   },
   "properties": {
    "classname": "info_player_teamspawn",
    "team": "2",
    "targetname": "spawn_red",
    "hx": 31.9999,
    "hy": 1952.0,
    "hz": -159.995
   }
  },
  {
   "type": "Feature",
   "geometry": {
    "type": "Point",
    "coordinates": [
     6.0237208264437996e-05,
     -0.0005202304349896111
    ]
   },
   "properties": {
    "classname": "info_player_teamspawn",
    "team": "2",
    "targetname": "spawn_red",
    "hx": 352.0,
    "hy": -3040.0,
    "hz": -63.9954
   }
  },
  {
   "type": "Feature",
   "geometry": {
    "type": "Point",
    "coordinates": [
     7.118942794888126e-05,
     -0.0005202304349896111
    ]
   },
   "properties": {
    "classname": "info_player_teamspawn",
    "team": "2",
    "targetname": "spawn_red",
    "hx": 416.0,
    "hy": -3040.0,
    "hz": -63.9954
   }
  },
  {
   "type": "Feature",
   "geometry": {
    "type": "Point",
    "coordinates": [
     8.214164763332453e-05,
     -0.0005202304349896111
    ]
   },
   "properties": {
    "classname": "info_player_teamspawn",
    "team": "2",
    "targetname": "spawn_red",
    "hx": 480.0,
    "hy": -3040.0,
    "hz": -63.9954
   }
  },
  {
   "type": "Feature",
   "geometry": {
    "type": "Point",
    "coordinates": [
     7.119113923339522e-05,
     -0.0005366587645155988
    ]
   },
   "properties": {
    "classname": "info_player_teamspawn",
    "team": "2",
    "targetname": "spawn_red",
    "hx": 416.01,
    "hy": -3136.0,
    "hz": -63.9954
   }
  },
  {
   "type": "Feature",
   "geometry": {
    "type": "Point",
    "coordinates": [
     8.214335891786746e-05,
     -0.0005366587645155988
    ]
   },
   "properties": {
    "classname": "info_player_teamspawn",
    "team": "2",
    "targetname": "spawn_red",
    "hx": 480.01,
    "hy": -3136.0,
    "hz": -63.9954
   }
  },
  {
   "type": "Feature",
   "geometry": {
    "type": "Point",
    "coordinates": [
     6.023720826459729e-05,
     -0.0005366587645155988
    ]
   },
   "properties": {
    "classname": "info_player_teamspawn",
    "team": "2",
    "targetname": "spawn_red",
    "hx": 352.0,
    "hy": -3136.0,
    "hz": -63.9954
   }
  },
  {
   "type": "Feature",
   "geometry": {
    "type": "Point",
    "coordinates": [
     -3.559471397298674e-05,
     -4.96272454430879e-05
    ]
   },
   "properties": {
    "classname": "item_ammopack_small",
    "team": "0",
    "targetname": "",
    "hx": -208.0,
    "hy": -290.0,
    "hz": -59.9552
   }
  },
  {
   "type": "Feature",
   "geometry": {
    "type": "Point",
    "coordinates": [
     -0.0002471094566242135,
     -0.0003319891591710018
    ]
   },
   "properties": {
    "classname": "item_healthkit_small",
    "team": "0",
    "targetname": "",
    "hx": -1444.0,
    "hy": -1940.0,
    "hz": 68.3141
   }
  },
  {
   "type": "Feature",
   "geometry": {
    "type": "Point",
    "coordinates": [
     -3.593697083811869e-05,
     -6.127698461820395e-05
    ]
   },
   "properties": {
    "classname": "item_healthkit_medium",
    "team": "0",
    "targetname": "",
    "hx": -210.0,
    "hy": -358.076,
    "hz": -58.943
   }
  },
  {
   "type": "Feature",
   "geometry": {
    "type": "Point",
    "coordinates": [
     0.0003372667600376173,
     -0.0003527504606094688
    ]
   },
   "properties": {
    "classname": "info_player_teamspawn",
    "team": "3",
    "targetname": "",
    "hx": 1970.84,
    "hy": -2061.32,
    "hz": 0.00458145
   }
  },
  {
   "type": "Feature",
   "geometry": {
    "type": "Point",
    "coordinates": [
     0.000160433247784111,
     -3.004330762065004e-05
    ]
   },
   "properties": {
    "classname": "item_healthkit_small",
    "team": "0",
    "targetname": "",
    "hx": 937.502,
    "hy": -175.56,
    "hz": -47.7387
   }
  },
  {
   "type": "Feature",
   "geometry": {
    "type": "Point",
    "coordinates": [
     0.00016043324778409785,
     -1.909108793665823e-05
    ]
   },
   "properties": {
    "classname": "item_ammopack_medium",
    "team": "0",
    "targetname": "",
    "hx": 937.502,
    "hy": -111.56,
    "hz": -47.7387
   }
  },
  {
   "type": "Feature",
   "geometry": {
    "type": "Point",
    "coordinates": [
     -8.077262017006735e-05,
     -0.0002258895309823311
    ]
   },
   "properties": {
    "classname": "item_ammopack_medium",
    "team": "0",
    "targetname": "",
    "hx": -472.0,
    "hy": -1320.0,
    "hz": -15.7894
   }
  },
  {
   "type": "Feature",
   "geometry": {
    "type": "Point",
    "coordinates": [
     0.00019577092685462463,
     -0.0003312088135185174
    ]
   },
   "properties": {
    "classname": "item_ammopack_small",
    "team": "0",
    "targetname": "",
    "hx": 1144.0,
    "hy": -1935.44,
    "hz": -59.0723
   }
  },
  {
   "type": "Feature",
   "geometry": {
    "type": "Point",
    "coordinates": [
     -0.00023752626440055977,
     -0.0003319891591710018
    ]
   },
   "properties": {
    "classname": "item_ammopack_small",
    "team": "0",
    "targetname": "",
    "hx": -1388.0,
    "hy": -1940.0,
    "hz": 68.2561
   }
  },
  {
   "type": "Feature",
   "geometry": {
    "type": "Point",
    "coordinates": [
     -8.2137711678617e-06,
     -0.00045827338598040425
    ]
   },
   "properties": {
    "classname": "item_healthkit_medium",
    "team": "0",
    "targetname": "",
    "hx": -47.9977,
    "hy": -2677.95,
    "hz": -234.158
   }
  },
  {
   "type": "Feature",
   "geometry": {
    "type": "Point",
    "coordinates": [
     -8.213771167874339e-06,
     -0.0004691674219973249
    ]
   },
   "properties": {
    "classname": "item_ammopack_full",
    "team": "0",
    "targetname": "",
    "hx": -47.9977,
    "hy": -2741.61,
    "hz": -233.089
   }
  },
  {
   "type": "Feature",
   "geometry": {
    "type": "Point",
    "coordinates": [
     -8.00881064397394e-05,
     -0.00021219925637734136
    ]
   },
   "properties": {
    "classname": "item_healthkit_medium",
    "team": "0",
    "targetname": "",
    "hx": -468.0,
    "hy": -1240.0,
    "hz": -19.7639
   }
  },
  {
   "type": "Feature",
   "geometry": {
    "type": "Point",
    "coordinates": [
     0.0001436203926727871,
     -0.0003482891423725677
    ]
   },
   "properties": {
    "classname": "item_ammopack_medium",
    "team": "0",
    "targetname": "",
    "hx": 839.255,
    "hy": -2035.25,
    "hz": -231.789
   }
  },
  {
   "type": "Feature",
   "geometry": {
    "type": "Point",
    "coordinates": [
     -0.00013690274605007835,
     -9.30938673139304e-05
    ]
   },
   "properties": {
    "classname": "item_ammopack_small",
    "team": "0",
    "targetname": "",
    "hx": -800.0,
    "hy": -544.0,
    "hz": 86.2562
   }
  },
  {
   "type": "Feature",
   "geometry": {
    "type": "Point",
    "coordinates": [
     -0.00012182359308639197,
     9.294430106387089e-05
    ]
   },
   "properties": {
    "classname": "item_ammopack_small",
    "team": "0",
    "targetname": "",
    "hx": -711.884,
    "hy": 543.126,
    "hz": -150.943
   }
  },
  {
   "type": "Feature",
   "geometry": {
    "type": "Point",
    "coordinates": [
     -0.00011087137340238574,
     9.294430106387089e-05
    ]
   },
   "properties": {
    "classname": "item_healthkit_medium",
    "team": "0",
    "targetname": "",
    "hx": -647.884,
    "hy": 543.126,
    "hz": -154.943
   }
  },
  {
   "type": "Feature",
   "geometry": {
    "type": "Point",
    "coordinates": [
     0.0001355337185918948,
     -0.00034773297496674006
    ]
   },
   "properties": {
    "classname": "item_healthkit_small",
    "team": "0",
    "targetname": "",
    "hx": 792.0,
    "hy": -2032.0,
    "hz": -231.764
   }
  },
  {
   "type": "Feature",
   "geometry": {
    "type": "Point",
    "coordinates": [
     -0.00012749068225984157,
     0.00021219925637734136
    ]
   },
   "properties": {
    "classname": "item_ammopack_medium",
    "team": "0",
    "targetname": "",
    "hx": -745.0,
    "hy": 1240.0,
    "hz": -159.732
   }
  },
  {
   "type": "Feature",
   "geometry": {
    "type": "Point",
    "coordinates": [
     -0.0001189212548707868,
     0.0002118569995122166
    ]
   },
   "properties": {
    "classname": "item_healthkit_medium",
    "team": "0",
    "targetname": "",
    "hx": -694.924,
    "hy": 1238.0,
    "hz": -158.72
   }
  },
  {
   "type": "Feature",
   "geometry": {
    "type": "Point",
    "coordinates": [
     -4.928498857811533e-05,
     0.00014237885589189354
    ]
   },
   "properties": {
    "classname": "item_ammopack_medium",
    "team": "0",
    "targetname": "",
    "hx": -288.0,
    "hy": 832.0,
    "hz": -384.0
   }
  },
  {
   "type": "Feature",
   "geometry": {
    "type": "Point",
    "coordinates": [
     -0.00024642494289597915,
     -0.0004052321283076971
    ]
   },
   "properties": {
    "classname": "info_player_teamspawn",
    "team": "3",
    "targetname": "",
    "hx": -1440.0,
    "hy": -2368.0,
    "hz": 272.005
   }
  },
  {
   "type": "Feature",
   "geometry": {
    "type": "Point",
    "coordinates": [
     -0.0002601152174969013,
     0.00022999661336382804
    ]
   },
   "properties": {
    "classname": "info_player_teamspawn",
    "team": "3",
    "targetname": "",
    "hx": -1520.0,
    "hy": 1344.0,
    "hz": -128.0
   }
  },
  {
   "type": "Feature",
   "geometry": {
    "type": "Point",
    "coordinates": [
     0.0002354727232060993,
     8.76177574719345e-05
    ]
   },
   "properties": {
    "classname": "info_player_teamspawn",
    "team": "3",
    "targetname": "",
    "hx": 1376.0,
    "hy": 512.0,
    "hz": -63.9954
   }
  },
  {
   "type": "Feature",
   "geometry": {
    "type": "Point",
    "coordinates": [
     0.00013964080097462813,
     -0.0004189224029126868
    ]
   },
   "properties": {
    "classname": "item_ammopack_medium",
    "team": "0",
    "targetname": "",
    "hx": 816.0,
    "hy": -2448.0,
    "hz": -55.7894
   }
  },
  {
   "type": "Feature",
   "geometry": {
    "type": "Point",
    "coordinates": [
     0.00012868858129033234,
     -0.0004182378891824373
    ]
   },
   "properties": {
    "classname": "item_healthkit_medium",
    "team": "0",
    "targetname": "",
    "hx": 752.0,
    "hy": -2444.0,
    "hz": -59.7639
   }
  },
  {
   "type": "Feature",
   "geometry": {
    "type": "Point",
    "coordinates": [
     9.309386731514447e-05,
     0.00029261592940705124
    ]
   },
   "properties": {
    "classname": "item_ammopack_medium",
    "team": "0",
    "targetname": "",
    "hx": 544.0,
    "hy": 1709.92,
    "hz": -158.207
   }
  },
  {
   "type": "Feature",
   "geometry": {
    "type": "Point",
    "coordinates": [
     9.343612418034609e-05,
     0.00030118604130977483
    ]
   },
   "properties": {
    "classname": "item_healthkit_medium",
    "team": "0",
    "targetname": "",
    "hx": 546.0,
    "hy": 1760.0,
    "hz": -157.195
   }
  }
 ]
}
