{
 "type": "FeatureCollection",
 "note": "pseudo-WGS84 via crs.local_to_wgs84 ((0,0)m maps to (0,0)deg); viewing only, not survey",
 "features": [
  {
   "type": "Feature",
   "geometry": {
    "type": "Point",
    "coordinates": [
     -1.369027460500202e-05,
     7.666553778794268e-05
    ]
   },
   "properties": {
    "classname": "info_player_teamspawn",
    "team": "3",
    "targetname": "",
    "hx": -80.0,
    "hy": 448.0,
    "hz": 512.005
   }
  },
  {
   "type": "Feature",
   "geometry": {
    "type": "Point",
    "coordinates": [
     2.6011521749926255e-05,
     -0.0003354117278222492
    ]
   },
   "properties": {
    "classname": "info_player_teamspawn",
    "team": "3",
    "targetname": "",
    "hx": 152.0,
    "hy": -1960.0,
    "hz": 0.00457001
   }
  },
  {
   "type": "Feature",
   "geometry": {
    "type": "Point",
    "coordinates": [
     -0.00010267705953752182,
     7.940359270894063e-05
    ]
   },
   "properties": {
    "classname": "info_player_teamspawn",
    "team": "3",
    "targetname": "",
    "hx": -600.0,
    "hy": 464.0,
    "hz": 128.005
   }
  },
  {
   "type": "Feature",
   "geometry": {
    "type": "Point",
    "coordinates": [
     -0.0001390456162830759,
     -0.00017277982193659896
    ]
   },
   "properties": {
    "classname": "info_player_teamspawn",
    "team": "3",
    "targetname": "",
    "hx": -812.522,
    "hy": -1009.65,
    "hz": 0.00457764
   }
  },
  {
   "type": "Feature",
   "geometry": {
    "type": "Point",
    "coordinates": [
     0.00028338868432341757,
     -5.476109841995906e-05
    ]
   },
   "properties": {
    "classname": "info_player_teamspawn",
    "team": "3",
    "targetname": "",
    "hx": 1656.0,
    "hy": -320.0,
    "hz": 272.0
   }
  },
  {
   "type": "Feature",
   "geometry": {
    "type": "Point",
    "coordinates": [
     0.0003395188102037465,
     2.738054920997953e-06
    ]
   },
   "properties": {
    "classname": "info_player_teamspawn",
    "team": "3",
    "targetname": "",
    "hx": 1984.0,
    "hy": 16.0,
    "hz": 512.005
   }
  },
  {
   "type": "Feature",
   "geometry": {
    "type": "Point",
    "coordinates": [
     0.00020398509161714029,
     -0.0002998170138492758
    ]
   },
   "properties": {
    "classname": "info_player_teamspawn",
    "team": "2",
    "targetname": "",
    "hx": 1192.0,
    "hy": -1752.0,
    "hz": 16.0
   }
  },
  {
   "type": "Feature",
   "geometry": {
    "type": "Point",
    "coordinates": [
     0.0001916638444701896,
     -0.00010678414191892016
    ]
   },
   "properties": {
    "classname": "info_player_teamspawn",
    "team": "2",
    "targetname": "",
    "hx": 1120.0,
    "hy": -624.0,
    "hz": 12.0
   }
  },
  {
   "type": "Feature",
   "geometry": {
    "type": "Point",
    "coordinates": [
     -2.053541190753535e-05,
     -0.00012731955382640483
    ]
   },
   "properties": {
    "classname": "info_player_teamspawn",
    "team": "2",
    "targetname": "",
    "hx": -120.0,
    "hy": -744.0,
    "hz": 16.0
   }
  },
  {
   "type": "Feature",
   "geometry": {
    "type": "Point",
    "coordinates": [
     0.0002272585584428366,
     1.3721283076970069e-05
    ]
   },
   "properties": {
    "classname": "item_healthkit_medium",
    "team": "0",
    "targetname": "",
    "hx": 1328.0,
    "hy": 80.1812,
    "hz": 308.0
   }
  },
  {
   "type": "Feature",
   "geometry": {
    "type": "Point",
    "coordinates": [
     0.00022794307217309623,
     2.1904439367983625e-05
    ]
   },
   "properties": {
    "classname": "item_ammopack_medium",
    "team": "0",
    "targetname": "",
    "hx": 1332.0,
    "hy": 128.0,
    "hz": 308.0
   }
  },
  {
   "type": "Feature",
   "geometry": {
    "type": "Point",
    "coordinates": [
     0.00020719032715664398,
     -0.00011304333546832149
    ]
   },
   "properties": {
    "classname": "info_player_teamspawn",
    "team": "2",
    "targetname": "",
    "hx": 1210.73,
    "hy": -660.576,
    "hz": 12.0046
   }
  },
  {
   "type": "Feature",
   "geometry": {
    "type": "Point",
    "coordinates": [
     -9.172483985343143e-05,
     0.0
    ]
   },
   "properties": {
    "classname": "item_healthkit_small",
    "team": "0",
    "targetname": "",
    "hx": -536.0,
    "hy": 0.0,
    "hz": 20.2106
   }
  },
  {
   "type": "Feature",
   "geometry": {
    "type": "Point",
    "coordinates": [
     -4.791596111746485e-05,
     -9.583192223492835e-06
    ]
   },
   "properties": {
    "classname": "item_ammopack_medium",
    "team": "",
    "targetname": "",
    "hx": -280.0,
    "hy": -56.0,
    "hz": 272.0
   }
  },
  {
   "type": "Feature",
   "geometry": {
    "type": "Point",
    "coordinates": [
     -4.791596111746649e-05,
     -1.7797356986486693e-05
    ]
   },
   "properties": {
    "classname": "item_healthkit_small",
    "team": "",
    "targetname": "",
    "hx": -280.0,
    "hy": -104.0,
    "hz": 272.0
   }
  },
  {
   "type": "Feature",
   "geometry": {
    "type": "Point",
    "coordinates": [
     0.00020422124885158846,
     -9.899591582457406e-05
    ]
   },
   "properties": {
    "classname": "info_player_teamspawn",
    "team": "2",
    "targetname": "",
    "hx": 1193.38,
    "hy": -578.489,
    "hz": 12.0046
   }
  },
  {
   "type": "Feature",
   "geometry": {
    "type": "Point",
    "coordinates": [
     0.00010952219684084305,
     -0.00023547272320582397
    ]
   },
   "properties": {
    "classname": "item_healthkit_small",
    "team": "",
    "targetname": "",
    "hx": 640.0,
    "hy": -1376.0,
    "hz": 96.2562
   }
  },
  {
   "type": "Feature",
   "geometry": {
    "type": "Point",
    "coordinates": [
     0.00010130803207777983,
     -0.00023547272320582397
    ]
   },
   "properties": {
    "classname": "item_ammopack_medium",
    "team": "",
    "targetname": "",
    "hx": 592.0,
    "hy": -1376.0,
    "hz": 96.2562
   }
  },
  {
   "type": "Feature",
   "geometry": {
    "type": "Point",
    "coordinates": [
     8.21416476301638e-06,
     -0.0001341646911288997
    ]
   },
   "properties": {
    "classname": "item_ammopack_small",
    "team": "0",
    "targetname": "",
    "hx": 48.0,
    "hy": -784.0,
    "hz": 536.0
   }
  },
  {
   "type": "Feature",
   "geometry": {
    "type": "Point",
    "coordinates": [
     0.00022452050352184658,
     2.053541190748465e-05
    ]
   },
   "properties": {
    "classname": "info_player_teamspawn",
    "team": "2",
    "targetname": "",
    "hx": 1312.0,
    "hy": 120.0,
    "hz": 16.0
   }
  },
  {
   "type": "Feature",
   "geometry": {
    "type": "Point",
    "coordinates": [
     0.0003378075258789655,
     -0.0001280040675566543
    ]
   },
   "properties": {
    "classname": "info_player_teamspawn",
    "team": "2",
    "targetname": "",
    "hx": 1974.0,
    "hy": -748.0,
    "hz": 5.00458
   }
  },
  {
   "type": "Feature",
   "geometry": {
    "type": "Point",
    "coordinates": [
     0.00019781248905229845,
     -0.0001256543030491404
    ]
   },
   "properties": {
    "classname": "info_player_teamspawn",
    "team": "2",
    "targetname": "",
    "hx": 1155.93,
    "hy": -734.269,
    "hz": 12.0046
   }
  },
  {
   "type": "Feature",
   "geometry": {
    "type": "Point",
    "coordinates": [
     0.00033370044349708897,
     -9.548966536980361e-05
    ]
   },
   "properties": {
    "classname": "item_ammopack_medium",
    "team": "",
    "targetname": "",
    "hx": 1950.0,
    "hy": -558.0,
    "hz": 18.0
   }
  },
  {
   "type": "Feature",
   "geometry": {
    "type": "Point",
    "coordinates": [
     0.0003337004434971721,
     -0.00010370383013279747
    ]
   },
   "properties": {
    "classname": "item_healthkit_small",
    "team": "0",
    "targetname": "",
    "hx": 1950.0,
    "hy": -606.0,
    "hz": 26.0
   }
  },
  {
   "type": "Feature",
   "geometry": {
    "type": "Point",
    "coordinates": [
     -2.053541190766213e-05,
     -0.0002382107781268219
    ]
   },
   "properties": {
    "classname": "info_player_teamspawn",
    "team": "2",
    "targetname": "",
    "hx": -120.0,
    "hy": -1392.0,
    "hz": 264.0
   }
  },
  {
   "type": "Feature",
   "geometry": {
    "type": "Point",
    "coordinates": [
     -1.0952219684086468e-05,
     -0.0002382107781268219
    ]
   },
   "properties": {
    "classname": "info_player_teamspawn",
    "team": "2",
    "targetname": "",
    "hx": -64.0,
    "hy": -1392.0,
    "hz": 264.0
   }
  },
  {
   "type": "Feature",
   "geometry": {
    "type": "Point",
    "coordinates": [
     0.00030488070416919886,
     -9.30938673139304e-05
    ]
   },
   "properties": {
    "classname": "info_player_teamspawn",
    "team": "2",
    "targetname": "",
    "hx": 1781.59,
    "hy": -544.0,
    "hz": 16.0
   }
  },
  {
   "type": "Feature",
   "geometry": {
    "type": "Point",
    "coordinates": [
     -3.0118604131051844e-05,
     -0.00012731955382640483
    ]
   },
   "properties": {
    "classname": "info_player_teamspawn",
    "team": "2",
    "targetname": "",
    "hx": -176.0,
    "hy": -744.0,
    "hz": 16.0
   }
  },
  {
   "type": "Feature",
   "geometry": {
    "type": "Point",
    "coordinates": [
     -9.446289477453641e-05,
     -8.624873001143552e-05
    ]
   },
   "properties": {
    "classname": "info_player_teamspawn",
    "team": "2",
    "targetname": "",
    "hx": -552.0,
    "hy": -504.0,
    "hz": 312.0
   }
  },
  {
   "type": "Feature",
   "geometry": {
    "type": "Point",
    "coordinates": [
     -9.446289477458105e-05,
     -0.00010267705953742323
    ]
   },
   "properties": {
    "classname": "item_ammopack_medium",
    "team": "0",
    "targetname": "",
    "hx": -552.0,
    "hy": -600.0,
    "hz": 312.0
   }
  },
  {
   "type": "Feature",
   "geometry": {
    "type": "Point",
    "coordinates": [
     0.0002135682838407643,
     -0.0002998170138492758
    ]
   },
   "properties": {
    "classname": "info_player_teamspawn",
    "team": "2",
    "targetname": "",
    "hx": 1248.0,
    "hy": -1752.0,
    "hz": 8.0
   }
  },
  {
   "type": "Feature",
   "geometry": {
    "type": "Point",
    "coordinates": [
     -3.9701796354813444e-05,
     -0.0002382107781268219
    ]
   },
   "properties": {
    "classname": "info_player_teamspawn",
    "team": "2",
    "targetname": "",
    "hx": -232.0,
    "hy": -1392.0,
    "hz": 264.0
   }
  },
  {
   "type": "Feature",
   "geometry": {
    "type": "Point",
    "coordinates": [
     -3.0118604131237788e-05,
     -0.0002382107781268219
    ]
   },
   "properties": {
    "classname": "info_player_teamspawn",
    "team": "2",
    "targetname": "",
    "hx": -176.0,
    "hy": -1392.0,
    "hz": 264.0
   }
  },
  {
   "type": "Feature",
   "geometry": {
    "type": "Point",
    "coordinates": [
     0.00018389290234759818,
     -0.00011932494684238848
    ]
   },
   "properties": {
    "classname": "info_player_teamspawn",
    "team": "2",
    "targetname": "",
    "hx": 1074.59,
    "hy": -697.283,
    "hz": 12.0046
   }
  },
  {
   "type": "Feature",
   "geometry": {
    "type": "Point",
    "coordinates": [
     -2.738054920998106e-05,
     1.916638444698567e-05
    ]
   },
   "properties": {
    "classname": "item_ammopack_full",
    "team": "",
    "targetname": "",
    "hx": -160.0,
    "hy": 112.0,
    "hz": 16.0
   }
  },
  {
   "type": "Feature",
   "geometry": {
    "type": "Point",
    "coordinates": [
     0.00022452050352183626,
     1.0952219683991812e-05
    ]
   },
   "properties": {
    "classname": "info_player_teamspawn",
    "team": "2",
    "targetname": "",
    "hx": 1312.0,
    "hy": 64.0,
    "hz": 16.0
   }
  },
  {
   "type": "Feature",
   "geometry": {
    "type": "Point",
    "coordinates": [
     0.00021834105582206102,
     -4.10708238149693e-05
    ]
   },
   "properties": {
    "classname": "info_player_teamspawn",
    "team": "2",
    "targetname": "",
    "hx": 1275.89,
    "hy": -240.0,
    "hz": 16.0
   }
  },
  {
   "type": "Feature",
   "geometry": {
    "type": "Point",
    "coordinates": [
     0.0002183410558220379,
     -3.1487631591476464e-05
    ]
   },
   "properties": {
    "classname": "info_player_teamspawn",
    "team": "2",
    "targetname": "",
    "hx": 1275.89,
    "hy": -184.0,
    "hz": 16.0
   }
  },
  {
   "type": "Feature",
   "geometry": {
    "type": "Point",
    "coordinates": [
     2.909114902192357e-05,
     -0.00010682709515549332
    ]
   },
   "properties": {
    "classname": "info_player_teamspawn",
    "team": "2",
    "targetname": "",
    "hx": 169.996,
    "hy": -624.251,
    "hz": 12.0046
   }
  },
  {
   "type": "Feature",
   "geometry": {
    "type": "Point",
    "coordinates": [
     2.4299552910162515e-05,
     -9.852770843308341e-05
    ]
   },
   "properties": {
    "classname": "info_player_teamspawn",
    "team": "2",
    "targetname": "",
    "hx": 141.996,
    "hy": -575.753,
    "hz": 12.0046
   }
  },
  {
   "type": "Feature",
   "geometry": {
    "type": "Point",
    "coordinates": [
     4.020132024923302e-05,
     -0.00013593005203921312
    ]
   },
   "properties": {
    "classname": "info_player_teamspawn",
    "team": "2",
    "targetname": "",
    "hx": 234.919,
    "hy": -794.316,
    "hz": 12.0046
   }
  },
  {
   "type": "Feature",
   "geometry": {
    "type": "Point",
    "coordinates": [
     4.020132024921763e-05,
     -0.0001263468598157203
    ]
   },
   "properties": {
    "classname": "info_player_teamspawn",
    "team": "2",
    "targetname": "",
    "hx": 234.919,
    "hy": -738.316,
    "hz": 12.0046
   }
  },
  {
   "type": "Feature",
   "geometry": {
    "type": "Point",
    "coordinates": [
     0.00018481870716989218,
     -0.0002998170138492758
    ]
   },
   "properties": {
    "classname": "info_player_teamspawn",
    "team": "2",
    "targetname": "",
    "hx": 1080.0,
    "hy": -1752.0,
    "hz": 8.0
   }
  },
  {
   "type": "Feature",
   "geometry": {
    "type": "Point",
    "coordinates": [
     0.00019440189939351623,
     -0.0002998170138492758
    ]
   },
   "properties": {
    "classname": "info_player_teamspawn",
    "team": "2",
    "targetname": "",
    "hx": 1136.0,
    "hy": -1752.0,
    "hz": 8.0
   }
  },
  {
   "type": "Feature",
   "geometry": {
    "type": "Point",
    "coordinates": [
     0.0003686020873177636,
     -2.7447973812409105e-05
    ]
   },
   "properties": {
    "classname": "info_player_teamspawn",
    "team": "2",
    "targetname": "",
    "hx": 2153.95,
    "hy": -160.394,
    "hz": 11.0046
   }
  },
  {
   "type": "Feature",
   "geometry": {
    "type": "Point",
    "coordinates": [
     8.21416476301922e-06,
     -0.00014237885589189354
    ]
   },
   "properties": {
    "classname": "item_ammopack_small",
    "team": "0",
    "targetname": "",
    "hx": 48.0,
    "hy": -832.0,
    "hz": 536.0
   }
  },
  {
   "type": "Feature",
   "geometry": {
    "type": "Point",
    "coordinates": [
     0.00023684175067061644,
     -0.00034499492004574206
    ]
   },
   "properties": {
    "classname": "item_ammopack_medium",
    "team": "",
    "targetname": "",
    "hx": 1384.0,
    "hy": -2016.0,
    "hz": 16.0
   }
  },
  {
   "type": "Feature",
   "geometry": {
    "type": "Point",
    "coordinates": [
     0.00024505591543375917,
     -0.00034499492004574206
    ]
   },
   "properties": {
    "classname": "item_healthkit_medium",
    "team": "",
    "targetname": "",
    "hx": 1432.0,
    "hy": -2016.0,
    "hz": 16.0
   }
  },
  {
   "type": "Feature",
   "geometry": {
    "type": "Point",
    "coordinates": [
     0.00017865808359512794,
     2.053541190748465e-05
    ]
   },
   "properties": {
    "classname": "item_healthkit_medium",
    "team": "",
    "targetname": "",
    "hx": 1044.0,
    "hy": 120.0,
    "hz": 8.261
   }
  },
  {
   "type": "Feature",
   "geometry": {
    "type": "Point",
    "coordinates": [
     0.00026011521749482597,
     2.2697448524477656e-05
    ]
   },
   "properties": {
    "classname": "item_ammopack_small",
    "team": "0",
    "targetname": "",
    "hx": 1520.0,
    "hy": 132.634,
    "hz": 528.0
   }
  },
  {
   "type": "Feature",
   "geometry": {
    "type": "Point",
    "coordinates": [
     0.00013005760874769686,
     -0.00012184344398440891
    ]
   },
   "properties": {
    "classname": "item_healthkit_medium",
    "team": "",
    "targetname": "",
    "hx": 760.0,
    "hy": -712.0,
    "hz": 32.0
   }
  },
  {
   "type": "Feature",
   "geometry": {
    "type": "Point",
    "coordinates": [
     8.487970255100461e-05,
     -7.255845540644577e-05
    ]
   },
   "properties": {
    "classname": "item_ammopack_full",
    "team": "",
    "targetname": "",
    "hx": 496.0,
    "hy": -424.0,
    "hz": 0.236069
   }
  },
  {
   "type": "Feature",
   "geometry": {
    "type": "Point",
    "coordinates": [
     -2.7380549210200132e-06,
     -0.00022999661336382804
    ]
   },
   "properties": {
    "classname": "item_ammopack_small",
    "team": "0",
    "targetname": "",
    "hx": -16.0,
    "hy": -1344.0,
    "hz": 276.261
   }
  },
  {
   "type": "Feature",
   "geometry": {
    "type": "Point",
    "coordinates": [
     0.00017865808359512057,
     1.232124714449079e-05
    ]
   },
   "properties": {
    "classname": "item_ammopack_medium",
    "team": "",
    "targetname": "",
    "hx": 1044.0,
    "hy": 72.0,
    "hz": 8.261
   }
  },
  {
   "type": "Feature",
   "geometry": {
    "type": "Point",
    "coordinates": [
     0.00026011521749484375,
     3.106562887677765e-05
    ]
   },
   "properties": {
    "classname": "item_healthkit_small",
    "team": "0",
    "targetname": "",
    "hx": 1520.0,
    "hy": 181.534,
    "hz": 528.0
   }
  },
  {
   "type": "Feature",
   "geometry": {
    "type": "Point",
    "coordinates": [
     -2.738054921021617e-06,
     -0.0002382107781268219
    ]
   },
   "properties": {
    "classname": "item_healthkit_small",
    "team": "0",
    "targetname": "",
    "hx": -16.0,
    "hy": -1392.0,
    "hz": 284.261
   }
  },
  {
   "type": "Feature",
   "geometry": {
    "type": "Point",
    "coordinates": [
     0.0002874957667055733,
     -0.0001341646911288997
    ]
   },
   "properties": {
    "classname": "item_ammopack_medium",
    "team": "",
    "targetname": "",
    "hx": 1680.0,
    "hy": -784.0,
    "hz": 16.2361
   }
  },
  {
   "type": "Feature",
   "geometry": {
    "type": "Point",
    "coordinates": [
     0.0002874957667053642,
     -0.00011499830668191402
    ]
   },
   "properties": {
    "classname": "item_healthkit_medium",
    "team": "",
    "targetname": "",
    "hx": 1680.0,
    "hy": -672.0,
    "hz": 16.2361
   }
  }
 ]
}
